line_1,suburb,postal_code,state,country,location
134 JOLIMONT ROAD,VERMONT,3133,VIC,AUSTRALIA,"{'longitude': 145.18686289, 'latitude': -37.84506885}"
41 OLIVE PARADE,NEW TOWN,5554,SA,AUSTRALIA,"{'longitude': 137.70171182, 'latitude': -33.95574863}"
37 SEEGER DRIVE,MORPHETT VALE,5162,SA,AUSTRALIA,"{'longitude': 138.51199559, 'latitude': -35.10896215}"
2465 ILLAWARRA HIGHWAY,TULLIMBAR,2527,NSW,AUSTRALIA,"{'longitude': 150.74464748, 'latitude': -34.57653022}"
22 JUDE AVENUE,MILDURA,3500,VIC,AUSTRALIA,"{'longitude': 142.14844279, 'latitude': -34.1770559}"
7 BELLOMBI STREET,CAMPSIE,2194,NSW,AUSTRALIA,"{'longitude': 151.11244319, 'latitude': -33.90760429}"
19 CURTIS COURT,NAGAMBIE,3608,VIC,AUSTRALIA,"{'longitude': 145.1576403, 'latitude': -36.77874653}"
13 DUNN ROAD,HIGHBURY,5089,SA,AUSTRALIA,"{'longitude': 138.71221658, 'latitude': -34.84842706}"
9 RIDGEWAY ROAD,EDINBURGH NORTH,5113,SA,AUSTRALIA,"{'longitude': 138.6566535, 'latitude': -34.70710008}"
"UNIT 99, 23 REGENT HONEYEATER GROVE",NORTH KELLYVILLE,2155,NSW,AUSTRALIA,"{'longitude': 150.93470741, 'latitude': -33.68502132}"
32 KLOEDEN STREET,CEDUNA,5690,SA,AUSTRALIA,"{'longitude': 133.67776325, 'latitude': -32.12899435}"
3 PROMINENCE RISE,CRAIGIEBURN,3064,VIC,AUSTRALIA,"{'longitude': 144.92727254, 'latitude': -37.56870616}"
7 OATLEY PLACE,PADSTOW HEIGHTS,2211,NSW,AUSTRALIA,"{'longitude': 151.02751407, 'latitude': -33.96641124}"
114 EDWARDS ROAD,MAIDEN GULLY,3551,VIC,AUSTRALIA,"{'longitude': 144.20697755, 'latitude': -36.75369905}"
33 MUIR STREET,CANNON HILL,4170,QLD,AUSTRALIA,"{'longitude': 153.08807154, 'latitude': -27.46991639}"
258 SHADBOLT ROAD,MOTHAR MOUNTAIN,4570,QLD,AUSTRALIA,"{'longitude': 152.7614497, 'latitude': -26.22676175}"
34 WARREN ROAD,PARA VISTA,5093,SA,AUSTRALIA,"{'longitude': 138.66453483, 'latitude': -34.82166298}"
46 SUNHILL ROAD,GLEN IRIS,3146,VIC,AUSTRALIA,"{'longitude': 145.05847092, 'latitude': -37.84877984}"
20 RIVERSIDE CIRCUIT,JOYNER,4500,QLD,AUSTRALIA,"{'longitude': 152.95433714, 'latitude': -27.27237154}"
112 MAIN NORTH ROAD,CLARE,5453,SA,AUSTRALIA,"{'longitude': 138.61752522, 'latitude': -33.84408265}"
"UNIT 2, 23 REYNOLDS AVENUE",DERNANCOURT,5075,SA,AUSTRALIA,"{'longitude': 138.681784, 'latitude': -34.85703192}"
11 MORNING GLORY AVENUE,O'HALLORAN HILL,5158,SA,AUSTRALIA,"{'longitude': 138.55723502, 'latitude': -35.07167044}"
66B MITCHELL STREET,NORTHCOTE,3070,VIC,AUSTRALIA,"{'longitude': 145.00369663, 'latitude': -37.77279029}"
"UNIT 3, 84 FINNEGAN CIRCUIT",OXLEY,4075,QLD,AUSTRALIA,"{'longitude': 152.9745532, 'latitude': -27.56461495}"
18 PERRIAM STREET,MOUNT GAMBIER,5290,SA,AUSTRALIA,"{'longitude': 140.77053561, 'latitude': -37.81010069}"
46 DALTON AVENUE,ALDGATE,5154,SA,AUSTRALIA,"{'longitude': 138.74825747, 'latitude': -35.02490958}"
61 PALMER STREET,BALMAIN,2041,NSW,AUSTRALIA,"{'longitude': 151.18077081, 'latitude': -33.86034467}"
58 LINDEN TREE WAY,CRANBOURNE NORTH,3977,VIC,AUSTRALIA,"{'longitude': 145.32045889, 'latitude': -38.08585636}"
33 GREENSVIEW ROAD,BANKSIA PARK,5091,SA,AUSTRALIA,"{'longitude': 138.72828574, 'latitude': -34.80624577}"
92 BOYKAMBIL ESPLANADE NORTH,HOPE ISLAND,4212,QLD,AUSTRALIA,"{'longitude': 153.37872806, 'latitude': -27.86972512}"
10 ROYAL PARADE,PASCOE VALE SOUTH,3044,VIC,AUSTRALIA,"{'longitude': 144.94583695, 'latitude': -37.74575584}"
31 BENJAMIN DRIVE,WALLSEND,2287,NSW,AUSTRALIA,"{'longitude': 151.65754428, 'latitude': -32.89124369}"
45 PORT ELLIOT ROAD,GOOLWA BEACH,5214,SA,AUSTRALIA,"{'longitude': 138.77035006, 'latitude': -35.50547658}"
9 LARSEN COURT,OTTOWAY,5013,SA,AUSTRALIA,"{'longitude': 138.53307952, 'latitude': -34.84832627}"
22 EDDYS GROVE,BENTLEIGH,3204,VIC,AUSTRALIA,"{'longitude': 145.02942091, 'latitude': -37.91918384}"
846 SAYERS ROAD,TARNEIT,3029,VIC,AUSTRALIA,"{'longitude': 144.66694309, 'latitude': -37.84564855}"
8 CYPRESS STREET,HIDDEN VALLEY,4703,QLD,AUSTRALIA,"{'longitude': 150.71207129, 'latitude': -23.16136997}"
6 DAVID STREET,MOUNT PRITCHARD,2170,NSW,AUSTRALIA,"{'longitude': 150.90794849, 'latitude': -33.90146754}"
"UNIT 104, 177-185 WILLIAM STREET",DARLINGHURST,2010,NSW,AUSTRALIA,"{'longitude': 151.21963042, 'latitude': -33.87506603}"
10 DEMPSEY STREET,NORTH RYDE,2113,NSW,AUSTRALIA,"{'longitude': 151.11557685, 'latitude': -33.80018378}"
27 YARRA BANK COURT,ABBOTSFORD,3067,VIC,AUSTRALIA,"{'longitude': 144.99838893, 'latitude': -37.80473084}"
"UNIT 3, 152 ALMA ROAD",ST KILDA EAST,3183,VIC,AUSTRALIA,"{'longitude': 144.99980263, 'latitude': -37.86233409}"
31 DEREK CRESCENT,MORPHETT VALE,5162,SA,AUSTRALIA,"{'longitude': 138.54116658, 'latitude': -35.13399371}"
32 ROSE STREET,MURRUMBATEMAN,2582,NSW,AUSTRALIA,"{'longitude': 149.02878768, 'latitude': -34.96651092}"
5A FERN ROAD,HUNTERS HILL,2110,NSW,AUSTRALIA,"{'longitude': 151.15969086, 'latitude': -33.84250033}"
26 BUTTERICK STREET,PORT PIRIE SOUTH,5540,SA,AUSTRALIA,"{'longitude': 138.00758454, 'latitude': -33.20231179}"
8 SUNNY VALE DRIVE,LANGWARRIN,3910,VIC,AUSTRALIA,"{'longitude': 145.20119971, 'latitude': -38.15960291}"
4 SHIRLEY COURT,MITCHAM,3132,VIC,AUSTRALIA,"{'longitude': 145.1881489, 'latitude': -37.81336585}"
"UNIT 13, 9 BLAXLAND AVENUE",NEWINGTON,2127,NSW,AUSTRALIA,"{'longitude': 151.06180441, 'latitude': -33.83350815}"
37 PICKWORTH DRIVE,LEOPOLD,3224,VIC,AUSTRALIA,"{'longitude': 144.46124179, 'latitude': -38.19216211}"
8 OCEANIC DRIVE,PATTERSON LAKES,3197,VIC,AUSTRALIA,"{'longitude': 145.14285888, 'latitude': -38.05744385}"
39 NYRANG CIRCUIT,WOODCROFT,5162,SA,AUSTRALIA,"{'longitude': 138.5635265, 'latitude': -35.09780047}"
"VILLA 63, 100 ALBANY CREEK ROAD",ASPLEY,4034,QLD,AUSTRALIA,"{'longitude': 153.01087005, 'latitude': -27.36443144}"
78 GREENFIELDS DRIVE,ANDREWS FARM,5114,SA,AUSTRALIA,"{'longitude': 138.66085013, 'latitude': -34.66898077}"
"UNIT 129, 2 ROCHESTER PARADE",CRANBOURNE EAST,3977,VIC,AUSTRALIA,"{'longitude': 145.2994627, 'latitude': -38.10109705}"
21 SINCLAIR STREET,HAYBOROUGH,5211,SA,AUSTRALIA,"{'longitude': 138.64245583, 'latitude': -35.53151107}"
248 WOOLPACK ROAD,ST ARNAUD,3478,VIC,AUSTRALIA,"{'longitude': 143.2260245, 'latitude': -36.58269822}"
20 BANKS STREET,PADSTOW,2211,NSW,AUSTRALIA,"{'longitude': 151.03408072, 'latitude': -33.95115344}"
1 SLIGO CLOSE,KILLARNEY HEIGHTS,2087,NSW,AUSTRALIA,"{'longitude': 151.20928208, 'latitude': -33.77082726}"
5 ELLABAY CRESCENT,REDLAND BAY,4165,QLD,AUSTRALIA,"{'longitude': 153.30108284, 'latitude': -27.63682941}"
168 UPPER BROOKFIELD ROAD,BROOKFIELD,4069,QLD,AUSTRALIA,"{'longitude': 152.89094732, 'latitude': -27.4917428}"
4 MULGOA ROAD,REGENTVILLE,2745,NSW,AUSTRALIA,"{'longitude': 150.66838908, 'latitude': -33.77358455}"
"UNIT 1, 140 LENNOX STREET",NEWTOWN,2042,NSW,AUSTRALIA,"{'longitude': 151.17628137, 'latitude': -33.89660895}"
39 GOODENIA LOOP,CRANBOURNE WEST,3977,VIC,AUSTRALIA,"{'longitude': 145.24238314, 'latitude': -38.11309489}"
"UNIT 1, 94 RAILWAY PARADE",PASCOE VALE,3044,VIC,AUSTRALIA,"{'longitude': 144.92566095, 'latitude': -37.72464983}"
20 KAORIKI COURT,CONDON,4815,QLD,AUSTRALIA,"{'longitude': 146.72553102, 'latitude': -19.33525453}"
"UNIT 3, 17 LATHAM STREET",IVANHOE,3079,VIC,AUSTRALIA,"{'longitude': 145.04283799, 'latitude': -37.77379789}"
24 BLESSINGTON WAY,FLINDERS VIEW,4305,QLD,AUSTRALIA,"{'longitude': 152.76635574, 'latitude': -27.65286746}"
12 WEAVER BOULEVARD,PARALOWIE,5108,SA,AUSTRALIA,"{'longitude': 138.6109262, 'latitude': -34.76474182}"
71 ADAMS STREET,COOTAMUNDRA,2590,NSW,AUSTRALIA,"{'longitude': 148.02362665, 'latitude': -34.63248707}"
60 TENNYSON STREET,KURRALTA PARK,5037,SA,AUSTRALIA,"{'longitude': 138.56361148, 'latitude': -34.94943702}"
28 CHERISH DRIVE,TARNEIT,3029,VIC,AUSTRALIA,"{'longitude': 144.68905582, 'latitude': -37.81841162}"
8 LARKSPUR CIRCUIT,GLEN WAVERLEY,3150,VIC,AUSTRALIA,"{'longitude': 145.16595689, 'latitude': -37.88852285}"
26 RIVER ROAD,WALWA,3709,VIC,AUSTRALIA,"{'longitude': 147.73583664, 'latitude': -35.96051649}"
10 CORREA COURT,MOUNT BARKER,5251,SA,AUSTRALIA,"{'longitude': 138.85812363, 'latitude': -35.0853107}"
4 HOURIGAN WAY,WERRIBEE,3030,VIC,AUSTRALIA,"{'longitude': 144.62662599, 'latitude': -37.9165624}"
9 RAVALIA WALK,OFFICER,3809,VIC,AUSTRALIA,"{'longitude': 145.40913485, 'latitude': -38.07171176}"
69A GOLF LINKS ROAD,LAKES ENTRANCE,3909,VIC,AUSTRALIA,"{'longitude': 148.01571479, 'latitude': -37.87071282}"
115 RINGWOOD ROAD,SUNTOP,2820,NSW,AUSTRALIA,"{'longitude': 148.88074917, 'latitude': -32.56255285}"
118 SHAWS ROAD,WERRIBEE,3030,VIC,AUSTRALIA,"{'longitude': 144.65467098, 'latitude': -37.88940082}"
15 VANALI DRIVE,PORT ELLIOT,5212,SA,AUSTRALIA,"{'longitude': 138.68488956, 'latitude': -35.52243329}"
"UNIT 2, 30 ASHLEY STREET",RESERVOIR,3073,VIC,AUSTRALIA,"{'longitude': 145.00252694, 'latitude': -37.71723084}"
682 CABRAMATTA ROAD WEST,BONNYRIGG,2177,NSW,AUSTRALIA,"{'longitude': 150.8942818, 'latitude': -33.89416277}"
122 SIMPSON STREET,TUMUT,2720,NSW,AUSTRALIA,"{'longitude': 148.22559506, 'latitude': -35.31415728}"
805 CAMBRIDGE ROAD,CAMBRIDGE,7170,TAS,AUSTRALIA,"{'longitude': 147.42242101, 'latitude': -42.84119518}"
41 SOUTHERDEN AVENUE,GRANGE,4051,QLD,AUSTRALIA,"{'longitude': 153.00908122, 'latitude': -27.42264351}"
127 ANDERSON ROAD,BAYVIEW HEIGHTS,4868,QLD,AUSTRALIA,"{'longitude': 145.73374876, 'latitude': -16.96704829}"
9 HAWKESBURY DRIVE,DONNYBROOK,3064,VIC,AUSTRALIA,"{'longitude': 144.96873335, 'latitude': -37.54025243}"
71 STEVEYS FOREST ROAD,OAKDALE,2570,NSW,AUSTRALIA,"{'longitude': 150.49780026, 'latitude': -34.07411686}"
27 HARROWBY STREET,CORINDA,4075,QLD,AUSTRALIA,"{'longitude': 152.97911413, 'latitude': -27.53690311}"
13 MORLEY STREET,WEST GLADSTONE,4680,QLD,AUSTRALIA,"{'longitude': 151.24366548, 'latitude': -23.86781497}"
900 MOOROODUC HIGHWAY,MORNINGTON,3931,VIC,AUSTRALIA,"{'longitude': 145.08321611, 'latitude': -38.24548966}"
90 FULLARTON ROAD,NORWOOD,5067,SA,AUSTRALIA,"{'longitude': 138.62369786, 'latitude': -34.92418186}"
"UNIT 2, 195 POSTLE STREET",ACACIA RIDGE,4110,QLD,AUSTRALIA,"{'longitude': 153.02654982, 'latitude': -27.57735623}"
21 ALBION PARK DRIVE,CRANBOURNE EAST,3977,VIC,AUSTRALIA,"{'longitude': 145.31695948, 'latitude': -38.11787341}"
51 BRIDGE ROAD,ARDROSSAN,5571,SA,AUSTRALIA,"{'longitude': 137.92215244, 'latitude': -34.41406727}"
200 BUNGOWER ROAD,MORNINGTON,3931,VIC,AUSTRALIA,"{'longitude': 145.08024987, 'latitude': -38.22729285}"
113 JOSEPH STREET,KINGSWOOD,2747,NSW,AUSTRALIA,"{'longitude': 150.72167376, 'latitude': -33.75607882}"
"UNIT 54, 1-29 BUNN STREET",PYRMONT,2009,NSW,AUSTRALIA,"{'longitude': 151.1972289, 'latitude': -33.8717669}"
"UNIT 7, 10-16 GLEBE STREET",GLEBE,2037,NSW,AUSTRALIA,"{'longitude': 151.19416473, 'latitude': -33.88210686}"
44 YOUNG STREET,FITZROY,3065,VIC,AUSTRALIA,"{'longitude': 144.97832444, 'latitude': -37.80694564}"
"UNIT 2, 27 GORDON STREET",TRARALGON,3844,VIC,AUSTRALIA,"{'longitude': 146.53527042, 'latitude': -38.19162853}"
83 VILLAGE CIRCUIT,EIMEO,4740,QLD,AUSTRALIA,"{'longitude': 149.17897136, 'latitude': -21.0410854}"
6 SAPPHIRE DRIVE,RUTHERFORD,2320,NSW,AUSTRALIA,"{'longitude': 151.54129282, 'latitude': -32.71189843}"
13 OLIVER CRESCENT,PORT NOARLUNGA,5167,SA,AUSTRALIA,"{'longitude': 138.48014434, 'latitude': -35.14553642}"
182 COMMERCIAL ROAD,PRAHRAN,3181,VIC,AUSTRALIA,"{'longitude': 144.99243788, 'latitude': -37.84679853}"
52 HOLLYWOOD AVENUE,BELLMERE,4510,QLD,AUSTRALIA,"{'longitude': 152.91766135, 'latitude': -27.08649818}"
6 BYRON COURT,HEIDELBERG HEIGHTS,3081,VIC,AUSTRALIA,"{'longitude': 145.05649693, 'latitude': -37.73945084}"
24 KEERA STREET,BINGARA,2404,NSW,AUSTRALIA,"{'longitude': 150.5689027, 'latitude': -29.86576314}"
"UNIT 513, 88 TRENERRY CRESCENT",ABBOTSFORD,3067,VIC,AUSTRALIA,"{'longitude': 144.99818955, 'latitude': -37.79791725}"
4 AVERY COURT,WHEELERS HILL,3150,VIC,AUSTRALIA,"{'longitude': 145.18564989, 'latitude': -37.89638185}"
11 RIVER STREET,EARLWOOD,2206,NSW,AUSTRALIA,"{'longitude': 151.12130986, 'latitude': -33.91936515}"
2 PAKENHAM STREET,LONGFORD,7301,TAS,AUSTRALIA,"{'longitude': 147.11926468, 'latitude': -41.59614899}"
"UNIT 6, 104 CENTRAL LANE",GLADSTONE CENTRAL,4680,QLD,AUSTRALIA,"{'longitude': 151.25731898, 'latitude': -23.84726315}"
11A KAURI PARADE,SEACLIFF,5049,SA,AUSTRALIA,"{'longitude': 138.52132842, 'latitude': -35.02823035}"
381 DRYNIE ROAD,BRANDON,4808,QLD,AUSTRALIA,"{'longitude': 147.33111128, 'latitude': -19.53126531}"
37 RISBY STREET,ULVERSTONE,7315,TAS,AUSTRALIA,"{'longitude': 146.17555973, 'latitude': -41.16156642}"
59 BANGALEE STREET,LAUDERDALE,7021,TAS,AUSTRALIA,"{'longitude': 147.49465071, 'latitude': -42.90148505}"
31 ST AUBYN SQUARE,MOONAH,7009,TAS,AUSTRALIA,"{'longitude': 147.30138266, 'latitude': -42.84033968}"
905 STELLING STREET,GLENROY,2640,NSW,AUSTRALIA,"{'longitude': 146.90822142, 'latitude': -36.05879181}"
9 VALOUR COURT,GOLDEN GROVE,5125,SA,AUSTRALIA,"{'longitude': 138.70037666, 'latitude': -34.77937027}"
7 BASIL COURT,NIKENBAH,4655,QLD,AUSTRALIA,"{'longitude': 152.82036982, 'latitude': -25.3099934}"
102 SANCTUARY BOULEVARD,ARMSTRONG CREEK,3217,VIC,AUSTRALIA,"{'longitude': 144.34628905, 'latitude': -38.23772263}"
4 BUTTERCUP PLACE,MOUNT ANNAN,2567,NSW,AUSTRALIA,"{'longitude': 150.75992068, 'latitude': -34.064824}"
24 REARDEN AVENUE,KINGS LANGLEY,2147,NSW,AUSTRALIA,"{'longitude': 150.94434426, 'latitude': -33.75733271}"
6 DUNCAN ROAD,WEST CROYDON,5008,SA,AUSTRALIA,"{'longitude': 138.55594713, 'latitude': -34.88947927}"
591 HORROCKS HIGHWAY,ROSEWORTHY,5371,SA,AUSTRALIA,"{'longitude': 138.75229483, 'latitude': -34.51965365}"
7 WOODHEAD STREET,FITZROY NORTH,3068,VIC,AUSTRALIA,"{'longitude': 144.98643594, 'latitude': -37.78454984}"
10 MARLOW COURT,MOUNT GAMBIER,5290,SA,AUSTRALIA,"{'longitude': 140.7948118, 'latitude': -37.81960709}"
30 ROSEMEATH AVENUE,KINGSGROVE,2208,NSW,AUSTRALIA,"{'longitude': 151.10437495, 'latitude': -33.930601}"
15 YOUNG STREET,DARNUM,3822,VIC,AUSTRALIA,"{'longitude': 146.00207519, 'latitude': -38.18767831}"
"UNIT 5, 68-70 CALLANDER ROAD",NOBLE PARK,3174,VIC,AUSTRALIA,"{'longitude': 145.17812588, 'latitude': -37.95652785}"
11 FRANK BELL STREET,EMERALD,4720,QLD,AUSTRALIA,"{'longitude': 148.16069464, 'latitude': -23.52827954}"
12 STRATHMONT DRIVE,STRATHALBYN,5255,SA,AUSTRALIA,"{'longitude': 138.89997122, 'latitude': -35.26506623}"
43 CARTERS LANE,FAIRY MEADOW,2519,NSW,AUSTRALIA,"{'longitude': 150.90261495, 'latitude': -34.38943014}"
42 ROSETTA STREET,WEST CROYDON,5008,SA,AUSTRALIA,"{'longitude': 138.55927588, 'latitude': -34.88925077}"
"UNIT 2, 72 RIVERSIDE AVENUE",WERRIBEE,3030,VIC,AUSTRALIA,"{'longitude': 144.65898543, 'latitude': -37.91749368}"
68 WENTWORTH STREET,SOUTH HOBART,7004,TAS,AUSTRALIA,"{'longitude': 147.30694312, 'latitude': -42.8964682}"
1 BELLEVUE STREET,BUNDABERG WEST,4670,QLD,AUSTRALIA,"{'longitude': 152.33213399, 'latitude': -24.8736639}"
4 O'DONNELL COURT,CLERMONT,4721,QLD,AUSTRALIA,"{'longitude': 147.64377871, 'latitude': -22.82058296}"
352 BLOCKERS ROAD,MYPONGA,5202,SA,AUSTRALIA,"{'longitude': 138.52006256, 'latitude': -35.36933471}"
1 VIVONNE WAY,OAKLANDS PARK,5046,SA,AUSTRALIA,"{'longitude': 138.54882522, 'latitude': -35.00612135}"
53 FRESHWATER POINT ROAD,LEGANA,7277,TAS,AUSTRALIA,"{'longitude': 147.04709886, 'latitude': -41.3604482}"
61 RIDGE ROAD,ENGADINE,2233,NSW,AUSTRALIA,"{'longitude': 151.00007237, 'latitude': -34.05067706}"
44 ROSE STREET,ALTONA,3018,VIC,AUSTRALIA,"{'longitude': 144.81956396, 'latitude': -37.86717883}"
"UNIT 1, 59 BAYNES STREET",ROCHESTER,3561,VIC,AUSTRALIA,"{'longitude': 144.71175511, 'latitude': -36.35942101}"
"UNIT 1, 6 BIRT STREET",WHYALLA,5600,SA,AUSTRALIA,"{'longitude': 137.58749203, 'latitude': -33.03693425}"
112 GOSFORD ROAD,ADAMSTOWN,2289,NSW,AUSTRALIA,"{'longitude': 151.7313259, 'latitude': -32.93009938}"
64 MARIAN STREET,MILES,4415,QLD,AUSTRALIA,"{'longitude': 150.18912303, 'latitude': -26.65893244}"
19 EVERARD TERRACE,MARSDEN PARK,2765,NSW,AUSTRALIA,"{'longitude': 150.81274684, 'latitude': -33.70322937}"
"UNIT 2, 14 MCDONALD STREET",PRESTON,3072,VIC,AUSTRALIA,"{'longitude': 144.99223394, 'latitude': -37.73796784}"
8 CHETTLE STREET,DEVONPORT,7310,TAS,AUSTRALIA,"{'longitude': 146.35409767, 'latitude': -41.18570316}"
20 ADELONG DRIVE,KINGSTON,7050,TAS,AUSTRALIA,"{'longitude': 147.29557141, 'latitude': -42.9670898}"
57 MAYNE STREET,INVERMAY,7248,TAS,AUSTRALIA,"{'longitude': 147.1291779, 'latitude': -41.42193965}"
62 KORENAN SERVICE ROAD,LOWMEAD,4676,QLD,AUSTRALIA,"{'longitude': 151.72815042, 'latitude': -24.5306104}"
1249 GURRUNDAH ROAD,PARKESBOURNE,2580,NSW,AUSTRALIA,"{'longitude': 149.56398487, 'latitude': -34.73452515}"
7 BAYNTON STREET,KINGSTON,7050,TAS,AUSTRALIA,"{'longitude': 147.30464703, 'latitude': -42.9848151}"
5 ACACIA CLOSE,MANSFIELD,3722,VIC,AUSTRALIA,"{'longitude': 146.1060435, 'latitude': -37.03413245}"
34 SILVER WATTLE GROVE,PEREGIAN SPRINGS,4573,QLD,AUSTRALIA,"{'longitude': 153.07943165, 'latitude': -26.5094025}"
13 ENID AVENUE,ROSELANDS,2196,NSW,AUSTRALIA,"{'longitude': 151.08078625, 'latitude': -33.93447002}"
326 GRAND JUNCTION ROAD,ENFIELD,5085,SA,AUSTRALIA,"{'longitude': 138.60163076, 'latitude': -34.84834769}"
428 HENSHAWS ROAD,ST HELENS,3285,VIC,AUSTRALIA,"{'longitude': 142.03191306, 'latitude': -38.26149407}"
20 PRINCES HIGHWAY,PAKENHAM,3810,VIC,AUSTRALIA,"{'longitude': 145.48687682, 'latitude': -38.07159388}"
1943 AMIENS ROAD,BAPAUME,4352,QLD,AUSTRALIA,"{'longitude': 151.83096181, 'latitude': -28.56167438}"
204 COMO PARADE EAST,PARKDALE,3195,VIC,AUSTRALIA,"{'longitude': 145.07759191, 'latitude': -37.9938956}"
76 ANNE STREET,GEORGE TOWN,7253,TAS,AUSTRALIA,"{'longitude': 146.82078057, 'latitude': -41.10128448}"
8 JIRRA WAY,MARYLAND,2287,NSW,AUSTRALIA,"{'longitude': 151.65899097, 'latitude': -32.8734816}"
2 SEYMOUR STREET,TARLETON,7310,TAS,AUSTRALIA,"{'longitude': 146.36144385, 'latitude': -41.23982064}"
58 TASMAN HIGHWAY,ORFORD,7190,TAS,AUSTRALIA,"{'longitude': 147.87889822, 'latitude': -42.55168645}"
2 CHALE COURT,SILVERLEAVES,3922,VIC,AUSTRALIA,"{'longitude': 145.26433951, 'latitude': -38.45321845}"
20 PACKARD COURSE,MILL PARK,3082,VIC,AUSTRALIA,"{'longitude': 145.06482494, 'latitude': -37.65581384}"
"UNIT 2, 1 LINDWALL STREET",GLEN WAVERLEY,3150,VIC,AUSTRALIA,"{'longitude': 145.16777889, 'latitude': -37.87135585}"
127 STONY RISE ROAD,STONY RISE,7310,TAS,AUSTRALIA,"{'longitude': 146.33457134, 'latitude': -41.19489062}"
"UNIT 3, 284 OXLEY DRIVE",COOMBABAH,4216,QLD,AUSTRALIA,"{'longitude': 153.38578276, 'latitude': -27.90328463}"
35 CULLEN STREET,BUNDAMBA,4304,QLD,AUSTRALIA,"{'longitude': 152.80526945, 'latitude': -27.60182214}"
43 BONELLA STREET,RAVENSWOOD,7250,TAS,AUSTRALIA,"{'longitude': 147.18019537, 'latitude': -41.42252712}"
11A ALAN STREET,FAIRFIELD,2165,NSW,AUSTRALIA,"{'longitude': 150.95922045, 'latitude': -33.87026813}"
11 EATON LANE,OBERON,2787,NSW,AUSTRALIA,"{'longitude': 149.90703018, 'latitude': -33.7190497}"
23 PENGUIN ROAD,WEST ULVERSTONE,7315,TAS,AUSTRALIA,"{'longitude': 146.15378799, 'latitude': -41.14199014}"
21 UNWIN STREET,TEMPLESTOWE,3106,VIC,AUSTRALIA,"{'longitude': 145.12523592, 'latitude': -37.75286585}"
5 GLENNIE PLACE,INVERLOCH,3996,VIC,AUSTRALIA,"{'longitude': 145.74998301, 'latitude': -38.6275037}"
45 CUTTRISS STREET,INVERLOCH,3996,VIC,AUSTRALIA,"{'longitude': 145.74035219, 'latitude': -38.62917345}"
77 WOMMARA AVENUE,BELMONT NORTH,2280,NSW,AUSTRALIA,"{'longitude': 151.68340043, 'latitude': -33.01961153}"
2 BANKSIA ROAD,RISDON VALE,7016,TAS,AUSTRALIA,"{'longitude': 147.36095946, 'latitude': -42.81252413}"
3088 FIFTEENTH STREET,IRYMPLE,3498,VIC,AUSTRALIA,"{'longitude': 142.18209024, 'latitude': -34.24522504}"
355-359 PEPPERTREE DRIVE,JIMBOOMBA,4280,QLD,AUSTRALIA,"{'longitude': 153.04815493, 'latitude': -27.87147241}"
8 DORSET STREET,PIMPAMA,4209,QLD,AUSTRALIA,"{'longitude': 153.28646067, 'latitude': -27.81628294}"
32 JUBILANT WAY,PALMVIEW,4553,QLD,AUSTRALIA,"{'longitude': 153.05770956, 'latitude': -26.7340478}"
162 SPURWOOD ROAD,COW BAY,4873,QLD,AUSTRALIA,"{'longitude': 145.45258365, 'latitude': -16.23636892}"
8 GLENN STREET,MORAYFIELD,4506,QLD,AUSTRALIA,"{'longitude': 152.94366015, 'latitude': -27.10511018}"
16 FINCHLEY PLACE,GLENHAVEN,2156,NSW,AUSTRALIA,"{'longitude': 151.00463957, 'latitude': -33.7045426}"
18 MARSALA WAY,MERNDA,3754,VIC,AUSTRALIA,"{'longitude': 145.07202992, 'latitude': -37.60241596}"
5 TAMAR DRIVE,MELTON SOUTH,3338,VIC,AUSTRALIA,"{'longitude': 144.58080302, 'latitude': -37.69749881}"
"UNIT 4, 60 STUDLEY PARK ROAD",KEW,3101,VIC,AUSTRALIA,"{'longitude': 145.02057193, 'latitude': -37.80656884}"
180 STEPHEN STREET,YARRAVILLE,3013,VIC,AUSTRALIA,"{'longitude': 144.89343783, 'latitude': -37.82029998}"
56 EVE ROAD,BELLEVUE HEIGHTS,5050,SA,AUSTRALIA,"{'longitude': 138.58373379, 'latitude': -35.03352969}"
"UNIT 27, 11 KING ROAD",MOOLOOLAH VALLEY,4553,QLD,AUSTRALIA,"{'longitude': 152.96025026, 'latitude': -26.76639406}"
44 PARK WAY,CAMDEN PARK,2570,NSW,AUSTRALIA,"{'longitude': 150.70236632, 'latitude': -34.09725448}"
281 RIVER ROAD,SWAN HILL,3585,VIC,AUSTRALIA,"{'longitude': 143.56920667, 'latitude': -35.30676053}"
1 ELLIOT STREET,FITZROY,3065,VIC,AUSTRALIA,"{'longitude': 144.98229863, 'latitude': -37.79900789}"
10 MONTAGUE STREET,MICKLEHAM,3064,VIC,AUSTRALIA,"{'longitude': 144.90419446, 'latitude': -37.52952858}"
"UNIT 3, 107 ISABELLA STREET",GEELONG WEST,3218,VIC,AUSTRALIA,"{'longitude': 144.34047232, 'latitude': -38.1324575}"
50 NARIAH CRESCENT,TOORMINA,2452,NSW,AUSTRALIA,"{'longitude': 153.08165606, 'latitude': -30.35546448}"
94 WOODLAND HEATH DRIVE,INVERLOCH,3996,VIC,AUSTRALIA,"{'longitude': 145.72149859, 'latitude': -38.631316}"
16 WARNER STREET,BULWER,4025,QLD,AUSTRALIA,"{'longitude': 153.36997399, 'latitude': -27.07832088}"
55 EAGLE DRIVE,PAKENHAM,3810,VIC,AUSTRALIA,"{'longitude': 145.47779782, 'latitude': -38.06633087}"
12 NORTON STREET,NORTHFIELD,5085,SA,AUSTRALIA,"{'longitude': 138.62378437, 'latitude': -34.84380718}"
17 CAMP STREET,MURRUMBATEMAN,2582,NSW,AUSTRALIA,"{'longitude': 149.02657339, 'latitude': -34.96801987}"
83 SEVEN MILE BEACH ROAD,SEVEN MILE BEACH,7170,TAS,AUSTRALIA,"{'longitude': 147.49537409, 'latitude': -42.86095125}"
7 RIVERDENE COURT,WAMURAN,4512,QLD,AUSTRALIA,"{'longitude': 152.88219487, 'latitude': -27.05155541}"
16 MALIBU AVENUE,COOLUM BEACH,4573,QLD,AUSTRALIA,"{'longitude': 153.08749678, 'latitude': -26.53181892}"
11 TWEEDIE COURT,BOX HILL NORTH,3129,VIC,AUSTRALIA,"{'longitude': 145.13022291, 'latitude': -37.80087085}"
6 KIARA CLOSE,MARYLAND,2287,NSW,AUSTRALIA,"{'longitude': 151.65446392, 'latitude': -32.8758563}"
4 JARDINE CRESCENT,BOYNE ISLAND,4680,QLD,AUSTRALIA,"{'longitude': 151.31829203, 'latitude': -23.96745578}"
"UNIT 1, 17A DUKE STREET",WEST LAUNCESTON,7250,TAS,AUSTRALIA,"{'longitude': 147.13468126, 'latitude': -41.45338046}"
"UNIT 58, 32 MACROSSAN STREET",BRISBANE CITY,4000,QLD,AUSTRALIA,"{'longitude': 153.03320761, 'latitude': -27.46285657}"
12 HIMALAYA DRIVE,NORTH HAVEN,5018,SA,AUSTRALIA,"{'longitude': 138.4927744, 'latitude': -34.78076616}"
26 APOLLO DRIVE,HALLETT COVE,5158,SA,AUSTRALIA,"{'longitude': 138.51320363, 'latitude': -35.08114177}"
"UNIT 34, 670 GRAND BOULEVARD",SEAFORD,5169,SA,AUSTRALIA,"{'longitude': 138.48364576, 'latitude': -35.18325743}"
65 CROSS STREET,NEW TOWN,7008,TAS,AUSTRALIA,"{'longitude': 147.30905643, 'latitude': -42.85608286}"
85 WATER GUM CRESCENT,NINGI,4511,QLD,AUSTRALIA,"{'longitude': 153.11261697, 'latitude': -27.07245595}"
27 BRUNSWICK DRIVE,EPPING,3076,VIC,AUSTRALIA,"{'longitude': 145.00711511, 'latitude': -37.62663218}"
516 REGENCY ROAD,ENFIELD,5085,SA,AUSTRALIA,"{'longitude': 138.60563077, 'latitude': -34.8731754}"
4 HUNTER STREET,QUEENSTOWN,7467,TAS,AUSTRALIA,"{'longitude': 145.55760731, 'latitude': -42.0793961}"
620 NEPEAN HIGHWAY,FRANKSTON SOUTH,3199,VIC,AUSTRALIA,"{'longitude': 145.10462687, 'latitude': -38.15820185}"
3988 RANGE ROAD,WAITPINGA,5211,SA,AUSTRALIA,"{'longitude': 138.56347305, 'latitude': -35.57719555}"
7 MILNE COURT,POINT LONSDALE,3225,VIC,AUSTRALIA,"{'longitude': 144.60400239, 'latitude': -38.28578382}"
7 WILFRID COURT,SALISBURY,5108,SA,AUSTRALIA,"{'longitude': 138.6457786, 'latitude': -34.76833353}"
2C HEREWARD CLOSE,COWES,3922,VIC,AUSTRALIA,"{'longitude': 145.25301102, 'latitude': -38.45094853}"
9 MARLBOROUGH STREET,LONGFORD,7301,TAS,AUSTRALIA,"{'longitude': 147.12207176, 'latitude': -41.59576773}"
31 SUNSTONE WAY,LEPPINGTON,2179,NSW,AUSTRALIA,"{'longitude': 150.79702222, 'latitude': -33.99225881}"
31 BURRANEER BAY ROAD,CRONULLA,2230,NSW,AUSTRALIA,"{'longitude': 151.14604811, 'latitude': -34.05335006}"
11 RICHARDSON STREET,RIDDELLS CREEK,3431,VIC,AUSTRALIA,"{'longitude': 144.68515214, 'latitude': -37.45812264}"
92 MYLA ROAD,LANDSBOROUGH,4550,QLD,AUSTRALIA,"{'longitude': 152.95759706, 'latitude': -26.79177229}"
68 BAROSSA STREET,KINGSTON,4114,QLD,AUSTRALIA,"{'longitude': 153.09256735, 'latitude': -27.6595091}"
78 KISSING POINT ROAD,DUNDAS,2117,NSW,AUSTRALIA,"{'longitude': 151.03431923, 'latitude': -33.80257275}"
59 YORKY WATERS ROAD,KULNURA,2250,NSW,AUSTRALIA,"{'longitude': 151.21369904, 'latitude': -33.17148187}"
248 TYALGUM CREEK ROAD,TYALGUM CREEK,2484,NSW,AUSTRALIA,"{'longitude': 153.18499559, 'latitude': -28.35106008}"
161 MOUNTAINVIEW BOULEVARD,CRANBOURNE NORTH,3977,VIC,AUSTRALIA,"{'longitude': 145.32409295, 'latitude': -38.07667281}"
58 LOTUS STREET,MARSDEN PARK,2765,NSW,AUSTRALIA,"{'longitude': 150.81244158, 'latitude': -33.69985921}"
10 GALVIN STREET,SOUTH LAUNCESTON,7249,TAS,AUSTRALIA,"{'longitude': 147.14931455, 'latitude': -41.44666283}"
97 MAUGHAN STREET,WELLINGTON,2820,NSW,AUSTRALIA,"{'longitude': 148.95377873, 'latitude': -32.55744198}"
"UNIT 209, 635 GARDENERS ROAD",MASCOT,2020,NSW,AUSTRALIA,"{'longitude': 151.18913701, 'latitude': -33.92133956}"
9A QUEENS PARADE,FAWKNER,3060,VIC,AUSTRALIA,"{'longitude': 144.97156824, 'latitude': -37.71979546}"
63 WILSON ROAD,WANGARATTA,3677,VIC,AUSTRALIA,"{'longitude': 146.33520862, 'latitude': -36.36093681}"
94 SHEARWATER BOULEVARD,SHEARWATER,7307,TAS,AUSTRALIA,"{'longitude': 146.53707191, 'latitude': -41.15468255}"
16 CRICKLEWOOD DRIVE,TEMPLESTOWE,3106,VIC,AUSTRALIA,"{'longitude': 145.14341591, 'latitude': -37.77477385}"
13 ELIZABETH STREET,YARRAVILLE,3013,VIC,AUSTRALIA,"{'longitude': 144.88414395, 'latitude': -37.81703683}"
3 RIVERDALE CRESCENT,WYNYARD,7325,TAS,AUSTRALIA,"{'longitude': 145.70956419, 'latitude': -40.98253897}"
64 CHRISTINE AVENUE,BURLEIGH WATERS,4220,QLD,AUSTRALIA,"{'longitude': 153.43939313, 'latitude': -28.07853906}"
38 PROSECCO STREET,TARNEIT,3029,VIC,AUSTRALIA,"{'longitude': 144.63330762, 'latitude': -37.84528735}"
68 PHALERUM AVENUE,SEVEN HILLS,4170,QLD,AUSTRALIA,"{'longitude': 153.0786597, 'latitude': -27.48073504}"
49 MCKERROW CRESCENT,GOODNA,4300,QLD,AUSTRALIA,"{'longitude': 152.88542003, 'latitude': -27.62499609}"
415 EUREKA STREET,EUREKA,3350,VIC,AUSTRALIA,"{'longitude': 143.88078405, 'latitude': -37.56586604}"
2 FROST STREET,SNUG,7054,TAS,AUSTRALIA,"{'longitude': 147.25963742, 'latitude': -43.06471975}"
53 LANARK DRIVE,JUNORTOUN,3551,VIC,AUSTRALIA,"{'longitude': 144.33966395, 'latitude': -36.77994084}"
"UNIT 305, 28 CAMBRIDGE STREET",EPPING,2121,NSW,AUSTRALIA,"{'longitude': 151.0821331, 'latitude': -33.76967507}"
26 PIER ROAD,INVERLOCH,3996,VIC,AUSTRALIA,"{'longitude': 145.73424679, 'latitude': -38.6307065}"
"UNIT 1, 25 REGENT AVENUE",SPRINGVALE,3171,VIC,AUSTRALIA,"{'longitude': 145.14449589, 'latitude': -37.94737885}"
"UNIT 12, 10 BRADY STREET",GEEVESTON,7116,TAS,AUSTRALIA,"{'longitude': 146.92607558, 'latitude': -43.16363105}"
30 COTTONS DRIVE,LITTLE SWANPORT,7190,TAS,AUSTRALIA,"{'longitude': 147.9898146, 'latitude': -42.30449234}"
77 DEVLINS ROAD,OCEAN GROVE,3226,VIC,AUSTRALIA,"{'longitude': 144.54899171, 'latitude': -38.23834999}"
65A LOGAN ROAD,EVANDALE,7212,TAS,AUSTRALIA,"{'longitude': 147.2615066, 'latitude': -41.57149788}"
32 SECOND STREET,WESTON,2326,NSW,AUSTRALIA,"{'longitude': 151.45848515, 'latitude': -32.81315482}"
11 TREEBY STREET,TINGALPA,4173,QLD,AUSTRALIA,"{'longitude': 153.12531257, 'latitude': -27.4726526}"
15 ALEXANDRA ESPLANADE,BELLERIVE,7018,TAS,AUSTRALIA,"{'longitude': 147.38566841, 'latitude': -42.87987686}"
83 CENTENARY ROAD,GOOMBUNGEE,4354,QLD,AUSTRALIA,"{'longitude': 151.83304471, 'latitude': -27.28061734}"
"UNIT 4, 640-644 WARRINGAH ROAD",FORESTVILLE,2087,NSW,AUSTRALIA,"{'longitude': 151.21358389, 'latitude': -33.75949394}"
102 CAIRNS STREET,CAIRNS NORTH,4870,QLD,AUSTRALIA,"{'longitude': 145.75771485, 'latitude': -16.90697456}"
14 PORTAL STREET,KELLYVILLE RIDGE,2155,NSW,AUSTRALIA,"{'longitude': 150.91529243, 'latitude': -33.70151335}"
"FLAT 3, 40 VALLEY STREET",OAKLEIGH SOUTH,3167,VIC,AUSTRALIA,"{'longitude': 145.10892185, 'latitude': -37.918459}"
10 HELEN COURT,DIAMOND CREEK,3089,VIC,AUSTRALIA,"{'longitude': 145.15623392, 'latitude': -37.67001885}"
"UNIT 1, 19-21 EMBANKMENT GROVE",CHELSEA,3196,VIC,AUSTRALIA,"{'longitude': 145.11734544, 'latitude': -38.04804185}"
18 EL PASO PLACE,ORANGE,2800,NSW,AUSTRALIA,"{'longitude': 149.08252533, 'latitude': -33.26885044}"
38 KIRSTEN DRIVE,GLASS HOUSE MOUNTAINS,4518,QLD,AUSTRALIA,"{'longitude': 152.94962145, 'latitude': -26.90028473}"
10 AVOCA STREET,LINDISFARNE,7015,TAS,AUSTRALIA,"{'longitude': 147.370632, 'latitude': -42.85122634}"
103 KURANDA HEIGHTS ROAD,KURANDA,4881,QLD,AUSTRALIA,"{'longitude': 145.62706966, 'latitude': -16.81445994}"
68A BAYVIEW AVENUE,EARLWOOD,2206,NSW,AUSTRALIA,"{'longitude': 151.14389063, 'latitude': -33.92566288}"
11 DUNN STREET,NORTH ADELAIDE,5006,SA,AUSTRALIA,"{'longitude': 138.60889487, 'latitude': -34.90734027}"
18 LYRIC DRIVE,MAMBOURIN,3024,VIC,AUSTRALIA,"{'longitude': 144.59753437, 'latitude': -37.89078337}"
6 GRIFFITH STREET,ENDEAVOUR HILLS,3802,VIC,AUSTRALIA,"{'longitude': 145.24105687, 'latitude': -37.97559086}"
6 CUMBERLAND CRESCENT,HUNTFIELD HEIGHTS,5163,SA,AUSTRALIA,"{'longitude': 138.51676228, 'latitude': -35.15198898}"
15 ELDER STREET,MOONTA MINES,5558,SA,AUSTRALIA,"{'longitude': 137.60543383, 'latitude': -34.07742238}"
3 DENMAN ROAD,TREVALLYN,7250,TAS,AUSTRALIA,"{'longitude': 147.1186794, 'latitude': -41.43864005}"
7 CHADLEY COURT,CHERRYBROOK,2126,NSW,AUSTRALIA,"{'longitude': 151.04554337, 'latitude': -33.72969417}"
227 ALCOMIE ROAD,ALCOMIE,7330,TAS,AUSTRALIA,"{'longitude': 145.20358519, 'latitude': -40.94821813}"
1 TORPY AVENUE,SNUG,7054,TAS,AUSTRALIA,"{'longitude': 147.25658532, 'latitude': -43.06649848}"
9 JAMES COOK CRESCENT,ORANGE,2800,NSW,AUSTRALIA,"{'longitude': 149.08965129, 'latitude': -33.29463431}"
1A RACECOURSE ROAD,BRIGHTON,7030,TAS,AUSTRALIA,"{'longitude': 147.25175117, 'latitude': -42.69874349}"
47 OPUS DRIVE,ACTON PARK,7170,TAS,AUSTRALIA,"{'longitude': 147.48069985, 'latitude': -42.8639829}"
1 WOLARA AVENUE,GLENMORE PARK,2745,NSW,AUSTRALIA,"{'longitude': 150.68206968, 'latitude': -33.78194635}"
"UNIT 5, 384A-388 RAILWAY PARADE",CARLTON,2218,NSW,AUSTRALIA,"{'longitude': 151.12090484, 'latitude': -33.96948551}"
15 MIDDLE COURT,THOMASTOWN,3074,VIC,AUSTRALIA,"{'longitude': 145.03971894, 'latitude': -37.68612884}"
"UNIT 104, 60 ENDEAVOUR BOULEVARD",NORTH LAKES,4509,QLD,AUSTRALIA,"{'longitude': 153.01333545, 'latitude': -27.23656726}"
"UNIT 63, 87-91 CAMPBELL STREET",LIVERPOOL,2170,NSW,AUSTRALIA,"{'longitude': 150.92169339, 'latitude': -33.91721973}"
120 HOLT AVENUE,MOSMAN,2088,NSW,AUSTRALIA,"{'longitude': 151.23035256, 'latitude': -33.8311747}"
6008 THE LAKES DRIVE,HOPE ISLAND,4212,QLD,AUSTRALIA,"{'longitude': 153.34572418, 'latitude': -27.87387848}"
46 PARK ROAD,KENSINGTON PARK,5068,SA,AUSTRALIA,"{'longitude': 138.65652149, 'latitude': -34.92348927}"
242 MARRICKVILLE ROAD,MARRICKVILLE,2204,NSW,AUSTRALIA,"{'longitude': 151.15827362, 'latitude': -33.91168322}"
20 GLENELL STREET,BLAXLAND,2774,NSW,AUSTRALIA,"{'longitude': 150.61705378, 'latitude': -33.75228831}"
5 LEGEND DRIVE,ADARE,4343,QLD,AUSTRALIA,"{'longitude': 152.3166818, 'latitude': -27.50141358}"
60 BRUNSWICK STREET,GRANVILLE,2142,NSW,AUSTRALIA,"{'longitude': 151.00112153, 'latitude': -33.83976183}"
125 THURK STREET,RENMARK,5341,SA,AUSTRALIA,"{'longitude': 140.74338349, 'latitude': -34.17223027}"
54 JOAN STREET,TOWNVIEW,4825,QLD,AUSTRALIA,"{'longitude': 139.5020509, 'latitude': -20.73173784}"
24 BLACKBUTT STREET,WYOMING,2250,NSW,AUSTRALIA,"{'longitude': 151.36955891, 'latitude': -33.40964186}"
22 DRURY STREET,WILLASTON,5118,SA,AUSTRALIA,"{'longitude': 138.74484825, 'latitude': -34.58889947}"
"UNIT 2, 22 ALFRED STREET",MERMAID BEACH,4218,QLD,AUSTRALIA,"{'longitude': 153.43802181, 'latitude': -28.04967665}"
100 GAMBAN ROAD,GWANDALAN,2259,NSW,AUSTRALIA,"{'longitude': 151.58941092, 'latitude': -33.14484047}"
4 ULLARA COURT,FRANKSTON,3199,VIC,AUSTRALIA,"{'longitude': 145.16843775, 'latitude': -38.13401821}"
12 YOORAMI ROAD,BEVERLY HILLS,2209,NSW,AUSTRALIA,"{'longitude': 151.08365947, 'latitude': -33.94359751}"
36 STEADFIELD CIRCUIT,MELTON SOUTH,3338,VIC,AUSTRALIA,"{'longitude': 144.57522489, 'latitude': -37.71475212}"
5 CARLOS COURT,SHEPPARTON,3630,VIC,AUSTRALIA,"{'longitude': 145.38771898, 'latitude': -36.35996009}"
"UNIT 8, 2 NORTH STREET",GOLDEN BEACH,4551,QLD,AUSTRALIA,"{'longitude': 153.12071605, 'latitude': -26.80604963}"
110 HOSPITAL ROAD,EMERALD,4720,QLD,AUSTRALIA,"{'longitude': 148.15637384, 'latitude': -23.51264911}"
13 DARVELL COURT,GREENVALE,3059,VIC,AUSTRALIA,"{'longitude': 144.90444996, 'latitude': -37.65164283}"
5 ANTHONY COURT,SEAFORD,3198,VIC,AUSTRALIA,"{'longitude': 145.13503187, 'latitude': -38.10843085}"
7 RUTLAND AVENUE,TEMPLESTOWE,3106,VIC,AUSTRALIA,"{'longitude': 145.14210191, 'latitude': -37.75741385}"
10 PERTH AVENUE,ALBION,3020,VIC,AUSTRALIA,"{'longitude': 144.81507897, 'latitude': -37.77881883}"
16 CASUARINA AVENUE,TARANGANBA,4703,QLD,AUSTRALIA,"{'longitude': 150.75149004, 'latitude': -23.14766617}"
"UNIT 1, 16 TRACKSON STREET",ALDERLEY,4051,QLD,AUSTRALIA,"{'longitude': 153.00340193, 'latitude': -27.42952042}"
40 VERT AVENUE,NARRE WARREN SOUTH,3805,VIC,AUSTRALIA,"{'longitude': 145.31814223, 'latitude': -38.07020877}"
15 THORPE STREET,NEWPORT,3015,VIC,AUSTRALIA,"{'longitude': 144.86461341, 'latitude': -37.84629329}"
32 SHANAHANS DRIVE,CRANBOURNE NORTH,3977,VIC,AUSTRALIA,"{'longitude': 145.32508933, 'latitude': -38.07621871}"
1 JASPER STREET,MAREEBA,4880,QLD,AUSTRALIA,"{'longitude': 145.41555116, 'latitude': -16.99332107}"
14 HAWKHURST COURT,MURRUMBA DOWNS,4503,QLD,AUSTRALIA,"{'longitude': 153.00620889, 'latitude': -27.27361738}"
"UNIT 5, 2 BURTON STREET",RANDWICK,2031,NSW,AUSTRALIA,"{'longitude': 151.23860958, 'latitude': -33.90787099}"
25 ORCHARD PLACE,GLENWOOD,2768,NSW,AUSTRALIA,"{'longitude': 150.93118456, 'latitude': -33.72588209}"
390 RODE ROAD,CHERMSIDE,4032,QLD,AUSTRALIA,"{'longitude': 153.03353052, 'latitude': -27.39403167}"
228 EASTBOURNE ROAD,ROSEBUD,3939,VIC,AUSTRALIA,"{'longitude': 144.90193289, 'latitude': -38.36759684}"
35 EMMALINE DRIVE,MAIDEN GULLY,3551,VIC,AUSTRALIA,"{'longitude': 144.19090395, 'latitude': -36.74542415}"
"UNIT 2, 17 ALMA STREET",ROCKHAMPTON CITY,4700,QLD,AUSTRALIA,"{'longitude': 150.50602419, 'latitude': -23.37185378}"
83 MOORE STREET,COBURG,3058,VIC,AUSTRALIA,"{'longitude': 144.97370894, 'latitude': -37.75452884}"
43 TEHAN AVENUE,KYABRAM,3620,VIC,AUSTRALIA,"{'longitude': 145.03523382, 'latitude': -36.31893279}"
22 BARRALLIER DRIVE,MARSDEN PARK,2765,NSW,AUSTRALIA,"{'longitude': 150.81070396, 'latitude': -33.69392816}"
11 LOUISE STREET,LALOR,3075,VIC,AUSTRALIA,"{'longitude': 145.02847294, 'latitude': -37.66947484}"
6 NAUTILUS DRIVE,INNES PARK,4670,QLD,AUSTRALIA,"{'longitude': 152.45842534, 'latitude': -24.86812856}"
9 BECKETT CRESCENT,CAROLINE SPRINGS,3023,VIC,AUSTRALIA,"{'longitude': 144.74366192, 'latitude': -37.72694197}"
2 SILVER STREET,SUNNY CORNER,2795,NSW,AUSTRALIA,"{'longitude': 149.88896717, 'latitude': -33.38538631}"
549 SMYTHESDALE-SNAKE VALLEY ROAD,HILLCREST,3351,VIC,AUSTRALIA,"{'longitude': 143.6346241, 'latitude': -37.61930723}"
2-6 KIRSTY COURT,CABOOLTURE,4510,QLD,AUSTRALIA,"{'longitude': 152.94618069, 'latitude': -27.05703852}"
"UNIT 1, 1A SPENCER ROAD",KILLARA,2071,NSW,AUSTRALIA,"{'longitude': 151.15652617, 'latitude': -33.76525704}"
6 STEPHEN STREET,HASTINGS,3915,VIC,AUSTRALIA,"{'longitude': 145.17876585, 'latitude': -38.30064786}"
157 KINGSTON BOULEVARD,HOPPERS CROSSING,3029,VIC,AUSTRALIA,"{'longitude': 144.71191898, 'latitude': -37.85688082}"
16 ADLEY COURT,VERMONT SOUTH,3133,VIC,AUSTRALIA,"{'longitude': 145.1722259, 'latitude': -37.85284485}"
11 AIRD COURT,HIGHLAND PARK,4211,QLD,AUSTRALIA,"{'longitude': 153.3348459, 'latitude': -28.00984395}"
"UNIT 703, 80 ALFRED STREET SOUTH",MILSONS POINT,2061,NSW,AUSTRALIA,"{'longitude': 151.21111324, 'latitude': -33.84623736}"
52 LEWERS STREET,BELMONT,2280,NSW,AUSTRALIA,"{'longitude': 151.6471726, 'latitude': -33.02739324}"
"UNIT 2012, 3 YARRA STREET",SOUTH YARRA,3141,VIC,AUSTRALIA,"{'longitude': 144.99283392, 'latitude': -37.83816029}"
16 DOMINION ROAD,MOUNT MARTHA,3934,VIC,AUSTRALIA,"{'longitude': 145.01254288, 'latitude': -38.27005984}"
26 KARLY STREET,LEOPOLD,3224,VIC,AUSTRALIA,"{'longitude': 144.46350069, 'latitude': -38.18412537}"
304 SETTLEMENT ROAD,COWES,3922,VIC,AUSTRALIA,"{'longitude': 145.22905562, 'latitude': -38.45596466}"
31 MALAYA ROAD,PUCKAPUNYAL,3662,VIC,AUSTRALIA,"{'longitude': 145.03567145, 'latitude': -36.99983561}"
76 WILLIAM STREET,COBRAM,3644,VIC,AUSTRALIA,"{'longitude': 145.65095341, 'latitude': -35.92338094}"
58 WOODCOURT ROAD,BEROWRA HEIGHTS,2082,NSW,AUSTRALIA,"{'longitude': 151.14041173, 'latitude': -33.6100912}"
4 LYCETTE STREET,BELMONT,4153,QLD,AUSTRALIA,"{'longitude': 153.12585761, 'latitude': -27.49132962}"
6 SKYE CLOSE,TERRANORA,2486,NSW,AUSTRALIA,"{'longitude': 153.49269112, 'latitude': -28.24024296}"
217 BOLITHO ROAD,KYABRAM,3620,VIC,AUSTRALIA,"{'longitude': 145.06814724, 'latitude': -36.3175523}"
18 SOMERSET STREET,AVONDALE HEIGHTS,3034,VIC,AUSTRALIA,"{'longitude': 144.85964996, 'latitude': -37.76164983}"
75 YARRAMUNDI DRIVE,CLIFTON SPRINGS,3222,VIC,AUSTRALIA,"{'longitude': 144.55997382, 'latitude': -38.16092693}"
32 WATTLE GREEN PLACE,NARELLAN VALE,2567,NSW,AUSTRALIA,"{'longitude': 150.74448498, 'latitude': -34.04656175}"
20 GREENHILLS DRIVE,GOONELLABAH,2480,NSW,AUSTRALIA,"{'longitude': 153.34639738, 'latitude': -28.80850531}"
"UNIT 1801, 33 T E PETERS DRIVE",BROADBEACH WATERS,4218,QLD,AUSTRALIA,"{'longitude': 153.42618123, 'latitude': -28.02671739}"
5 STURT COURT,WYE RIVER,3234,VIC,AUSTRALIA,"{'longitude': 143.89227942, 'latitude': -38.64076094}"
36 MURRALONG AVENUE,FIVE DOCK,2046,NSW,AUSTRALIA,"{'longitude': 151.12947629, 'latitude': -33.87127407}"
"UNIT 5, 124 VICTORIA PARADE",ROCKHAMPTON CITY,4700,QLD,AUSTRALIA,"{'longitude': 150.51192971, 'latitude': -23.37520113}"
80 CARDIGAN STREET,AUBURN,2144,NSW,AUSTRALIA,"{'longitude': 151.02195716, 'latitude': -33.84747488}"
64 CLOSETTE CIRCUIT,TARNEIT,3029,VIC,AUSTRALIA,"{'longitude': 144.65791029, 'latitude': -37.81700231}"
6 SHANNON STREET,WOODRIDGE,4114,QLD,AUSTRALIA,"{'longitude': 153.10018829, 'latitude': -27.62503573}"
"UNIT 8, 198 GEORGE STREET",BUNDABERG WEST,4670,QLD,AUSTRALIA,"{'longitude': 152.33673246, 'latitude': -24.87634108}"
31-33 CENTENARY PLACE,LOGAN VILLAGE,4207,QLD,AUSTRALIA,"{'longitude': 153.1090496, 'latitude': -27.76850656}"
49 THOMPSON STREET,AVONDALE HEIGHTS,3034,VIC,AUSTRALIA,"{'longitude': 144.85484996, 'latitude': -37.76159883}"
130 SHAFTSBURY STREET,COBURG,3058,VIC,AUSTRALIA,"{'longitude': 144.95598095, 'latitude': -37.74458984}"
20 ROTTNESS DRIVE,ARMSTRONG CREEK,3217,VIC,AUSTRALIA,"{'longitude': 144.36168648, 'latitude': -38.24225556}"
146 MERIDIAN DRIVE,SOUTH MORANG,3752,VIC,AUSTRALIA,"{'longitude': 145.06469979, 'latitude': -37.6222203}"
14 IRONS COURT,EPPING,3076,VIC,AUSTRALIA,"{'longitude': 145.05279694, 'latitude': -37.64195084}"
4 PROGRESS ROAD,ELTHAM NORTH,3095,VIC,AUSTRALIA,"{'longitude': 145.12861192, 'latitude': -37.70216285}"
13 GOLDEN AVENUE,CALAMVALE,4116,QLD,AUSTRALIA,"{'longitude': 153.05676096, 'latitude': -27.62637314}"
138 WALLACE STREET,MACKSVILLE,2447,NSW,AUSTRALIA,"{'longitude': 152.91476393, 'latitude': -30.71629422}"
8 BARON ROAD,THORNHILL PARK,3335,VIC,AUSTRALIA,"{'longitude': 144.6223563, 'latitude': -37.71732555}"
12 ACACIA CIRCUIT,HUNTERVIEW,2330,NSW,AUSTRALIA,"{'longitude': 151.17162955, 'latitude': -32.54656608}"
38 KARINGAL AVENUE,BILAMBIL HEIGHTS,2486,NSW,AUSTRALIA,"{'longitude': 153.49340698, 'latitude': -28.20059101}"
305 THE PARK DRIVE,SANCTUARY POINT,2540,NSW,AUSTRALIA,"{'longitude': 150.63474394, 'latitude': -35.09524408}"
"UNIT 1, 30 GLADY STREET",INNISFAIL,4860,QLD,AUSTRALIA,"{'longitude': 146.02669394, 'latitude': -17.52465111}"
44 PRIMROSE AVENUE,RYDALMERE,2116,NSW,AUSTRALIA,"{'longitude': 151.0502603, 'latitude': -33.81736742}"
"UNIT 1, 25A HEALY STREET",SOUTH TOOWOOMBA,4350,QLD,AUSTRALIA,"{'longitude': 151.94792735, 'latitude': -27.57622988}"
"UNIT 6, 9C WEYBURN PLACE",AVONDALE HEIGHTS,3034,VIC,AUSTRALIA,"{'longitude': 144.86963796, 'latitude': -37.75977983}"
14 BELMONT AVENUE,KEILOR DOWNS,3038,VIC,AUSTRALIA,"{'longitude': 144.79944697, 'latitude': -37.72357383}"
11 MOCKINGBIRD STREET,TARNEIT,3029,VIC,AUSTRALIA,"{'longitude': 144.67001318, 'latitude': -37.83350337}"
13 WILLOWBANK ROAD,FITZROY NORTH,3068,VIC,AUSTRALIA,"{'longitude': 144.98478994, 'latitude': -37.77492384}"
24 CARIBBEAN CIRCUIT,CLYDE,3978,VIC,AUSTRALIA,"{'longitude': 145.34864699, 'latitude': -38.12237447}"
43 BURFORD WAY,CRANBOURNE NORTH,3977,VIC,AUSTRALIA,"{'longitude': 145.32449532, 'latitude': -38.0828211}"
17 BONNER STREET,LLOYD,2650,NSW,AUSTRALIA,"{'longitude': 147.33379205, 'latitude': -35.1532163}"
5 QUANDONG CRESCENT,ARANA HILLS,4054,QLD,AUSTRALIA,"{'longitude': 152.96149686, 'latitude': -27.38189813}"
14 KERR ROAD,INGLEBURN,2565,NSW,AUSTRALIA,"{'longitude': 150.86943445, 'latitude': -33.99207395}"
19 MIDDLETON CRESCENT,BIDWILL,2770,NSW,AUSTRALIA,"{'longitude': 150.8144972, 'latitude': -33.73155909}"
3 RATTAN COURT,ELANORA,4221,QLD,AUSTRALIA,"{'longitude': 153.45337969, 'latitude': -28.11918135}"
"UNIT 3, 45A BUTCHER STREET",STRATHDALE,3550,VIC,AUSTRALIA,"{'longitude': 144.31979272, 'latitude': -36.77530164}"
43 HALE ROAD,MOSMAN,2088,NSW,AUSTRALIA,"{'longitude': 151.23398272, 'latitude': -33.82281173}"
3 ANCONA STREET,ROCHEDALE SOUTH,4123,QLD,AUSTRALIA,"{'longitude': 153.13995782, 'latitude': -27.5963958}"
22 THE HIGHWAY,BENTLEIGH,3204,VIC,AUSTRALIA,"{'longitude': 145.04642191, 'latitude': -37.91726884}"
44 ELDERBERRY AVENUE,BENTLEY PARK,4869,QLD,AUSTRALIA,"{'longitude': 145.71664816, 'latitude': -17.00269543}"
30 CORNWELL CRESCENT,CRANBOURNE EAST,3977,VIC,AUSTRALIA,"{'longitude': 145.29783185, 'latitude': -38.09699686}"
22 ADELONG WAY,BACCHUS MARSH,3340,VIC,AUSTRALIA,"{'longitude': 144.41953147, 'latitude': -37.67797337}"
38 BUTTENSHAW PLACE,AUSTINMER,2515,NSW,AUSTRALIA,"{'longitude': 150.93088885, 'latitude': -34.30060289}"
48 EAGLEVIEW WAY,CRAIGIEBURN,3064,VIC,AUSTRALIA,"{'longitude': 144.93066922, 'latitude': -37.57347448}"
5 KINGS COURT,POINT LONSDALE,3225,VIC,AUSTRALIA,"{'longitude': 144.61365734, 'latitude': -38.26953242}"
4 WARATAH AVENUE,LAKE GRACE,6353,WA,AUSTRALIA,"{'longitude': 118.4728004, 'latitude': -33.10097648}"
12A THE ESPLANADE,CLIFTON HILL,3068,VIC,AUSTRALIA,"{'longitude': 145.00555404, 'latitude': -37.78816262}"
20 VAUTIN WAY,EAGLEBY,4207,QLD,AUSTRALIA,"{'longitude': 153.21694973, 'latitude': -27.6918877}"
2 GALLOWAY COURT,HIGHTON,3216,VIC,AUSTRALIA,"{'longitude': 144.30637277, 'latitude': -38.164272}"
36 CRANBROOK PARK ROAD,LITTLE HARTLEY,2790,NSW,AUSTRALIA,"{'longitude': 150.20291752, 'latitude': -33.58540535}"
59 WEBSTER STREET,ALEXANDRA,3714,VIC,AUSTRALIA,"{'longitude': 145.71320128, 'latitude': -37.19667147}"
"UNIT 4, 241 MORAY STREET",NEW FARM,4005,QLD,AUSTRALIA,"{'longitude': 153.04587364, 'latitude': -27.47259136}"
7 SUSMANN COURT,ALTONA MEADOWS,3028,VIC,AUSTRALIA,"{'longitude': 144.78284496, 'latitude': -37.87599083}"
16 BURSARIA STREET,PEREGIAN BEACH,4573,QLD,AUSTRALIA,"{'longitude': 153.09124333, 'latitude': -26.46058031}"
"UNIT 307, 12 ALBERT STREET",HAWTHORN EAST,3123,VIC,AUSTRALIA,"{'longitude': 145.04841384, 'latitude': -37.82345907}"
8 SPARKS COURT,BOTANIC RIDGE,3977,VIC,AUSTRALIA,"{'longitude': 145.2551354, 'latitude': -38.13798877}"
2 JETTY LANE,MARIBYRNONG,3032,VIC,AUSTRALIA,"{'longitude': 144.8983127, 'latitude': -37.78618822}"
"UNIT 19, 42 BOARDWALK BOULEVARD",MOUNT COOLUM,4573,QLD,AUSTRALIA,"{'longitude': 153.09394616, 'latitude': -26.57179219}"
28 INVERNESS STREET,ENDEAVOUR HILLS,3802,VIC,AUSTRALIA,"{'longitude': 145.26700387, 'latitude': -37.96439586}"
7 MOUNT PLEASANT ROAD,BEGA,2550,NSW,AUSTRALIA,"{'longitude': 149.81982938, 'latitude': -36.66057019}"
88 SPRINGLAKE AVENUE,CAROLINE SPRINGS,3023,VIC,AUSTRALIA,"{'longitude': 144.73157098, 'latitude': -37.74937782}"
"UNIT 3, 20 WERAMBIE STREET",TOORMINA,2452,NSW,AUSTRALIA,"{'longitude': 153.09728325, 'latitude': -30.35459978}"
35 WILTSHIRE DRIVE,KEW,3101,VIC,AUSTRALIA,"{'longitude': 145.02241716, 'latitude': -37.79535947}"
565 LONDON HILL ROAD,BECKOM,2665,NSW,AUSTRALIA,"{'longitude': 146.94324961, 'latitude': -34.40006902}"
288 GOSS ROAD,UDUC,6220,WA,AUSTRALIA,"{'longitude': 115.7670408, 'latitude': -33.02491662}"
5 BALZER CLOSE,WHITFIELD,4870,QLD,AUSTRALIA,"{'longitude': 145.7273325, 'latitude': -16.90352309}"
9 THIRD AVENUE NORTH,NARROMINE,2821,NSW,AUSTRALIA,"{'longitude': 148.23941373, 'latitude': -32.22714168}"
47 HARBOUR RISE,HOPE ISLAND,4212,QLD,AUSTRALIA,"{'longitude': 153.37069385, 'latitude': -27.87140552}"
184 LLOYD STREET,STRATHDALE,3550,VIC,AUSTRALIA,"{'longitude': 144.31148194, 'latitude': -36.75459022}"
"VILLA 411, 118 BELLFLOWER ROAD",SIPPY DOWNS,4556,QLD,AUSTRALIA,"{'longitude': 153.04945912, 'latitude': -26.72523944}"
"UNIT 401, 23 JUDD STREET",CRONULLA,2230,NSW,AUSTRALIA,"{'longitude': 151.15119567, 'latitude': -34.04639793}"
40 WARRIMOO DRIVE,QUAKERS HILL,2763,NSW,AUSTRALIA,"{'longitude': 150.89095293, 'latitude': -33.73808068}"
15 MELISSA STREET,UPPER COOMERA,4209,QLD,AUSTRALIA,"{'longitude': 153.30124199, 'latitude': -27.85595515}"
7 KESTRAL STREET,WITHERS,6230,WA,AUSTRALIA,"{'longitude': 115.63801085, 'latitude': -33.36199663}"
"UNIT 1, 9 NARRUNG WAY",NOLLAMARA,6061,WA,AUSTRALIA,"{'longitude': 115.84844313, 'latitude': -31.88558169}"
5 SCHOOLHOUSE LANE,MORANDING,3764,VIC,AUSTRALIA,"{'longitude': 144.93444034, 'latitude': -37.23562062}"
"UNIT 1, 73-75 STAFFORD STREET",KINGSWOOD,2747,NSW,AUSTRALIA,"{'longitude': 150.71183148, 'latitude': -33.76237315}"
418 CASTLEMAINE-MALDON ROAD,MUCKLEFORD,3451,VIC,AUSTRALIA,"{'longitude': 144.13458296, 'latitude': -37.04505341}"
58 DUNDEBAR ROAD,WANNEROO,6065,WA,AUSTRALIA,"{'longitude': 115.8087407, 'latitude': -31.75058661}"
66 BEETHOVEN DRIVE,NARRE WARREN SOUTH,3805,VIC,AUSTRALIA,"{'longitude': 145.28963718, 'latitude': -38.06736016}"
"UNIT 7, 28 FULTON STREET",ST KILDA EAST,3183,VIC,AUSTRALIA,"{'longitude': 145.00004993, 'latitude': -37.86113884}"
17 HADFIELD CIRCUIT,CLIFTLEIGH,2321,NSW,AUSTRALIA,"{'longitude': 151.5105797, 'latitude': -32.79337727}"
52 BOLINDA STREET,BUSBY,2168,NSW,AUSTRALIA,"{'longitude': 150.87744654, 'latitude': -33.90506012}"
24 PANORAMA DRIVE,CAPE WOOLAMAI,3925,VIC,AUSTRALIA,"{'longitude': 145.33797543, 'latitude': -38.52292116}"
26 SALVIA AVENUE,PAKENHAM,3810,VIC,AUSTRALIA,"{'longitude': 145.46083705, 'latitude': -38.08515285}"
"UNIT 2, 80 BAY VIEW CRESCENT",DUNSBOROUGH,6281,WA,AUSTRALIA,"{'longitude': 115.10545346, 'latitude': -33.6040071}"
"UNIT 2, 43 RANDALL AVENUE",EDITHVALE,3196,VIC,AUSTRALIA,"{'longitude': 145.12257188, 'latitude': -38.03991177}"
"UNIT 6, 15 BLUERISE COVE",FALCON,6210,WA,AUSTRALIA,"{'longitude': 115.66489979, 'latitude': -32.58621023}"
4 MALLEE COURT,THURGOONA,2640,NSW,AUSTRALIA,"{'longitude': 146.97824552, 'latitude': -36.04778867}"
14 COES CREEK ROAD,BURNSIDE,4560,QLD,AUSTRALIA,"{'longitude': 152.95011271, 'latitude': -26.63520738}"
46 WYONG ROAD,MOSMAN,2088,NSW,AUSTRALIA,"{'longitude': 151.23461935, 'latitude': -33.81892734}"
17 VINEGAR HILL ROAD,KELLYVILLE RIDGE,2155,NSW,AUSTRALIA,"{'longitude': 150.92371514, 'latitude': -33.70000009}"
31 DOROTHY STREET,ASHFIELD,6054,WA,AUSTRALIA,"{'longitude': 115.93907069, 'latitude': -31.9171766}"
"UNIT 62, 309 HARBORNE STREET",GLENDALOUGH,6016,WA,AUSTRALIA,"{'longitude': 115.81839883, 'latitude': -31.91892192}"
5A DONALD STREET,BLACKBURN SOUTH,3130,VIC,AUSTRALIA,"{'longitude': 145.1437359, 'latitude': -37.83229785}"
24 ELDER STREET,BLACKBURN,3130,VIC,AUSTRALIA,"{'longitude': 145.1610639, 'latitude': -37.81535285}"
254 DUKE STREET WEST,NORTHAM,6401,WA,AUSTRALIA,"{'longitude': 116.65983276, 'latitude': -31.66471385}"
57 BROSNAN ROAD,BENTLEIGH EAST,3165,VIC,AUSTRALIA,"{'longitude': 145.06879791, 'latitude': -37.93289485}"
"UNIT 2, 17 ADELAIDE STREET",CLAYFIELD,4011,QLD,AUSTRALIA,"{'longitude': 153.04784358, 'latitude': -27.42129039}"
34 AVONWOOD AVENUE,WYNDHAM VALE,3024,VIC,AUSTRALIA,"{'longitude': 144.60904397, 'latitude': -37.89142976}"
"UNIT 401, 2 EAST QUAY DRIVE",BIGGERA WATERS,4216,QLD,AUSTRALIA,"{'longitude': 153.38486898, 'latitude': -27.92800544}"
5A MOORES ROAD,RIDDELLS CREEK,3431,VIC,AUSTRALIA,"{'longitude': 144.67701539, 'latitude': -37.44946443}"
154 NAPIER STREET,STAWELL,3380,VIC,AUSTRALIA,"{'longitude': 142.79171159, 'latitude': -37.06779443}"
18 SONGLARK CRESCENT,CARRUM DOWNS,3201,VIC,AUSTRALIA,"{'longitude': 145.19466496, 'latitude': -38.0993716}"
"UNIT 8, 32 ESPLANADE BULCOCK BEACH",CALOUNDRA,4551,QLD,AUSTRALIA,"{'longitude': 153.13092955, 'latitude': -26.80596418}"
"UNIT 1, 35 BOOTH STREET",ANNANDALE,2038,NSW,AUSTRALIA,"{'longitude': 151.17378746, 'latitude': -33.88225327}"
36 BARLEYCORN BEND,ARMSTRONG CREEK,3217,VIC,AUSTRALIA,"{'longitude': 144.37280914, 'latitude': -38.23522156}"
18 LOVERIDGE STREET,OUYEN,3490,VIC,AUSTRALIA,"{'longitude': 142.31503487, 'latitude': -35.06211099}"
45 ALLANDALE ROAD,CESSNOCK,2325,NSW,AUSTRALIA,"{'longitude': 151.35384313, 'latitude': -32.82696313}"
42 KEIDGES ROAD,BELLBIRD PARK,4300,QLD,AUSTRALIA,"{'longitude': 152.87159346, 'latitude': -27.65152875}"
"UNIT 2, 85 PARK ROAD",ELTHAM,3095,VIC,AUSTRALIA,"{'longitude': 145.16118561, 'latitude': -37.70457294}"
233-241 MOUNTAIN RIDGE ROAD,SOUTH MACLEAN,4280,QLD,AUSTRALIA,"{'longitude': 152.9701941, 'latitude': -27.78691212}"
8 TOWER HILL ROAD,DROMANA,3936,VIC,AUSTRALIA,"{'longitude': 144.95565288, 'latitude': -38.34296384}"
31 BALLADONIA DRIVE,ELLENBROOK,6069,WA,AUSTRALIA,"{'longitude': 115.97088068, 'latitude': -31.7798866}"
9 LENANE STREET,MOORA,6510,WA,AUSTRALIA,"{'longitude': 116.00178059, 'latitude': -30.64319659}"
9 PALM AVENUE,CAULFIELD NORTH,3161,VIC,AUSTRALIA,"{'longitude': 145.01317592, 'latitude': -37.86295684}"
"UNIT 4, 151 RAGLAN STREET",PRESTON,3072,VIC,AUSTRALIA,"{'longitude': 145.01386493, 'latitude': -37.75070984}"
"UNIT 1, 85 MORTIMORE STREET",BENTLEIGH,3204,VIC,AUSTRALIA,"{'longitude': 145.04738401, 'latitude': -37.92795111}"
76 LONDON ROAD,CLAYFIELD,4011,QLD,AUSTRALIA,"{'longitude': 153.05836893, 'latitude': -27.42073185}"
46 MARLBOROUGH ROAD,BERWICK,3806,VIC,AUSTRALIA,"{'longitude': 145.361428, 'latitude': -38.07434223}"
26 SLEDMERE AVENUE,COBRAM,3644,VIC,AUSTRALIA,"{'longitude': 145.65881299, 'latitude': -35.91806812}"
27 ILLOURA GROVE,KARANA DOWNS,4306,QLD,AUSTRALIA,"{'longitude': 152.82477915, 'latitude': -27.53557605}"
47 CAMPBELL STREET,WAKERLEY,4154,QLD,AUSTRALIA,"{'longitude': 153.14794695, 'latitude': -27.48305713}"
123A ATHOL STREET,PORT HEDLAND,6721,WA,AUSTRALIA,"{'longitude': 118.6287448, 'latitude': -20.30335101}"
3 BUNNY STREET,EVERTON PARK,4053,QLD,AUSTRALIA,"{'longitude': 152.99142465, 'latitude': -27.39571343}"
6 IKEWA STREET,MINGENEW,6522,WA,AUSTRALIA,"{'longitude': 115.44677844, 'latitude': -29.19291222}"
19 OAKLAND AVENUE,BAULKHAM HILLS,2153,NSW,AUSTRALIA,"{'longitude': 150.99856486, 'latitude': -33.76479851}"
16 LLOYD JONES DRIVE,SINGLETON HEIGHTS,2330,NSW,AUSTRALIA,"{'longitude': 151.16385151, 'latitude': -32.54305796}"
1404 BEAUFORT-CARRANBALLAC ROAD,STONELEIGH,3373,VIC,AUSTRALIA,"{'longitude': 143.22882556, 'latitude': -37.55778665}"
"VILLA 2, 103 EWEN STREET",DOUBLEVIEW,6018,WA,AUSTRALIA,"{'longitude': 115.77659369, 'latitude': -31.90004376}"
26 PICKWORTH DRIVE,ANGLESEA,3230,VIC,AUSTRALIA,"{'longitude': 144.16570311, 'latitude': -38.41351049}"
232 ST BRIGIDS TERRACE,DOUBLEVIEW,6018,WA,AUSTRALIA,"{'longitude': 115.78115108, 'latitude': -31.89683825}"
"UNIT 26, 23-25 VICAR STREET",COOGEE,2034,NSW,AUSTRALIA,"{'longitude': 151.2558676, 'latitude': -33.92198618}"
26 GEORGE STREET,BENTLEIGH EAST,3165,VIC,AUSTRALIA,"{'longitude': 145.05769391, 'latitude': -37.90951584}"
16 GAZE COURT,ARMADALE,6112,WA,AUSTRALIA,"{'longitude': 116.00632422, 'latitude': -32.13906806}"
38 SPRING ROAD,CAULFIELD SOUTH,3162,VIC,AUSTRALIA,"{'longitude': 145.02997192, 'latitude': -37.89940284}"
13 CROSBY AVENUE,PACIFIC PINES,4211,QLD,AUSTRALIA,"{'longitude': 153.3137021, 'latitude': -27.94517919}"
9 LIBERATION STREET,HARRISDALE,6112,WA,AUSTRALIA,"{'longitude': 115.93069299, 'latitude': -32.13021712}"
4 HUSSELBEE STREET,BLAXLAND,2774,NSW,AUSTRALIA,"{'longitude': 150.61338859, 'latitude': -33.7561427}"
28 MESSINA AVENUE,STIRLING,6021,WA,AUSTRALIA,"{'longitude': 115.81701116, 'latitude': -31.8957837}"
26 WAVELL STREET,BENTLEIGH,3204,VIC,AUSTRALIA,"{'longitude': 145.04513091, 'latitude': -37.91488584}"
10 LA BELLE COURT,TOCUMWAL,2714,NSW,AUSTRALIA,"{'longitude': 145.57375637, 'latitude': -35.82029812}"
7 PURCELL STREET,DOREEN,3754,VIC,AUSTRALIA,"{'longitude': 145.10714252, 'latitude': -37.61076533}"
24 MAREEBA CRESCENT,BAYSWATER,3153,VIC,AUSTRALIA,"{'longitude': 145.25514388, 'latitude': -37.85315786}"
2 KONRADS STREET,MORANBAH,4744,QLD,AUSTRALIA,"{'longitude': 148.04547905, 'latitude': -21.99562421}"
179 MELBOURNE ROAD,WILLIAMSTOWN,3016,VIC,AUSTRALIA,"{'longitude': 144.8895867, 'latitude': -37.85247874}"
31 FANTAIL CRESCENT,WILLIAMS LANDING,3027,VIC,AUSTRALIA,"{'longitude': 144.73559702, 'latitude': -37.85450462}"
3 WALLABY CIRCUIT,PELICAN WATERS,4551,QLD,AUSTRALIA,"{'longitude': 153.09616946, 'latitude': -26.83140433}"
1456 BURRAGORANG ROAD,OAKDALE,2570,NSW,AUSTRALIA,"{'longitude': 150.51606906, 'latitude': -34.07745221}"
7 JOE KOOYMAN DRIVE,BILOELA,4715,QLD,AUSTRALIA,"{'longitude': 150.51676492, 'latitude': -24.40620968}"
16 ECCLES STREET,SOUTH RIPLEY,4306,QLD,AUSTRALIA,"{'longitude': 152.81919416, 'latitude': -27.69893214}"
21 BRAMPTON CRESCENT,MOUNTAIN CREEK,4557,QLD,AUSTRALIA,"{'longitude': 153.10407969, 'latitude': -26.70314517}"
22 GANTER STREET,MOUNT MORGAN,4714,QLD,AUSTRALIA,"{'longitude': 150.393872, 'latitude': -23.6392222}"
27A REGENT AVENUE,MOUNT PLEASANT,6153,WA,AUSTRALIA,"{'longitude': 115.85429071, 'latitude': -32.04032661}"
98 MIDDLEBOROUGH ROAD,BLACKBURN SOUTH,3130,VIC,AUSTRALIA,"{'longitude': 145.1336599, 'latitude': -37.84615685}"
"UNIT 1, 36 MIDDLEFIELD DRIVE",BLACKBURN NORTH,3130,VIC,AUSTRALIA,"{'longitude': 145.15039291, 'latitude': -37.80168485}"
5 WALKER STREET,TURRELLA,2205,NSW,AUSTRALIA,"{'longitude': 151.14537667, 'latitude': -33.93099177}"
22 GRANDIFLORA GROVE,BUNDOORA,3083,VIC,AUSTRALIA,"{'longitude': 145.05683693, 'latitude': -37.68447884}"
"UNIT 2, 95 LENNOX STREET",RICHMOND,2753,NSW,AUSTRALIA,"{'longitude': 150.74997231, 'latitude': -33.59981904}"
114 LENNARD STREET,HERNE HILL,6056,WA,AUSTRALIA,"{'longitude': 116.01924067, 'latitude': -31.8361666}"
6 INKERMAN AVENUE,WOY WOY,2256,NSW,AUSTRALIA,"{'longitude': 151.32269098, 'latitude': -33.50590187}"
86 RODERICK STREET,MOFFAT BEACH,4551,QLD,AUSTRALIA,"{'longitude': 153.13667487, 'latitude': -26.79000022}"
9 RITA COURT,BELL POST HILL,3215,VIC,AUSTRALIA,"{'longitude': 144.33044745, 'latitude': -38.11192059}"
18 METROPOLITAN AVENUE,CRAIGIEBURN,3064,VIC,AUSTRALIA,"{'longitude': 144.92962297, 'latitude': -37.58942983}"
5 NEERIM CLOSE,KALLANGUR,4503,QLD,AUSTRALIA,"{'longitude': 152.98410699, 'latitude': -27.24713645}"
36 DOWNES AVENUE,BRIGHTON,3186,VIC,AUSTRALIA,"{'longitude': 144.99794072, 'latitude': -37.90010954}"
1A STODART STREET,CAMBERWELL,3124,VIC,AUSTRALIA,"{'longitude': 145.06834383, 'latitude': -37.83486853}"
29A BUCKLEY STREET,DENMARK,6333,WA,AUSTRALIA,"{'longitude': 117.35094392, 'latitude': -34.96357043}"
60 SEVENTEENTH STREET,HOME HILL,4806,QLD,AUSTRALIA,"{'longitude': 147.40929669, 'latitude': -19.65293767}"
28 SEASHELL AVENUE,CAPE WOOLAMAI,3925,VIC,AUSTRALIA,"{'longitude': 145.33982409, 'latitude': -38.52719512}"
"UNIT 1, 17 BIRCH CRESCENT",EAST CORRIMAL,2518,NSW,AUSTRALIA,"{'longitude': 150.91920551, 'latitude': -34.37330208}"
46A BANTRY BAY ROAD,FRENCHS FOREST,2086,NSW,AUSTRALIA,"{'longitude': 151.23244265, 'latitude': -33.75269081}"
23 COLLEGE SQUARE,BACCHUS MARSH,3340,VIC,AUSTRALIA,"{'longitude': 144.42122619, 'latitude': -37.66780533}"
"UNIT 6, 32 KENT STREET",WEST GLADSTONE,4680,QLD,AUSTRALIA,"{'longitude': 151.24988701, 'latitude': -23.8479879}"
31 WALWORTH STREET,TINANA,4650,QLD,AUSTRALIA,"{'longitude': 152.67139235, 'latitude': -25.55220537}"
84 OFF LANE,SOUTH GLADSTONE,4680,QLD,AUSTRALIA,"{'longitude': 151.26524004, 'latitude': -23.85138825}"
35 KIRKWOOD STREET,CORRIGIN,6375,WA,AUSTRALIA,"{'longitude': 117.87874099, 'latitude': -32.32691523}"
46 COLIN STREET,CAMMERAY,2062,NSW,AUSTRALIA,"{'longitude': 151.21312152, 'latitude': -33.82018654}"
3 WILLS PLACE,PADBURY,6025,WA,AUSTRALIA,"{'longitude': 115.76462071, 'latitude': -31.80787661}"
2 GAYFER STREET,CORRIGIN,6375,WA,AUSTRALIA,"{'longitude': 117.87897882, 'latitude': -32.33097684}"
"UNIT 2, 23 WINBOURNE STREET",WEST RYDE,2114,NSW,AUSTRALIA,"{'longitude': 151.06932992, 'latitude': -33.80444064}"
98 ORMOND ROAD,CLAYTON,3168,VIC,AUSTRALIA,"{'longitude': 145.11175286, 'latitude': -37.92733579}"
9 OAKDALE ROAD,UPWEY,3158,VIC,AUSTRALIA,"{'longitude': 145.31457887, 'latitude': -37.90390586}"
19 CLARET AVENUE,MUSWELLBROOK,2333,NSW,AUSTRALIA,"{'longitude': 150.89875846, 'latitude': -32.25209168}"
10 TODD CLOSE,ARMIDALE,2350,NSW,AUSTRALIA,"{'longitude': 151.6437959, 'latitude': -30.52774826}"
27 ESME AVENUE,CHESTER HILL,2162,NSW,AUSTRALIA,"{'longitude': 151.00518863, 'latitude': -33.87836733}"
50 ALFRED STREET,KEW,3101,VIC,AUSTRALIA,"{'longitude': 145.05383777, 'latitude': -37.81103424}"
10 MARTINI WAY,TAPPING,6065,WA,AUSTRALIA,"{'longitude': 115.80252722, 'latitude': -31.72662004}"
"UNIT 2, 48 BELMORE ROAD",BALWYN,3103,VIC,AUSTRALIA,"{'longitude': 145.06861602, 'latitude': -37.80190067}"
509 MIZPAH SETTLEMENT ROAD,BULN BULN EAST,3821,VIC,AUSTRALIA,"{'longitude': 146.0286961, 'latitude': -38.05901792}"
119 CANTERBURY ROAD,TOORAK,3142,VIC,AUSTRALIA,"{'longitude': 145.01025241, 'latitude': -37.84318087}"
"UNIT 237, 2 BULL CREEK DRIVE",BULL CREEK,6149,WA,AUSTRALIA,"{'longitude': 115.85610217, 'latitude': -32.047984}"
20 BONNA ROAD,BRANYAN,4670,QLD,AUSTRALIA,"{'longitude': 152.28976941, 'latitude': -24.91918043}"
44 WALLACE STREET,COLAC,3250,VIC,AUSTRALIA,"{'longitude': 143.5977571, 'latitude': -38.3419545}"
9 DOUGHERTY STREET,YARRAM,3971,VIC,AUSTRALIA,"{'longitude': 146.6785222, 'latitude': -38.56624007}"
5 DARWINIA PLACE,GREENWOOD,6024,WA,AUSTRALIA,"{'longitude': 115.79518071, 'latitude': -31.83375661}"
19 DUKE STREET,MAFFRA,3860,VIC,AUSTRALIA,"{'longitude': 146.97305506, 'latitude': -37.96392228}"
61 MCLENNAN STREET,WOODY POINT,4019,QLD,AUSTRALIA,"{'longitude': 153.09630628, 'latitude': -27.25182535}"
9 KOORINGAL DRIVE,EAGLEHAWK,3556,VIC,AUSTRALIA,"{'longitude': 144.26216032, 'latitude': -36.70800089}"
"UNIT 206, 130 RACECOURSE ROAD",FLEMINGTON,3031,VIC,AUSTRALIA,"{'longitude': 144.93598151, 'latitude': -37.78753718}"
570 COLAC-LAVERS HILL ROAD,BARONGAROOK WEST,3249,VIC,AUSTRALIA,"{'longitude': 143.58269506, 'latitude': -38.41801815}"
27 NATHAN STREET,BRIGHTON,4017,QLD,AUSTRALIA,"{'longitude': 153.05595171, 'latitude': -27.30042639}"
65 CIVIC WAY,ORAN PARK,2570,NSW,AUSTRALIA,"{'longitude': 150.74953038, 'latitude': -33.99912634}"
11 EASTER CRESCENT,PACIFIC PINES,4211,QLD,AUSTRALIA,"{'longitude': 153.31949216, 'latitude': -27.94767213}"
15 BOXTHORN STREET,ASHMORE,4214,QLD,AUSTRALIA,"{'longitude': 153.38857405, 'latitude': -27.99249168}"
25 HARBOURLIGHTS WAY,PELICAN WATERS,4551,QLD,AUSTRALIA,"{'longitude': 153.11105155, 'latitude': -26.83596754}"
"UNIT 1045, 123 CAVENDISH ROAD",COORPAROO,4151,QLD,AUSTRALIA,"{'longitude': 153.05708926, 'latitude': -27.49170743}"
105 BARSONS ROAD,MONTVILLE,4560,QLD,AUSTRALIA,"{'longitude': 152.90104868, 'latitude': -26.69095782}"
67 BOUNDARY ROAD,ST JAMES,6102,WA,AUSTRALIA,"{'longitude': 115.90818375, 'latitude': -32.00096489}"
19 MAJESTIC DRIVE,KIRWAN,4817,QLD,AUSTRALIA,"{'longitude': 146.71263292, 'latitude': -19.30604672}"
91 GREEVES STREET,FITZROY,3065,VIC,AUSTRALIA,"{'longitude': 144.98118794, 'latitude': -37.79999784}"
235 SCRUMLO ROAD,HEBDEN,2330,NSW,AUSTRALIA,"{'longitude': 151.04788914, 'latitude': -32.33531587}"
97 BARRY ROAD,THOMASTOWN,3074,VIC,AUSTRALIA,"{'longitude': 144.98996995, 'latitude': -37.67118584}"
"UNIT 3, 4 HILL STREET",BOX HILL SOUTH,3128,VIC,AUSTRALIA,"{'longitude': 145.12211856, 'latitude': -37.83262181}"
68 HALL ROAD,ELIMBAH,4516,QLD,AUSTRALIA,"{'longitude': 152.96970757, 'latitude': -27.03161045}"
24 CONSTANTINE AVENUE,ST ANDREWS BEACH,3941,VIC,AUSTRALIA,"{'longitude': 144.83440091, 'latitude': -38.42211293}"
"UNIT 2, 90 BRIGHTON AVENUE",TORONTO,2283,NSW,AUSTRALIA,"{'longitude': 151.59890935, 'latitude': -33.01652566}"
32B LANCELOT STREET,CONDELL PARK,2200,NSW,AUSTRALIA,"{'longitude': 151.01771206, 'latitude': -33.92317174}"
129 GIDYEA STREET,BARCALDINE,4725,QLD,AUSTRALIA,"{'longitude': 145.28209274, 'latitude': -23.55835909}"
"UNIT 2, 118 WATTLE AVENUE",CARRAMAR,2163,NSW,AUSTRALIA,"{'longitude': 150.96214106, 'latitude': -33.88482323}"
101 CINNAMON MEANDER,TWO ROCKS,6037,WA,AUSTRALIA,"{'longitude': 115.64886285, 'latitude': -31.4890257}"
"UNIT 2, 1 STADIUM DRIVE",FLOREAT,6014,WA,AUSTRALIA,"{'longitude': 115.78940044, 'latitude': -31.94750005}"
20 WHITE STREET,MOUNT HELENA,6082,WA,AUSTRALIA,"{'longitude': 116.21253065, 'latitude': -31.87113659}"
"UNIT 4, 1 TRINITY PLACE",ORANGE,2800,NSW,AUSTRALIA,"{'longitude': 149.08912084, 'latitude': -33.28571281}"
26 SUFFOLK STREET,CABOOLTURE SOUTH,4510,QLD,AUSTRALIA,"{'longitude': 152.93786955, 'latitude': -27.09454037}"
1A STEWART AVENUE,INVERLOCH,3996,VIC,AUSTRALIA,"{'longitude': 145.72940086, 'latitude': -38.62761361}"
50 LESTER STREET,EAGLEHAWK,3556,VIC,AUSTRALIA,"{'longitude': 144.24341601, 'latitude': -36.71024222}"
150 KENT STREET,MARYBOROUGH,4650,QLD,AUSTRALIA,"{'longitude': 152.71368473, 'latitude': -25.54661575}"
79 GRIBBLE AVENUE,ARMADALE,6112,WA,AUSTRALIA,"{'longitude': 115.99406527, 'latitude': -32.15368115}"
66 MOLUCCANA CRESCENT,ROPES CROSSING,2760,NSW,AUSTRALIA,"{'longitude': 150.78774311, 'latitude': -33.73133057}"
29 SALISBURY ROAD,BEECHBORO,6063,WA,AUSTRALIA,"{'longitude': 115.93291069, 'latitude': -31.8690366}"
146 GIBSON STREET,GOULBURN,2580,NSW,AUSTRALIA,"{'longitude': 149.72177987, 'latitude': -34.72812694}"
"UNIT 32, 149 DEVONSHIRE STREET",SURRY HILLS,2010,NSW,AUSTRALIA,"{'longitude': 151.20990668, 'latitude': -33.88757236}"
9 ACACIA ROAD,SEAFORTH,2092,NSW,AUSTRALIA,"{'longitude': 151.24042415, 'latitude': -33.79077878}"
31 VALENCIA CIRCUIT,CRANBOURNE,3977,VIC,AUSTRALIA,"{'longitude': 145.28501698, 'latitude': -38.09282917}"
134A RALEIGH STREET,CARLISLE,6101,WA,AUSTRALIA,"{'longitude': 115.9182207, 'latitude': -31.9839266}"
"UNIT 35, 12 SANDERS STREET",UPPER MOUNT GRAVATT,4122,QLD,AUSTRALIA,"{'longitude': 153.08185688, 'latitude': -27.55690149}"
"UNIT 2, 30 HIGHLANDS AVENUE",AIRPORT WEST,3042,VIC,AUSTRALIA,"{'longitude': 144.88147065, 'latitude': -37.72062298}"
"UNIT 8, 8-12 TAREN ROAD",CARINGBAH,2229,NSW,AUSTRALIA,"{'longitude': 151.11687671, 'latitude': -34.04083495}"
"UNIT 5, 8 BOLDREWOOD AVENUE",CASULA,2170,NSW,AUSTRALIA,"{'longitude': 150.90045329, 'latitude': -33.95560449}"
81 CAIRNS ROAD,GOODGER,4610,QLD,AUSTRALIA,"{'longitude': 151.79571096, 'latitude': -26.6205577}"
4 WESLEY PLACE,CHERRYBROOK,2126,NSW,AUSTRALIA,"{'longitude': 151.05523947, 'latitude': -33.71176916}"
4 DUFF PLACE,BOORAGOON,6154,WA,AUSTRALIA,"{'longitude': 115.83865072, 'latitude': -32.04473661}"
"UNIT 1, 43 NINETEENTH STREET",WARRAGAMBA,2752,NSW,AUSTRALIA,"{'longitude': 150.6030482, 'latitude': -33.89072477}"
62 PLUMER STREET,SHERWOOD,4075,QLD,AUSTRALIA,"{'longitude': 152.98552522, 'latitude': -27.52794985}"
16 MARX CRESCENT,ARARAT,3377,VIC,AUSTRALIA,"{'longitude': 142.93604304, 'latitude': -37.29283496}"
8 GREGORY STREET,WESTCOURT,4870,QLD,AUSTRALIA,"{'longitude': 145.76161316, 'latitude': -16.92616274}"
"UNIT 1, 19 GERARD STREET",EAST VICTORIA PARK,6101,WA,AUSTRALIA,"{'longitude': 115.9109407, 'latitude': -31.9884466}"
12 BURSILL COURT,WYNDHAM VALE,3024,VIC,AUSTRALIA,"{'longitude': 144.61485958, 'latitude': -37.89181161}"
115A CRAWFORD STREET,EAST CANNINGTON,6107,WA,AUSTRALIA,"{'longitude': 115.95942978, 'latitude': -32.01171142}"
12 CARABELLA ROAD,CARINGBAH,2229,NSW,AUSTRALIA,"{'longitude': 151.13274336, 'latitude': -34.03869431}"
"UNIT 2, 42 WESTS ROAD",MARIBYRNONG,3032,VIC,AUSTRALIA,"{'longitude': 144.88204241, 'latitude': -37.77158137}"
46B LAURA AVENUE,BELMONT,3216,VIC,AUSTRALIA,"{'longitude': 144.33208728, 'latitude': -38.17939453}"
8 BENDERSON ROAD,CHAMPION LAKES,6111,WA,AUSTRALIA,"{'longitude': 115.97740504, 'latitude': -32.13881882}"
24 CRAWFORD STREET,BRAESIDE,3195,VIC,AUSTRALIA,"{'longitude': 145.11065058, 'latitude': -38.00567379}"
"UNIT 6, 6 EAST GORDON STREET",MACKAY,4740,QLD,AUSTRALIA,"{'longitude': 149.19630576, 'latitude': -21.14511608}"
21 BARNETT STREET,SOUTH PENRITH,2750,NSW,AUSTRALIA,"{'longitude': 150.68831413, 'latitude': -33.77398187}"
"UNIT 42, 26 ARGONAUT STREET",SLACKS CREEK,4127,QLD,AUSTRALIA,"{'longitude': 153.12182836, 'latitude': -27.63132469}"
"UNIT 2, 694 LOGAN ROAD",GREENSLOPES,4120,QLD,AUSTRALIA,"{'longitude': 153.05339059, 'latitude': -27.51133947}"
10 MAWSON CLOSE,NORTH BOAMBEE VALLEY,2450,NSW,AUSTRALIA,"{'longitude': 153.09121458, 'latitude': -30.30941706}"
23 ONSLOW STREET,CANTERBURY,2193,NSW,AUSTRALIA,"{'longitude': 151.11163733, 'latitude': -33.91772725}"
291 MOUNT WARREN BOULEVARD,MOUNT WARREN PARK,4207,QLD,AUSTRALIA,"{'longitude': 153.19688853, 'latitude': -27.73164728}"
22 BRENTWOOD DRIVE,STRATHFIELDSAYE,3551,VIC,AUSTRALIA,"{'longitude': 144.33610281, 'latitude': -36.80039937}"
"UNIT 3, 18 ARWEN STREET",MAROOCHYDORE,4558,QLD,AUSTRALIA,"{'longitude': 153.06878408, 'latitude': -26.65365067}"
4 WATERS EDGE CLOSE,BATHUMI,3730,VIC,AUSTRALIA,"{'longitude': 146.07394045, 'latitude': -36.02706313}"
"UNIT 8, 1 BALLANTYNE STREET",MOSMAN,2088,NSW,AUSTRALIA,"{'longitude': 151.23840622, 'latitude': -33.83151107}"
6 KOORINGA COURT,ROSEBUD,3939,VIC,AUSTRALIA,"{'longitude': 144.91401389, 'latitude': -38.36380184}"
1166 PINE MOUNTAIN ROAD,PINE MOUNTAIN,4306,QLD,AUSTRALIA,"{'longitude': 152.6911777, 'latitude': -27.51938473}"
36 CHURCH STREET,ASHFIELD,2131,NSW,AUSTRALIA,"{'longitude': 151.12568421, 'latitude': -33.87965157}"
8 ORONSAY ROAD,GREENWOOD,6024,WA,AUSTRALIA,"{'longitude': 115.79463071, 'latitude': -31.83566661}"
329 BRIDGE CREEK ROAD,BINDA,2583,NSW,AUSTRALIA,"{'longitude': 149.39138616, 'latitude': -34.2389943}"
13 CONNELLY PLACE,MOUNT HELENA,6082,WA,AUSTRALIA,"{'longitude': 116.21910711, 'latitude': -31.86438286}"
14 SPINEBILL DRIVE,SWAN VIEW,6056,WA,AUSTRALIA,"{'longitude': 116.03892751, 'latitude': -31.87791307}"
"UNIT 4, 2-4 MAPLE STREET",CABRAMATTA,2166,NSW,AUSTRALIA,"{'longitude': 150.93172989, 'latitude': -33.89667265}"
"UNIT 1, 19 LENNOX CIRCUIT",POTTSVILLE,2489,NSW,AUSTRALIA,"{'longitude': 153.54937387, 'latitude': -28.38750074}"
36 PARKLAND DRIVE,YANCHEP,6035,WA,AUSTRALIA,"{'longitude': 115.65685405, 'latitude': -31.54654518}"
"UNIT 7, 1 PROSPECT ROAD",SUMMER HILL,2130,NSW,AUSTRALIA,"{'longitude': 151.13196864, 'latitude': -33.89020792}"
134 DEL MAR DRIVE,COPACABANA,2251,NSW,AUSTRALIA,"{'longitude': 151.43439019, 'latitude': -33.48526108}"
39 GALAH STREET,LONGREACH,4730,QLD,AUSTRALIA,"{'longitude': 144.25656598, 'latitude': -23.43528869}"
192 MERTON STREET,ALTONA MEADOWS,3028,VIC,AUSTRALIA,"{'longitude': 144.77648596, 'latitude': -37.87801583}"
23 CRYSTAL STREET,GREYSTANES,2145,NSW,AUSTRALIA,"{'longitude': 150.94456408, 'latitude': -33.81113908}"
19 PORTLAND PARADE,REDLAND BAY,4165,QLD,AUSTRALIA,"{'longitude': 153.29009566, 'latitude': -27.62501658}"
61 KIERS ROAD,MIAMI,4220,QLD,AUSTRALIA,"{'longitude': 153.43270278, 'latitude': -28.06074565}"
54 DRYSDALE CRESCENT,BROOKFIELD,4069,QLD,AUSTRALIA,"{'longitude': 152.91867778, 'latitude': -27.5087576}"
10 TAMBY COURT,SOUTHERN RIVER,6110,WA,AUSTRALIA,"{'longitude': 115.9615407, 'latitude': -32.1139966}"
35 PEBBLE BUSH DRIVE,CANNING VALE,6155,WA,AUSTRALIA,"{'longitude': 115.91226099, 'latitude': -32.08277719}"
"UNIT 326, 14B ANTHONY ROAD",WEST RYDE,2114,NSW,AUSTRALIA,"{'longitude': 151.08782436, 'latitude': -33.80540417}"
17 MERNDA AVENUE,BONBEACH,3196,VIC,AUSTRALIA,"{'longitude': 145.12486588, 'latitude': -38.06934685}"
453 BLACKSHAWS ROAD,ALTONA NORTH,3025,VIC,AUSTRALIA,"{'longitude': 144.83776196, 'latitude': -37.83025183}"
7 CANNING STREET,CARLTON,3053,VIC,AUSTRALIA,"{'longitude': 144.97213934, 'latitude': -37.80053319}"
"UNIT 6, 84 HIGH STREET",SOUTHPORT,4215,QLD,AUSTRALIA,"{'longitude': 153.40809738, 'latitude': -27.96550487}"
"UNIT 53, 325 STANLEY STREET",BRENDALE,4500,QLD,AUSTRALIA,"{'longitude': 152.96492864, 'latitude': -27.31100986}"
11 MELFORT CIRCLE,KINROSS,6028,WA,AUSTRALIA,"{'longitude': 115.73100664, 'latitude': -31.71491551}"
7 WANDOO LANE,FALCON,6210,WA,AUSTRALIA,"{'longitude': 115.65158259, 'latitude': -32.59603002}"
9 SEA CHANGE COURT,BARGARA,4670,QLD,AUSTRALIA,"{'longitude': 152.46721954, 'latitude': -24.84108932}"
50 JABIRU DRIVE,COBAKI LAKES,2486,NSW,AUSTRALIA,"{'longitude': 153.46271664, 'latitude': -28.18196622}"
230 COMMERCIAL STREET,MERBEIN,3505,VIC,AUSTRALIA,"{'longitude': 142.07611584, 'latitude': -34.16867021}"
16 GRANADA COURT,POINT VERNON,4655,QLD,AUSTRALIA,"{'longitude': 152.82358612, 'latitude': -25.26013821}"
8 ELIZABETH KENNY COURT,HARRISTOWN,4350,QLD,AUSTRALIA,"{'longitude': 151.92008627, 'latitude': -27.56590005}"
"UNIT 1705, 33 T E PETERS DRIVE",BROADBEACH WATERS,4218,QLD,AUSTRALIA,"{'longitude': 153.42618123, 'latitude': -28.02671739}"
29 LIGHTHOUSE PARADE,MINDARIE,6030,WA,AUSTRALIA,"{'longitude': 115.70478071, 'latitude': -31.68334661}"
38 SPRING VALLEY DRIVE,CLAYTON SOUTH,3169,VIC,AUSTRALIA,"{'longitude': 145.13485689, 'latitude': -37.94779385}"
22 HOBBS STREET,SCARBOROUGH,4020,QLD,AUSTRALIA,"{'longitude': 153.11213538, 'latitude': -27.1946287}"
36 ROYALOAK CRESCENT,CRANBOURNE EAST,3977,VIC,AUSTRALIA,"{'longitude': 145.29281476, 'latitude': -38.12575118}"
33 KINGSTON COURT,NORTH LAKES,4509,QLD,AUSTRALIA,"{'longitude': 153.01013974, 'latitude': -27.21807255}"
10 FROST COURT,BUNDOORA,3083,VIC,AUSTRALIA,"{'longitude': 145.05599893, 'latitude': -37.68818184}"
11 SUNLAND STREET,BEENLEIGH,4207,QLD,AUSTRALIA,"{'longitude': 153.18848057, 'latitude': -27.71546446}"
10 KOOYONG PLACE,HIGHTON,3216,VIC,AUSTRALIA,"{'longitude': 144.30930341, 'latitude': -38.15223483}"
5 LITTLE GEM WAY,BERWICK,3806,VIC,AUSTRALIA,"{'longitude': 145.35535773, 'latitude': -38.07183605}"
17 PEAK CROSSING CHURCHBANK WEIR ROAD,PEAK CROSSING,4306,QLD,AUSTRALIA,"{'longitude': 152.72734846, 'latitude': -27.78291438}"
49 HAMILL ROAD,UPPER PILTON,4361,QLD,AUSTRALIA,"{'longitude': 152.09527785, 'latitude': -27.91328951}"
108 BALWYN ROAD,BALWYN,3103,VIC,AUSTRALIA,"{'longitude': 145.08189292, 'latitude': -37.81107085}"
35 POINCIANA STREET,NEWTOWN,4350,QLD,AUSTRALIA,"{'longitude': 151.91813106, 'latitude': -27.56243882}"
4 WADE COURT,CHELTENHAM,3192,VIC,AUSTRALIA,"{'longitude': 145.07862958, 'latitude': -37.96213719}"
59 STANSFIELD STREET,HUGHENDEN,4821,QLD,AUSTRALIA,"{'longitude': 144.19676749, 'latitude': -20.84280839}"
"APARTMENT 115, 1 ELLAND AVENUE",BOX HILL,3128,VIC,AUSTRALIA,"{'longitude': 145.12336444, 'latitude': -37.8172218}"
38 SUNRAY AVENUE,CHELTENHAM,3192,VIC,AUSTRALIA,"{'longitude': 145.0645059, 'latitude': -37.96334685}"
3 BAUDIN PLACE,COOGEE,6166,WA,AUSTRALIA,"{'longitude': 115.77188073, 'latitude': -32.11880661}"
4 DOLPHIN AVENUE,BATEMANS BAY,2536,NSW,AUSTRALIA,"{'longitude': 150.19156112, 'latitude': -35.72013403}"
90 SKINNER STREET,SOUTH GRAFTON,2460,NSW,AUSTRALIA,"{'longitude': 152.93251532, 'latitude': -29.7057151}"
36 CRYSTAL CRESCENT,ALICE RIVER,4817,QLD,AUSTRALIA,"{'longitude': 146.59419294, 'latitude': -19.33773468}"
"UNIT 6, 151 STATION STREET",FAIRFIELD,3078,VIC,AUSTRALIA,"{'longitude': 145.01885083, 'latitude': -37.77605577}"
8 NORMANBY STREET,WARRAGUL,3820,VIC,AUSTRALIA,"{'longitude': 145.939078, 'latitude': -38.16462308}"
3032 THEODORE MOURA ROAD,KIANGA,4718,QLD,AUSTRALIA,"{'longitude': 150.02028196, 'latitude': -24.65686401}"
54 WARANA DRIVE,HAMPTON PARK,3976,VIC,AUSTRALIA,"{'longitude': 145.27349486, 'latitude': -38.03179286}"
"UNIT 8, 8-12 GIDDINGS AVENUE",CRONULLA,2230,NSW,AUSTRALIA,"{'longitude': 151.15342539, 'latitude': -34.05812043}"
4 BANGALOW PLACE,SOUTH LAKE,6164,WA,AUSTRALIA,"{'longitude': 115.84870072, 'latitude': -32.09760661}"
"UNIT 107, 143 ADELAIDE TERRACE",EAST PERTH,6004,WA,AUSTRALIA,"{'longitude': 115.87209316, 'latitude': -31.96051628}"
6 CHATSWORTH COURT,BEACONSFIELD,3807,VIC,AUSTRALIA,"{'longitude': 145.38689698, 'latitude': -38.05992567}"
31 MELLUM CIRCUIT,PACIFIC PINES,4211,QLD,AUSTRALIA,"{'longitude': 153.30913454, 'latitude': -27.94175666}"
165 COLLINS STREET,THORNBURY,3071,VIC,AUSTRALIA,"{'longitude': 145.01843993, 'latitude': -37.75584884}"
71 BALYANG WAY,CRAIGIEBURN,3064,VIC,AUSTRALIA,"{'longitude': 144.91275625, 'latitude': -37.59891319}"
"UNIT 22, 2 WATERWAY COURT",CHURCHLANDS,6018,WA,AUSTRALIA,"{'longitude': 115.80299489, 'latitude': -31.93055655}"
"UNIT 5, 11 UNARA STREET",CAMPSIE,2194,NSW,AUSTRALIA,"{'longitude': 151.10655126, 'latitude': -33.91445462}"
67 PARKLANDS BOULEVARD,WONDUNNA,4655,QLD,AUSTRALIA,"{'longitude': 152.85594775, 'latitude': -25.32792859}"
29 CRIBB STREET,BERKELEY,2506,NSW,AUSTRALIA,"{'longitude': 150.85129371, 'latitude': -34.47216207}"
"APARTMENT 4521, 35 BURDETT STREET",ALBION,4010,QLD,AUSTRALIA,"{'longitude': 153.04671757, 'latitude': -27.43170692}"
33 NORTHQUARTER DRIVE,MURRUMBA DOWNS,4503,QLD,AUSTRALIA,"{'longitude': 153.01286101, 'latitude': -27.26735168}"
6 CATALPA STREET,EIGHT MILE PLAINS,4113,QLD,AUSTRALIA,"{'longitude': 153.07338875, 'latitude': -27.58234644}"
13 TELOPEA AVENUE,CARINGBAH SOUTH,2229,NSW,AUSTRALIA,"{'longitude': 151.1247513, 'latitude': -34.05516798}"
2 OLEA COURT,REDLYNCH,4870,QLD,AUSTRALIA,"{'longitude': 145.69731072, 'latitude': -16.90305581}"
1 LAKE WIVENHOE COURT,LOGAN RESERVE,4133,QLD,AUSTRALIA,"{'longitude': 153.11480827, 'latitude': -27.69556049}"
10 STARLING STREET,ROZELLE,2039,NSW,AUSTRALIA,"{'longitude': 151.17466024, 'latitude': -33.86467935}"
"UNIT 10, 723 ORRONG ROAD",TOORAK,3142,VIC,AUSTRALIA,"{'longitude': 145.01392449, 'latitude': -37.839303}"
201 LESCHENAULTIA DRIVE,CHITTERING,6084,WA,AUSTRALIA,"{'longitude': 116.0715239, 'latitude': -31.49202812}"
39A DOUGLAS PARADE,YARRA JUNCTION,3797,VIC,AUSTRALIA,"{'longitude': 145.62128431, 'latitude': -37.78760646}"
"UNIT 105, 6 FLORENCE STREET",BRUNSWICK,3056,VIC,AUSTRALIA,"{'longitude': 144.96100292, 'latitude': -37.7613883}"
10 ORRONG CRESCENT,CAULFIELD NORTH,3161,VIC,AUSTRALIA,"{'longitude': 145.01711592, 'latitude': -37.86776284}"
17 DENNIS STREET,BOYNE ISLAND,4680,QLD,AUSTRALIA,"{'longitude': 151.32699918, 'latitude': -23.9626048}"
14 ANTHONY GARDENS,BALDIVIS,6171,WA,AUSTRALIA,"{'longitude': 115.81214564, 'latitude': -32.35925296}"
9 SNOW WOOD DRIVE,EATONS HILL,4037,QLD,AUSTRALIA,"{'longitude': 152.94772419, 'latitude': -27.34416384}"
70 GLEN SHIAN LANE,MOUNT ELIZA,3930,VIC,AUSTRALIA,"{'longitude': 145.08477288, 'latitude': -38.17201885}"
9 WARRAWONG STREET,GLENMORE PARK,2745,NSW,AUSTRALIA,"{'longitude': 150.69264033, 'latitude': -33.80152378}"
541 PRINCES HIGHWAY,ORBOST,3888,VIC,AUSTRALIA,"{'longitude': 148.51303409, 'latitude': -37.70516957}"
31 MCCUSKER DRIVE,BUNGENDORE,2621,NSW,AUSTRALIA,"{'longitude': 149.45013021, 'latitude': -35.24717475}"
15 CORONA PLACE,ROXBURGH PARK,3064,VIC,AUSTRALIA,"{'longitude': 144.93439101, 'latitude': -37.62212286}"
93 O'SULLIVAN ROAD,LEUMEAH,2560,NSW,AUSTRALIA,"{'longitude': 150.83114819, 'latitude': -34.05579866}"
7 HOWSON CLOSE,ENDEAVOUR HILLS,3802,VIC,AUSTRALIA,"{'longitude': 145.24857487, 'latitude': -37.97683886}"
12 PALMER STREET,WARNBRO,6169,WA,AUSTRALIA,"{'longitude': 115.75069075, 'latitude': -32.34183661}"
80 ADELAIDE CIRCUIT,BEENLEIGH,4207,QLD,AUSTRALIA,"{'longitude': 153.19116717, 'latitude': -27.71746371}"
"UNIT 25, 17-21 MANSFIELD AVENUE",CARINGBAH,2229,NSW,AUSTRALIA,"{'longitude': 151.12438083, 'latitude': -34.04396156}"
12 THOMPSON STREET,BULIMBA,4171,QLD,AUSTRALIA,"{'longitude': 153.0553397, 'latitude': -27.44606477}"
"UNIT 5, 72-74 YORKTOWN PARADE",MAROUBRA,2035,NSW,AUSTRALIA,"{'longitude': 151.24747675, 'latitude': -33.94734553}"
"UNIT 3, 39 CAMDEN STREET",ALBION,4010,QLD,AUSTRALIA,"{'longitude': 153.04464692, 'latitude': -27.42657521}"
22 NICHOLAS CONOLY DRIVE,SINGLETON HEIGHTS,2330,NSW,AUSTRALIA,"{'longitude': 151.1636693, 'latitude': -32.53617924}"
40 ST CLAIR CIRCLE,EDGEWATER,6027,WA,AUSTRALIA,"{'longitude': 115.7748707, 'latitude': -31.75753661}"
1 KILLARA COURT,GOONELLABAH,2480,NSW,AUSTRALIA,"{'longitude': 153.34003161, 'latitude': -28.81595848}"
"UNIT 16, 162 MARINE PARADE",COOLANGATTA,4225,QLD,AUSTRALIA,"{'longitude': 153.54604783, 'latitude': -28.16533021}"
23 AILSACRAIG RAMBLE,KINROSS,6028,WA,AUSTRALIA,"{'longitude': 115.73512071, 'latitude': -31.71383661}"
8 CHARNLEY VISTA,MILLBRIDGE,6232,WA,AUSTRALIA,"{'longitude': 115.73269083, 'latitude': -33.31274662}"
20 SYCAMORE DRIVE,CURRIMUNDI,4551,QLD,AUSTRALIA,"{'longitude': 153.11420991, 'latitude': -26.75921118}"
22 MOUNTAIN CRESCENT,MONTROSE,3765,VIC,AUSTRALIA,"{'longitude': 145.36706887, 'latitude': -37.80452887}"
"UNIT 5, 6 ORMOND ROAD",ASCOT VALE,3032,VIC,AUSTRALIA,"{'longitude': 144.92816095, 'latitude': -37.77280583}"
23 BUSBY STREET,ALGESTER,4115,QLD,AUSTRALIA,"{'longitude': 153.03640439, 'latitude': -27.60732944}"
30 RAILWAY ROAD,CARNEGIE,3163,VIC,AUSTRALIA,"{'longitude': 145.05307791, 'latitude': -37.89259684}"
42 WARNER STREET,ROSENTHAL HEIGHTS,4370,QLD,AUSTRALIA,"{'longitude': 151.98929409, 'latitude': -28.22111649}"
11 WALTERS STREET,WARILLA,2528,NSW,AUSTRALIA,"{'longitude': 150.85205649, 'latitude': -34.55405338}"
59 LEIGH DRIVE,PAKENHAM,3810,VIC,AUSTRALIA,"{'longitude': 145.50560014, 'latitude': -38.05990894}"
3 KRECKLER CRESCENT,LALOR PARK,2147,NSW,AUSTRALIA,"{'longitude': 150.93484437, 'latitude': -33.75853617}"
169 COOLART ROAD,HASTINGS,3915,VIC,AUSTRALIA,"{'longitude': 145.14577685, 'latitude': -38.31045785}"
"UNIT 2, 33 BURKETT DRIVE",HANNANS,6430,WA,AUSTRALIA,"{'longitude': 121.44892985, 'latitude': -30.72419636}"
2 BUNGAREE PLACE,SANDHURST,3977,VIC,AUSTRALIA,"{'longitude': 145.21419711, 'latitude': -38.0850105}"
13A BROOKS STREET,GUILDFORD,2161,NSW,AUSTRALIA,"{'longitude': 150.97998138, 'latitude': -33.85743273}"
"UNIT 11, 59 SHOLL STREET",MANDURAH,6210,WA,AUSTRALIA,"{'longitude': 115.72308384, 'latitude': -32.52789254}"
26 CANAAN AVENUE,FIGTREE,2525,NSW,AUSTRALIA,"{'longitude': 150.84451134, 'latitude': -34.42099599}"
19 LENNOX STREET,HAWTHORN,3122,VIC,AUSTRALIA,"{'longitude': 145.02362793, 'latitude': -37.82015584}"
4 LOUGHREA STREET,TINGALPA,4173,QLD,AUSTRALIA,"{'longitude': 153.13206637, 'latitude': -27.47982649}"
53 ARDROSS STREET,APPLECROSS,6153,WA,AUSTRALIA,"{'longitude': 115.83550161, 'latitude': -32.01193562}"
"UNIT 1131, 22 REFINERY PARADE",NEW FARM,4005,QLD,AUSTRALIA,"{'longitude': 153.05178448, 'latitude': -27.46487311}"
95 RIVERSIDE DRIVE,WEST BALLINA,2478,NSW,AUSTRALIA,"{'longitude': 153.53462536, 'latitude': -28.86934289}"
173 OGILVIE ROAD WEST,OGILVIE,6535,WA,AUSTRALIA,"{'longitude': 114.62519784, 'latitude': -28.1627831}"
"UNIT 11109, 88 DOGGETT STREET",NEWSTEAD,4006,QLD,AUSTRALIA,"{'longitude': 153.04306188, 'latitude': -27.45127015}"
15 RADFORD LANE,RIDGEWOOD,6030,WA,AUSTRALIA,"{'longitude': 115.72021842, 'latitude': -31.65402461}"
"UNIT 12, 122-130 CLAREVILLE AVENUE",SANDRINGHAM,2219,NSW,AUSTRALIA,"{'longitude': 151.13899092, 'latitude': -34.00174163}"
398 KENTUCKY LANE,ERIN VALE,2663,NSW,AUSTRALIA,"{'longitude': 147.50541056, 'latitude': -34.67572132}"
15 MONTEREY BOULEVARD,FRANKSTON NORTH,3200,VIC,AUSTRALIA,"{'longitude': 145.15072287, 'latitude': -38.11939385}"
254 CLARENDON STREET,THORNBURY,3071,VIC,AUSTRALIA,"{'longitude': 145.02040493, 'latitude': -37.76177584}"
9 HEWAT COURT,MORWELL,3840,VIC,AUSTRALIA,"{'longitude': 146.43464681, 'latitude': -38.22284061}"
5 SNOWSILL AVENUE,REVESBY,2212,NSW,AUSTRALIA,"{'longitude': 151.02455894, 'latitude': -33.93766108}"
171 MULLIGAN HIGHWAY,COOKTOWN,4895,QLD,AUSTRALIA,"{'longitude': 145.24423805, 'latitude': -15.50249257}"
59-63 BENOWA STREET,TAMBORINE MOUNTAIN,4272,QLD,AUSTRALIA,"{'longitude': 153.19373275, 'latitude': -27.97640099}"
121A MULGA ROAD,OATLEY,2223,NSW,AUSTRALIA,"{'longitude': 151.07284013, 'latitude': -33.9800912}"
"UNIT 15, 90 EDGARS ROAD",THOMASTOWN,3074,VIC,AUSTRALIA,"{'longitude': 145.00346048, 'latitude': -37.68536593}"
15 HARMON DRIVE,DROUIN,3818,VIC,AUSTRALIA,"{'longitude': 145.87215939, 'latitude': -38.13068415}"
51 BASSETT STREET,FAIRY MEADOW,2519,NSW,AUSTRALIA,"{'longitude': 150.88231046, 'latitude': -34.3989527}"
19 RICHARD STREET,DONCASTER EAST,3109,VIC,AUSTRALIA,"{'longitude': 145.1683679, 'latitude': -37.79514385}"
10 WHITMORE PLACE,COOLBELLUP,6163,WA,AUSTRALIA,"{'longitude': 115.80624072, 'latitude': -32.08788661}"
6 MCILWRAITH STREET,CLONCURRY,4824,QLD,AUSTRALIA,"{'longitude': 140.52534746, 'latitude': -20.70759283}"
9 BALLOW ROAD,DUNWICH,4183,QLD,AUSTRALIA,"{'longitude': 153.40367089, 'latitude': -27.50008362}"
19 WORROBIL STREET,NORTH BALGOWLAH,2093,NSW,AUSTRALIA,"{'longitude': 151.24907143, 'latitude': -33.7905878}"
68 MANNING DRIVE,CHURCHILL,3842,VIC,AUSTRALIA,"{'longitude': 146.40809153, 'latitude': -38.31406204}"
15 CHURCH STREET,BELLINGEN,2454,NSW,AUSTRALIA,"{'longitude': 152.89637927, 'latitude': -30.45359377}"
115 OAKES ROAD,CARLINGFORD,2118,NSW,AUSTRALIA,"{'longitude': 151.04277293, 'latitude': -33.76709354}"
21 TATE AVENUE,WANTIRNA SOUTH,3152,VIC,AUSTRALIA,"{'longitude': 145.24219588, 'latitude': -37.85898486}"
2A DAPHNE STREET,SUNSHINE WEST,3020,VIC,AUSTRALIA,"{'longitude': 144.79776297, 'latitude': -37.78472283}"
"APARTMENT 704, 11 BARRACK SQUARE",PERTH,6000,WA,AUSTRALIA,"{'longitude': 115.85765488, 'latitude': -31.95891655}"
"UNIT 5, 26 ESPLANADE",TIN CAN BAY,4580,QLD,AUSTRALIA,"{'longitude': 153.00961092, 'latitude': -25.90563366}"
15 COUNTESS LINK,MADELEY,6065,WA,AUSTRALIA,"{'longitude': 115.83428105, 'latitude': -31.81165719}"
15 LANG STREET,PADSTOW,2211,NSW,AUSTRALIA,"{'longitude': 151.02624575, 'latitude': -33.95846062}"
6 DOUGHERTY STREET,YARRAM,3971,VIC,AUSTRALIA,"{'longitude': 146.67798353, 'latitude': -38.56648864}"
3B COONEWARRA WAY,QUINNS ROCKS,6030,WA,AUSTRALIA,"{'longitude': 115.70127834, 'latitude': -31.66983888}"
2 ARKLEY AVENUE,CLAYMORE,2559,NSW,AUSTRALIA,"{'longitude': 150.8115418, 'latitude': -34.04872649}"
14 RIGG STREET,WOREE,4868,QLD,AUSTRALIA,"{'longitude': 145.74537547, 'latitude': -16.95671057}"
102 ATTFIELD ROAD,YORK,6302,WA,AUSTRALIA,"{'longitude': 116.78496426, 'latitude': -31.87334601}"
74 SHELLY BEACH ROAD,EMPIRE BAY,2257,NSW,AUSTRALIA,"{'longitude': 151.36963072, 'latitude': -33.49390882}"
36 DARTON LOOP,BERTRAM,6167,WA,AUSTRALIA,"{'longitude': 115.84181799, 'latitude': -32.23724985}"
11 KAKADU DRIVE,SHEPPARTON NORTH,3631,VIC,AUSTRALIA,"{'longitude': 145.40934152, 'latitude': -36.34590971}"
123 HAMMERSMITH STREET,COOPERS PLAINS,4108,QLD,AUSTRALIA,"{'longitude': 153.04608282, 'latitude': -27.56262109}"
1 CLIVE ROAD,EASTWOOD,2122,NSW,AUSTRALIA,"{'longitude': 151.07914117, 'latitude': -33.78806091}"
4 SARDON STREET,CENTENARY HEIGHTS,4350,QLD,AUSTRALIA,"{'longitude': 151.9695078, 'latitude': -27.58954453}"
7 ELMORE STREET,MOUNT HELENA,6082,WA,AUSTRALIA,"{'longitude': 116.20957065, 'latitude': -31.87295659}"
99 JUANITA DRIVE,MOUNT KELLY,4807,QLD,AUSTRALIA,"{'longitude': 147.3230271, 'latitude': -19.66812955}"
15 JENSEN STREET,MANOORA,4870,QLD,AUSTRALIA,"{'longitude': 145.73865184, 'latitude': -16.91396576}"
2824 MURRAY VALLEY HIGHWAY,NYAH,3594,VIC,AUSTRALIA,"{'longitude': 143.37652626, 'latitude': -35.16555997}"
"UNIT 2, 102 CLAYTON ROAD",CLAYTON,3168,VIC,AUSTRALIA,"{'longitude': 145.12364426, 'latitude': -37.90703701}"
17 SWAIN CRESCENT,DAPTO,2530,NSW,AUSTRALIA,"{'longitude': 150.79522145, 'latitude': -34.50880948}"
168 LINDSAY STREET,HAMILTON,2303,NSW,AUSTRALIA,"{'longitude': 151.73996275, 'latitude': -32.92064164}"
"UNIT 4, 3 DUNLOP AVENUE",ASCOT VALE,3032,VIC,AUSTRALIA,"{'longitude': 144.92195738, 'latitude': -37.77842869}"
58 AUSTRALIA STREET,BASS HILL,2197,NSW,AUSTRALIA,"{'longitude': 151.00546737, 'latitude': -33.90203686}"
9 CAMBDEN PARK PARADE,FERNTREE GULLY,3156,VIC,AUSTRALIA,"{'longitude': 145.25862388, 'latitude': -37.88203886}"
12-14 OGILVY COURT,CORNUBIA,4130,QLD,AUSTRALIA,"{'longitude': 153.22856691, 'latitude': -27.6681658}"
"UNIT 13, 16-36 BEDFORD STREET",BOX HILL,3128,VIC,AUSTRALIA,"{'longitude': 145.1323229, 'latitude': -37.82829598}"
"UNIT 304, 70 QUEENSBERRY STREET",CARLTON,3053,VIC,AUSTRALIA,"{'longitude': 144.96678553, 'latitude': -37.80474441}"
9 POLYGALA WAY,SINAGRA,6065,WA,AUSTRALIA,"{'longitude': 115.81294894, 'latitude': -31.74132054}"
29 WHISKEY CREEK ROAD,NIRRANDA EAST,3268,VIC,AUSTRALIA,"{'longitude': 142.84749073, 'latitude': -38.4832475}"
5 YARROW COURT,REDBANK PLAINS,4301,QLD,AUSTRALIA,"{'longitude': 152.86999911, 'latitude': -27.63665277}"
"UNIT 12, 9 AKERINGA PLACE",MOOLOOLABA,4557,QLD,AUSTRALIA,"{'longitude': 153.11387395, 'latitude': -26.69128381}"
740 MOSSMAN - DAINTREE ROAD,MIALLO,4873,QLD,AUSTRALIA,"{'longitude': 145.38583078, 'latitude': -16.40394685}"
26 MALMROSE STREET,WISHART,4122,QLD,AUSTRALIA,"{'longitude': 153.09659536, 'latitude': -27.55282802}"
13 ALLENBY STREET,WANDAL,4700,QLD,AUSTRALIA,"{'longitude': 150.4934446, 'latitude': -23.36550438}"
"UNIT 1, 13 BRISBANE STREET",HARRIS PARK,2150,NSW,AUSTRALIA,"{'longitude': 151.01175998, 'latitude': -33.82374752}"
2 DEGANCE STREET,SOUTH TAMWORTH,2340,NSW,AUSTRALIA,"{'longitude': 150.92224776, 'latitude': -31.10620956}"
21 SILVER STREET,MCKAIL,6330,WA,AUSTRALIA,"{'longitude': 117.84506013, 'latitude': -34.99845169}"
"UNIT 101, 185 OLD BURLEIGH ROAD",BROADBEACH,4218,QLD,AUSTRALIA,"{'longitude': 153.43443057, 'latitude': -28.03343873}"
21 MURDOCH STREET,ERMINGTON,2115,NSW,AUSTRALIA,"{'longitude': 151.06143789, 'latitude': -33.8147175}"
8 SHADY GROVE,TANAWHA,4556,QLD,AUSTRALIA,"{'longitude': 153.04056877, 'latitude': -26.71292088}"
163 WONDALL ROAD,WYNNUM WEST,4178,QLD,AUSTRALIA,"{'longitude': 153.16156447, 'latitude': -27.4608792}"
1854 CARNEYS CREEK ROAD,CARNEYS CREEK,4310,QLD,AUSTRALIA,"{'longitude': 152.56762688, 'latitude': -28.21037239}"
17 TAHITI STREET,TAIGUM,4018,QLD,AUSTRALIA,"{'longitude': 153.05182906, 'latitude': -27.34393387}"
"UNIT 101, 107-115 PACIFIC HIGHWAY",HORNSBY,2077,NSW,AUSTRALIA,"{'longitude': 151.09784596, 'latitude': -33.70750461}"
13 LUCAS AVENUE,RUSSELL LEA,2046,NSW,AUSTRALIA,"{'longitude': 151.13725399, 'latitude': -33.85767129}"
92 CONCORD ROAD,NORTH STRATHFIELD,2137,NSW,AUSTRALIA,"{'longitude': 151.09305787, 'latitude': -33.86222656}"
17 CALDERVALE AVENUE,ELLENBROOK,6069,WA,AUSTRALIA,"{'longitude': 115.97164468, 'latitude': -31.7700386}"
3 SUNSAIL PLACE,THORNLANDS,4164,QLD,AUSTRALIA,"{'longitude': 153.274562, 'latitude': -27.55960731}"
"UNIT 2, 140 MEADOW STREET",KOORINGAL,2650,NSW,AUSTRALIA,"{'longitude': 147.37020518, 'latitude': -35.14517545}"
"UNIT 6, 20B MARY STREET",BIRKDALE,4159,QLD,AUSTRALIA,"{'longitude': 153.21417066, 'latitude': -27.49137886}"
106 IVANHOE STREET,EDEN HILL,6054,WA,AUSTRALIA,"{'longitude': 115.94660069, 'latitude': -31.8921466}"
10 ROWLAND AVENUE,WOLLONGONG,2500,NSW,AUSTRALIA,"{'longitude': 150.88545752, 'latitude': -34.42814885}"
123 VIERITZ ROAD,PEACHESTER,4519,QLD,AUSTRALIA,"{'longitude': 152.86961946, 'latitude': -26.8564383}"
31 RAGLAN STREET,HOPETOUN,6348,WA,AUSTRALIA,"{'longitude': 120.12313939, 'latitude': -33.94476659}"
"UNIT 2, 2 CAMBEY WAY",BRENTWOOD,6153,WA,AUSTRALIA,"{'longitude': 115.84965071, 'latitude': -32.04556661}"
4 SIMPSON STREET,DUNDAS VALLEY,2117,NSW,AUSTRALIA,"{'longitude': 151.04678958, 'latitude': -33.796039}"
121 LARTER STREET,CANADIAN,3350,VIC,AUSTRALIA,"{'longitude': 143.87310266, 'latitude': -37.57125001}"
15 WHITE GUM RISE,BYFORD,6122,WA,AUSTRALIA,"{'longitude': 116.0165807, 'latitude': -32.2250666}"
"UNIT 7, 1A ADELAIDE STREET",EAST GOSFORD,2250,NSW,AUSTRALIA,"{'longitude': 151.35198795, 'latitude': -33.44016803}"
1 MILTON STREET,CHATSWOOD,2067,NSW,AUSTRALIA,"{'longitude': 151.19168696, 'latitude': -33.79045563}"
25 MCDONALD STREET,GULLIVER,4812,QLD,AUSTRALIA,"{'longitude': 146.77330505, 'latitude': -19.28365162}"
38 WINTERGREENE DRIVE,BENNETT SPRINGS,6063,WA,AUSTRALIA,"{'longitude': 115.92990094, 'latitude': -31.85622976}"
15 DUNN CLOSE,SEVILLE GROVE,6112,WA,AUSTRALIA,"{'longitude': 115.9823419, 'latitude': -32.134464}"
577 BROUGHANS ROAD,FINLEY,2713,NSW,AUSTRALIA,"{'longitude': 145.4958231, 'latitude': -35.66648806}"
"UNIT 1, 5 MURPHY STREET",BRIGHTON,3186,VIC,AUSTRALIA,"{'longitude': 144.99574192, 'latitude': -37.89707884}"
12 ROHL ROAD,WALLOON,4306,QLD,AUSTRALIA,"{'longitude': 152.65888856, 'latitude': -27.60340404}"
101 BAXTER ROAD,MASCOT,2020,NSW,AUSTRALIA,"{'longitude': 151.18856393, 'latitude': -33.93142694}"
16 CLANCY WAY,THORNLIE,6108,WA,AUSTRALIA,"{'longitude': 115.96202617, 'latitude': -32.05310583}"
14 TINAROO PLACE,TEWANTIN,4565,QLD,AUSTRALIA,"{'longitude': 153.0112222, 'latitude': -26.39558853}"
7 FOURTH STREET,GRANVILLE,2142,NSW,AUSTRALIA,"{'longitude': 151.0149442, 'latitude': -33.8399316}"
222 EDWARDES STREET,RESERVOIR,3073,VIC,AUSTRALIA,"{'longitude': 144.98785494, 'latitude': -37.71419984}"
89 TAMBAROORA CRESCENT,MARAYONG,2148,NSW,AUSTRALIA,"{'longitude': 150.88091251, 'latitude': -33.74713131}"
8 HIGHVIEW DRIVE,CRAIGNISH,4655,QLD,AUSTRALIA,"{'longitude': 152.72200107, 'latitude': -25.27893033}"
18 TAMARANG STREET,TARRAGINDI,4121,QLD,AUSTRALIA,"{'longitude': 153.03791682, 'latitude': -27.53158553}"
45 STIRLING STREET,BUNBURY,6230,WA,AUSTRALIA,"{'longitude': 115.64248084, 'latitude': -33.32740662}"
116 PALMERSTON CRESCENT,SOUTH MELBOURNE,3205,VIC,AUSTRALIA,"{'longitude': 144.96738293, 'latitude': -37.83587884}"
127 DAVIDSON AVENUE,CONCORD,2137,NSW,AUSTRALIA,"{'longitude': 151.09250119, 'latitude': -33.85603361}"
57 CLARET ASH BOULEVARD,BALDIVIS,6171,WA,AUSTRALIA,"{'longitude': 115.82922697, 'latitude': -32.3420268}"
"UNIT 608, 81 O'CONNOR STREET",CHIPPENDALE,2008,NSW,AUSTRALIA,"{'longitude': 151.20055353, 'latitude': -33.8861301}"
38 TWICKENHAM DRIVE,DUBBO,2830,NSW,AUSTRALIA,"{'longitude': 148.64082306, 'latitude': -32.2404179}"
7 DALBEATTIE WAY,KINROSS,6028,WA,AUSTRALIA,"{'longitude': 115.73545071, 'latitude': -31.71242661}"
"UNIT 2, 3 GREYBOX CRESCENT",KUNUNURRA,6743,WA,AUSTRALIA,"{'longitude': 128.74560262, 'latitude': -15.77529758}"
282 CRAWFORD ROAD,INGLEWOOD,6052,WA,AUSTRALIA,"{'longitude': 115.88392067, 'latitude': -31.91396117}"
12 COCKMAN CROSS,STRATTON,6056,WA,AUSTRALIA,"{'longitude': 116.03766067, 'latitude': -31.8696766}"
55 DAGLISH STREET,WEMBLEY,6014,WA,AUSTRALIA,"{'longitude': 115.8184439, 'latitude': -31.93615178}"
6 MULLINS STREET,WHITFIELD,4870,QLD,AUSTRALIA,"{'longitude': 145.73429283, 'latitude': -16.8968115}"
99 BANNISTER-MARRADONG ROAD,BODDINGTON,6390,WA,AUSTRALIA,"{'longitude': 116.47263068, 'latitude': -32.80889658}"
3 ROYAL OAK PLACE,WEST PENNANT HILLS,2125,NSW,AUSTRALIA,"{'longitude': 151.02153097, 'latitude': -33.74451458}"
234 EDGAR STREET,CONDELL PARK,2200,NSW,AUSTRALIA,"{'longitude': 151.01253712, 'latitude': -33.92264072}"
61 ANAKIE DRIVE,CORNUBIA,4130,QLD,AUSTRALIA,"{'longitude': 153.19260731, 'latitude': -27.66274889}"
19 SELLERS CRESCENT,BELLAMBI,2518,NSW,AUSTRALIA,"{'longitude': 150.91939217, 'latitude': -34.37105607}"
"UNIT 3, 11 SEVEN OAKS STREET",TARINGA,4068,QLD,AUSTRALIA,"{'longitude': 152.98824351, 'latitude': -27.49724782}"
19 KIRKNESS AVENUE,NORTH GOSFORD,2250,NSW,AUSTRALIA,"{'longitude': 151.35216227, 'latitude': -33.41892552}"
45 MARLIN WAY,TIN CAN BAY,4580,QLD,AUSTRALIA,"{'longitude': 152.99946578, 'latitude': -25.91968242}"
29 AZTEC ISLAND RETREAT,HALLS HEAD,6210,WA,AUSTRALIA,"{'longitude': 115.70827077, 'latitude': -32.54025662}"
10 TONEY PLACE,GLENFIELD PARK,2650,NSW,AUSTRALIA,"{'longitude': 147.33442311, 'latitude': -35.14493742}"
12 LUKIN ROAD,HILLARYS,6025,WA,AUSTRALIA,"{'longitude': 115.74996071, 'latitude': -31.81808661}"
1 FERN STREET,ENOGGERA,4051,QLD,AUSTRALIA,"{'longitude': 152.99486355, 'latitude': -27.41288956}"
166 MULLALOO DRIVE,MULLALOO,6027,WA,AUSTRALIA,"{'longitude': 115.75227071, 'latitude': -31.78055661}"
19 BROWNRIGG STREET,SINGLETON,6175,WA,AUSTRALIA,"{'longitude': 115.75451076, 'latitude': -32.44291661}"
26 CADOGAN AVENUE,VENTNOR,3922,VIC,AUSTRALIA,"{'longitude': 145.16365383, 'latitude': -38.47220254}"
26 LINGA LONGA ROAD,YARRAMALONG,2259,NSW,AUSTRALIA,"{'longitude': 151.28083073, 'latitude': -33.22500782}"
37 HALLIDAY STREET,BAYSWATER,6053,WA,AUSTRALIA,"{'longitude': 115.9195407, 'latitude': -31.9263866}"
11 STYLIS PLACE,BENNETT SPRINGS,6063,WA,AUSTRALIA,"{'longitude': 115.92346452, 'latitude': -31.8592728}"
28 VERNON ROAD,TELINA,4680,QLD,AUSTRALIA,"{'longitude': 151.25509776, 'latitude': -23.88651679}"
"UNIT 46, 209 WILLS STREET",TOWNSVILLE CITY,4810,QLD,AUSTRALIA,"{'longitude': 146.81150695, 'latitude': -19.2601084}"
50 MCCONNELL STREET,BULIMBA,4171,QLD,AUSTRALIA,"{'longitude': 153.05742947, 'latitude': -27.44318355}"
"UNIT 4, 6 DELVES PLACE",NORANDA,6062,WA,AUSTRALIA,"{'longitude': 115.90585069, 'latitude': -31.8725166}"
14 DOYLE WAY,BAYONET HEAD,6330,WA,AUSTRALIA,"{'longitude': 117.92820446, 'latitude': -34.96459362}"
23 WHEELER PARADE,DEE WHY,2099,NSW,AUSTRALIA,"{'longitude': 151.29325179, 'latitude': -33.75776234}"
62 WARD STREET,TEWANTIN,4565,QLD,AUSTRALIA,"{'longitude': 153.03655128, 'latitude': -26.3862096}"
99B LYALL STREET,LAMINGTON,6430,WA,AUSTRALIA,"{'longitude': 121.45950985, 'latitude': -30.73503636}"
24 MURPHY STREET,CALAMVALE,4116,QLD,AUSTRALIA,"{'longitude': 153.04669722, 'latitude': -27.61930977}"
8 SIXTH AVENUE,PARKSIDE,4825,QLD,AUSTRALIA,"{'longitude': 139.48979763, 'latitude': -20.73542088}"
17 GALLEY ROAD,HOPE ISLAND,4212,QLD,AUSTRALIA,"{'longitude': 153.35580723, 'latitude': -27.87195667}"
28 RESERVE STREET,WEMBLEY,6014,WA,AUSTRALIA,"{'longitude': 115.80694226, 'latitude': -31.93758408}"
11 HOGARTH STREET,CANNINGTON,6107,WA,AUSTRALIA,"{'longitude': 115.94734922, 'latitude': -32.01872117}"
13 WOOD WAY,LEDGE POINT,6043,WA,AUSTRALIA,"{'longitude': 115.37562071, 'latitude': -31.11160663}"
19 MCCASKILL WAY,NORANDA,6062,WA,AUSTRALIA,"{'longitude': 115.90718069, 'latitude': -31.8742366}"
82 DAMIEN AVENUE,GREYSTANES,2145,NSW,AUSTRALIA,"{'longitude': 150.9600532, 'latitude': -33.82200596}"
189 WHALANS ROAD,GREYSTANES,2145,NSW,AUSTRALIA,"{'longitude': 150.93298663, 'latitude': -33.82491493}"
10 DARCY CRESCENT,GOULBURN,2580,NSW,AUSTRALIA,"{'longitude': 149.70292318, 'latitude': -34.76834958}"
35 CADDY AVENUE,URRAWEEN,4655,QLD,AUSTRALIA,"{'longitude': 152.82093285, 'latitude': -25.28688421}"
16 CHURCH STREET,PYMBLE,2073,NSW,AUSTRALIA,"{'longitude': 151.146083, 'latitude': -33.74298438}"
4 GINGANUP ROAD,SUMMERLAND POINT,2259,NSW,AUSTRALIA,"{'longitude': 151.56673287, 'latitude': -33.13849808}"
"UNIT 105, 20 LEONARD CRESCENT",ASCOT VALE,3032,VIC,AUSTRALIA,"{'longitude': 144.90673016, 'latitude': -37.78458082}"
29 BEN LEXCEN DRIVE,SUNRISE BEACH,4567,QLD,AUSTRALIA,"{'longitude': 153.1007529, 'latitude': -26.41313912}"
402 HIGH ROAD,RIVERTON,6148,WA,AUSTRALIA,"{'longitude': 115.9132807, 'latitude': -32.0379966}"
"UNIT 8, 16 DURACK STREET",MOOROOKA,4105,QLD,AUSTRALIA,"{'longitude': 153.01967045, 'latitude': -27.5297236}"
"UNIT 1006, 2 CHIPPENDALE WAY",CHIPPENDALE,2008,NSW,AUSTRALIA,"{'longitude': 151.20029217, 'latitude': -33.88461413}"
"UNIT 13, 10 MERRIVILLE ROAD",KELLYVILLE RIDGE,2155,NSW,AUSTRALIA,"{'longitude': 150.92732147, 'latitude': -33.69963287}"
11 SARAH STREET,GOOGONG,2620,NSW,AUSTRALIA,"{'longitude': 149.23117521, 'latitude': -35.41877271}"
4 BRUSSELS STREET,SOUTH GRANVILLE,2142,NSW,AUSTRALIA,"{'longitude': 151.01453699, 'latitude': -33.85247604}"
35 BARRACOOTA LOOP,LAKELANDS,6180,WA,AUSTRALIA,"{'longitude': 115.77770439, 'latitude': -32.47452482}"
110 BAGNALLS ROAD,COOROY,4563,QLD,AUSTRALIA,"{'longitude': 152.89342729, 'latitude': -26.42813874}"
1B ESPLANADE AVENUE,BRIGHTON,3186,VIC,AUSTRALIA,"{'longitude': 144.98973849, 'latitude': -37.92692757}"
20 JUNIPER COURT,THORNLIE,6108,WA,AUSTRALIA,"{'longitude': 115.9467107, 'latitude': -32.0699366}"
1 MANSON STREET,TELOPEA,2117,NSW,AUSTRALIA,"{'longitude': 151.040379, 'latitude': -33.79714344}"
"UNIT 5, 33 CAVILL STREET",FRESHWATER,2096,NSW,AUSTRALIA,"{'longitude': 151.28281966, 'latitude': -33.77926301}"
11 ENVALL WAY,LEEMING,6149,WA,AUSTRALIA,"{'longitude': 115.85085072, 'latitude': -32.07361661}"
"FLAT 3, 107 WEBB STREET",PIONEER,4825,QLD,AUSTRALIA,"{'longitude': 139.5034827, 'latitude': -20.72562101}"
9 FELGATE PLACE,WARWICK,6024,WA,AUSTRALIA,"{'longitude': 115.79887071, 'latitude': -31.84471661}"
70 MONTEREY KEYS DRIVE,HELENSVALE,4212,QLD,AUSTRALIA,"{'longitude': 153.33940207, 'latitude': -27.88496986}"
26 WINDWARD CIRCUIT,TEA GARDENS,2324,NSW,AUSTRALIA,"{'longitude': 152.15429778, 'latitude': -32.65513923}"
69 CORNWALL STREET,LATHLAIN,6100,WA,AUSTRALIA,"{'longitude': 115.9091307, 'latitude': -31.9638866}"
5 MIRITA PLACE,FORSTER,2428,NSW,AUSTRALIA,"{'longitude': 152.53620348, 'latitude': -32.19864217}"
33 HERMIONE WAY,COOLBELLUP,6163,WA,AUSTRALIA,"{'longitude': 115.80920072, 'latitude': -32.07584661}"
"UNIT 4, 2 DENMAN AVENUE",WILEY PARK,2195,NSW,AUSTRALIA,"{'longitude': 151.06874174, 'latitude': -33.9252396}"
12 NULLARBOR AVENUE,YANCHEP,6035,WA,AUSTRALIA,"{'longitude': 115.6461174, 'latitude': -31.55150642}"
13 SELHURST WAY,BALGA,6061,WA,AUSTRALIA,"{'longitude': 115.8388064, 'latitude': -31.85944605}"
458 MITTAGANG ROAD,COOMA,2630,NSW,AUSTRALIA,"{'longitude': 149.1212655, 'latitude': -36.19313695}"
"UNIT 213, 1 HOWARD STREET",WARNERS BAY,2282,NSW,AUSTRALIA,"{'longitude': 151.64548871, 'latitude': -32.97564899}"
93 JACARANDA ROAD,COOMEALLA,2717,NSW,AUSTRALIA,"{'longitude': 142.02554833, 'latitude': -34.08393742}"
4 HORTONIA AVENUE,SECRET HARBOUR,6173,WA,AUSTRALIA,"{'longitude': 115.76584075, 'latitude': -32.40903661}"
"UNIT 1, 1 CHAPPEL STREET",DIANELLA,6059,WA,AUSTRALIA,"{'longitude': 115.8815307, 'latitude': -31.90499661}"
"UNIT 847, 2 THE CRESCENT",WENTWORTH POINT,2127,NSW,AUSTRALIA,"{'longitude': 151.07540545, 'latitude': -33.83153335}"
88 FORESTVIEW WAY,WOONONA,2517,NSW,AUSTRALIA,"{'longitude': 150.89635046, 'latitude': -34.34903497}"
27 GATLEY CIRCUIT,EVANSTON SOUTH,5116,SA,AUSTRALIA,"{'longitude': 138.73046865, 'latitude': -34.63882558}"
8 DENDARYL DRIVE,BUNDOORA,3083,VIC,AUSTRALIA,"{'longitude': 145.07924893, 'latitude': -37.70128784}"
"SITE 30, 351 HAWTIN ROAD",FORRESTFIELD,6058,WA,AUSTRALIA,"{'longitude': 116.01872069, 'latitude': -31.9833766}"
3018 YASS RIVER ROAD,YASS RIVER,2582,NSW,AUSTRALIA,"{'longitude': 149.19537533, 'latitude': -34.95572118}"
"UNIT 4, 14 HENRY STREET",TIGHES HILL,2297,NSW,AUSTRALIA,"{'longitude': 151.74889824, 'latitude': -32.90639419}"
43 COWARRAL CIRCUIT,WAUCHOPE,2446,NSW,AUSTRALIA,"{'longitude': 152.73471772, 'latitude': -31.47722312}"
"UNIT 15, 39 REGENTVILLE ROAD",GLENMORE PARK,2745,NSW,AUSTRALIA,"{'longitude': 150.66205856, 'latitude': -33.77698675}"
"UNIT 220, 18 THROSBY STREET",WICKHAM,2293,NSW,AUSTRALIA,"{'longitude': 151.75879195, 'latitude': -32.92150944}"
17 INGARA AVENUE,MIRANDA,2228,NSW,AUSTRALIA,"{'longitude': 151.11096793, 'latitude': -34.02886493}"
15 PLAYFAIR STREET,TARRAGINDI,4121,QLD,AUSTRALIA,"{'longitude': 153.04057507, 'latitude': -27.53402339}"
56 HENDERSON DRIVE,SEVILLE GROVE,6112,WA,AUSTRALIA,"{'longitude': 115.9805894, 'latitude': -32.144412}"
"UNIT 4, 16 MARGARET STREET",WEST END,4810,QLD,AUSTRALIA,"{'longitude': 146.79722002, 'latitude': -19.26460037}"
302 GWYDIR HIGHWAY,WATERVIEW,2460,NSW,AUSTRALIA,"{'longitude': 152.91454479, 'latitude': -29.69526332}"
"UNIT 2, 71 GREENHILL ROAD",BAYSWATER NORTH,3153,VIC,AUSTRALIA,"{'longitude': 145.26527679, 'latitude': -37.8241635}"
17 CALDERA CLOSE,MINDARIE,6030,WA,AUSTRALIA,"{'longitude': 115.70020071, 'latitude': -31.67917661}"
4 PYRENEES COURT,CAVERSHAM,6055,WA,AUSTRALIA,"{'longitude': 115.96256068, 'latitude': -31.8628766}"
16 EMMANUEL TERRACE,GLENWOOD,2768,NSW,AUSTRALIA,"{'longitude': 150.94029171, 'latitude': -33.72711129}"
35 BLACKETT AVENUE,YOUNG,2594,NSW,AUSTRALIA,"{'longitude': 148.2997714, 'latitude': -34.30422369}"
"UNIT 10, 8 TOULON CIRCLE",MINDARIE,6030,WA,AUSTRALIA,"{'longitude': 115.70490071, 'latitude': -31.68899661}"
16 DAWSON ROAD,DUMBARTON,6566,WA,AUSTRALIA,"{'longitude': 116.50787858, 'latitude': -31.54522657}"
221-223 PANGUNA STREET,TRINITY BEACH,4879,QLD,AUSTRALIA,"{'longitude': 145.68251977, 'latitude': -16.79890715}"
25 COFFS BEND,SECRET HARBOUR,6173,WA,AUSTRALIA,"{'longitude': 115.76594975, 'latitude': -32.40530261}"
12 STARBOARD STREET,TRINITY BEACH,4879,QLD,AUSTRALIA,"{'longitude': 145.69512436, 'latitude': -16.80034425}"
108 GLENNIE STREET,WYOMING,2250,NSW,AUSTRALIA,"{'longitude': 151.35193909, 'latitude': -33.41316075}"
46 GRAGIN ROAD,WARIALDA,2402,NSW,AUSTRALIA,"{'longitude': 150.58511692, 'latitude': -29.54057611}"
7 WALKERS LANE,ST CLAIR,2759,NSW,AUSTRALIA,"{'longitude': 150.78531372, 'latitude': -33.8074887}"
70 THIRD AVENUE,KENDENUP,6323,WA,AUSTRALIA,"{'longitude': 117.62467666, 'latitude': -34.4868865}"
7 MURRAY STREET,GOL GOL,2738,NSW,AUSTRALIA,"{'longitude': 142.22718956, 'latitude': -34.18306428}"
9 DANGAR STREET,WALLSEND,2287,NSW,AUSTRALIA,"{'longitude': 151.67390423, 'latitude': -32.90324656}"
15 NORTHBROOK STREET,SINNAMON PARK,4073,QLD,AUSTRALIA,"{'longitude': 152.94627376, 'latitude': -27.54605404}"
40 BIGNELL DRIVE,WEST BUSSELTON,6280,WA,AUSTRALIA,"{'longitude': 115.31220912, 'latitude': -33.66103416}"
11 KING STREET,KENSINGTON,6151,WA,AUSTRALIA,"{'longitude': 115.87760071, 'latitude': -31.98399661}"
"UNIT 2010, 8C JUNCTION STREET",RYDE,2112,NSW,AUSTRALIA,"{'longitude': 151.09812318, 'latitude': -33.81886646}"
140A WALPOLE STREET,BENTLEY,6102,WA,AUSTRALIA,"{'longitude': 115.9032307, 'latitude': -32.0097466}"
36 ESPLANADE,ZILZIE,4710,QLD,AUSTRALIA,"{'longitude': 150.82336885, 'latitude': -23.27736392}"
26 TREETOP WAY,BALDIVIS,6171,WA,AUSTRALIA,"{'longitude': 115.7993526, 'latitude': -32.3250357}"
13A MONTAGUE WAY,COOLBELLUP,6163,WA,AUSTRALIA,"{'longitude': 115.81477626, 'latitude': -32.07964645}"
74 OLDFIELD ROAD,SINNAMON PARK,4073,QLD,AUSTRALIA,"{'longitude': 152.95087993, 'latitude': -27.54424016}"
62 BREMNER CIRCLE,CANNING VALE,6155,WA,AUSTRALIA,"{'longitude': 115.93009071, 'latitude': -32.0995466}"
114 BUNDANOON ROAD,WORONORA HEIGHTS,2233,NSW,AUSTRALIA,"{'longitude': 151.03080759, 'latitude': -34.03209112}"
53 MAIN STREET,MEEKATHARRA,6642,WA,AUSTRALIA,"{'longitude': 118.49697952, 'latitude': -26.59082521}"
"UNIT 1304, 3422 SURFERS PARADISE BOULEVARD",SURFERS PARADISE,4217,QLD,AUSTRALIA,"{'longitude': 153.42868667, 'latitude': -27.99165012}"
7 LIMBEE GLADE,HUNTINGDALE,6110,WA,AUSTRALIA,"{'longitude': 115.9646807, 'latitude': -32.0840966}"
4 MILLAR ROAD,NORTH BEACH,6020,WA,AUSTRALIA,"{'longitude': 115.75543071, 'latitude': -31.85681661}"
1 PETERS STREET,WARWICK,4370,QLD,AUSTRALIA,"{'longitude': 152.02452398, 'latitude': -28.20196217}"
"UNIT 2106, 9 FERNY AVENUE",SURFERS PARADISE,4217,QLD,AUSTRALIA,"{'longitude': 153.42736559, 'latitude': -28.00074746}"
13 LAVETER STREET,BROOMEHILL VILLAGE,6318,WA,AUSTRALIA,"{'longitude': 117.63962542, 'latitude': -33.8418293}"
155 MACAULAY ROAD,TANSEY,4601,QLD,AUSTRALIA,"{'longitude': 152.08957236, 'latitude': -26.0351241}"
25 IVANHOE STREET,VICTORY HEIGHTS,6432,WA,AUSTRALIA,"{'longitude': 121.4788203, 'latitude': -30.77732597}"
"UNIT 10, 15 GEORGE STREET",LIVERPOOL,2170,NSW,AUSTRALIA,"{'longitude': 150.92562722, 'latitude': -33.916994}"
57 LANCELOT STREET,CONDELL PARK,2200,NSW,AUSTRALIA,"{'longitude': 151.01373748, 'latitude': -33.92205233}"
4 CASCADES STREET,SPRINGFIELD LAKES,4300,QLD,AUSTRALIA,"{'longitude': 152.92216776, 'latitude': -27.67509255}"
"UNIT 713, 3-11 ORARA STREET",WAITARA,2077,NSW,AUSTRALIA,"{'longitude': 151.10396628, 'latitude': -33.70884204}"
35 KUMARINA DRIVE,SECRET HARBOUR,6173,WA,AUSTRALIA,"{'longitude': 115.76735575, 'latitude': -32.39979461}"
525 THE BOULEVARD,IVANHOE EAST,3079,VIC,AUSTRALIA,"{'longitude': 145.06874492, 'latitude': -37.76900384}"
14 BARAMBAH ROAD,ROSEVILLE,2069,NSW,AUSTRALIA,"{'longitude': 151.19380426, 'latitude': -33.78599263}"
2 SUMMIT DRIVE,BANORA POINT,2486,NSW,AUSTRALIA,"{'longitude': 153.5513645, 'latitude': -28.22384381}"
352 LUSKINTYRE ROAD,LUSKINTYRE,2321,NSW,AUSTRALIA,"{'longitude': 151.43130977, 'latitude': -32.67534661}"
46B CLYDE AVENUE,MOOREBANK,2170,NSW,AUSTRALIA,"{'longitude': 150.95342865, 'latitude': -33.94224078}"
18A RAINE ROAD,PADSTOW,2211,NSW,AUSTRALIA,"{'longitude': 151.02433652, 'latitude': -33.9491717}"
41 VALLEY ROAD,WENTWORTH FALLS,2782,NSW,AUSTRALIA,"{'longitude': 150.36356146, 'latitude': -33.71293826}"
18 FARRIN STREET,ATTADALE,6156,WA,AUSTRALIA,"{'longitude': 115.80712072, 'latitude': -32.02340661}"
3 RAMSAY CLOSE,NARELLAN VALE,2567,NSW,AUSTRALIA,"{'longitude': 150.75365768, 'latitude': -34.04391912}"
16 SCHOFIELD STREET,EDEN HILL,6054,WA,AUSTRALIA,"{'longitude': 115.95344069, 'latitude': -31.8912266}"
7 RAE PLACE,WOOLLOOMOOLOO,2011,NSW,AUSTRALIA,"{'longitude': 151.22162117, 'latitude': -33.8727624}"
"UNIT 6, 36 HAWTHORNE PARADE",HABERFIELD,2045,NSW,AUSTRALIA,"{'longitude': 151.14313015, 'latitude': -33.88771986}"
"UNIT 16, 16 MAXIM STREET",WEST RYDE,2114,NSW,AUSTRALIA,"{'longitude': 151.08923861, 'latitude': -33.80977377}"
"UNIT 305, 231 MILLER STREET",NORTH SYDNEY,2060,NSW,AUSTRALIA,"{'longitude': 151.20791938, 'latitude': -33.835266}"
28 VIVEASH ROAD,MIDDLE SWAN,6056,WA,AUSTRALIA,"{'longitude': 116.01500068, 'latitude': -31.8701266}"
745 VICTORIA ROAD,RYDE,2112,NSW,AUSTRALIA,"{'longitude': 151.10362942, 'latitude': -33.81544713}"
39 PARKLAND AVENUE,MACQUARIE FIELDS,2564,NSW,AUSTRALIA,"{'longitude': 150.88530514, 'latitude': -33.98670069}"
9 SOLEY PLACE,FERNDALE,6148,WA,AUSTRALIA,"{'longitude': 115.9331507, 'latitude': -32.0282866}"
38 WILLIS STREET,ROOTY HILL,2766,NSW,AUSTRALIA,"{'longitude': 150.84367067, 'latitude': -33.77709898}"
89 EBSWORTH STREET,WEST TAMWORTH,2340,NSW,AUSTRALIA,"{'longitude': 150.92334503, 'latitude': -31.09438401}"
53 LEXINGTON PARADE,ADAMSTOWN HEIGHTS,2289,NSW,AUSTRALIA,"{'longitude': 151.708144, 'latitude': -32.94728384}"
47 KING STREET,WARNERS BAY,2282,NSW,AUSTRALIA,"{'longitude': 151.64833136, 'latitude': -32.97328543}"
"UNIT 25, 87 CLARKE STREET",SOUTH BUNBURY,6230,WA,AUSTRALIA,"{'longitude': 115.63877381, 'latitude': -33.34571557}"
28 GRANTHAM ROAD,SEVEN HILLS,2147,NSW,AUSTRALIA,"{'longitude': 150.93367031, 'latitude': -33.78023752}"
13 HARMONY WAY,KEWDALE,6105,WA,AUSTRALIA,"{'longitude': 115.93072498, 'latitude': -31.97870258}"
"UNIT 2, 7 CITY VIEW DRIVE",EAST LISMORE,2480,NSW,AUSTRALIA,"{'longitude': 153.2853739, 'latitude': -28.82865044}"
14 FREW AVENUE,HELENSBURGH,2508,NSW,AUSTRALIA,"{'longitude': 150.97421863, 'latitude': -34.20270919}"
227 IMLAY STREET,EDEN,2551,NSW,AUSTRALIA,"{'longitude': 149.90760584, 'latitude': -37.06812118}"
101 BELMORE ROAD,BURRANGONG,2594,NSW,AUSTRALIA,"{'longitude': 148.25232045, 'latitude': -34.29829682}"
"UNIT 8, 24 MOUNT STREET",COOGEE,2034,NSW,AUSTRALIA,"{'longitude': 151.25253701, 'latitude': -33.91416495}"
8 CROCKETT STREET,DAYLESFORD,3460,VIC,AUSTRALIA,"{'longitude': 144.14973097, 'latitude': -37.33667914}"
453 WATER STREET,HAY,2711,NSW,AUSTRALIA,"{'longitude': 144.83749117, 'latitude': -34.51044526}"
259 SKIMMINGS GAP ROAD,MAIN CREEK,2420,NSW,AUSTRALIA,"{'longitude': 151.78315294, 'latitude': -32.28181046}"
1286 BARHAM ROAD,DENILIQUIN,2710,NSW,AUSTRALIA,"{'longitude': 144.81957696, 'latitude': -35.56941218}"
243 CAMBERWARRA DRIVE,CRAIGIE,6025,WA,AUSTRALIA,"{'longitude': 115.75932071, 'latitude': -31.78424661}"
30A DERBYSHIRE AVENUE,TOONGABBIE,2146,NSW,AUSTRALIA,"{'longitude': 150.95729163, 'latitude': -33.79164674}"
"UNIT 33, 3A MOOLANDA BOULEVARD",KINGSLEY,6026,WA,AUSTRALIA,"{'longitude': 115.80451382, 'latitude': -31.82012627}"
7 RHATIGAN PLACE,CABLE BEACH,6726,WA,AUSTRALIA,"{'longitude': 122.21590929, 'latitude': -17.95432626}"
2785 NEWDEGATE-RAVENSTHORPE ROAD,EAST NEWDEGATE,6355,WA,AUSTRALIA,"{'longitude': 119.30324345, 'latitude': -33.07832397}"
9 EILISH COURT,MOUNT HELEN,3350,VIC,AUSTRALIA,"{'longitude': 143.8779034, 'latitude': -37.62528837}"
384 HIGH STREET,WINDSOR,3181,VIC,AUSTRALIA,"{'longitude': 145.00103093, 'latitude': -37.85305384}"
60 HUDSON ROAD,WITHERS,6230,WA,AUSTRALIA,"{'longitude': 115.63606085, 'latitude': -33.36460663}"
73 POINT SAMSON-ROEBOURNE ROAD,ROEBOURNE,6718,WA,AUSTRALIA,"{'longitude': 117.14217982, 'latitude': -20.75092648}"
16 COBAKI BRACE,LAKELANDS,6180,WA,AUSTRALIA,"{'longitude': 115.7586426, 'latitude': -32.47548052}"
30 MANYARRA TURN,JOONDALUP,6027,WA,AUSTRALIA,"{'longitude': 115.7517507, 'latitude': -31.72536661}"
"UNIT 325, 44 ARMBRUSTER AVENUE",NORTH KELLYVILLE,2155,NSW,AUSTRALIA,"{'longitude': 150.95214796, 'latitude': -33.68686549}"
"UNIT 1, 217-219 QUEEN STREET",CONCORD WEST,2138,NSW,AUSTRALIA,"{'longitude': 151.0866354, 'latitude': -33.85053351}"
5 SEDGEMOOR HILL,LEDA,6170,WA,AUSTRALIA,"{'longitude': 115.803397, 'latitude': -32.26654397}"
21 CORAL STREET,ALSTONVILLE,2477,NSW,AUSTRALIA,"{'longitude': 153.43587395, 'latitude': -28.84176469}"
11 BUSBY ROAD,BUSBY,2168,NSW,AUSTRALIA,"{'longitude': 150.87941559, 'latitude': -33.91177341}"
66 CUMBERLAND STREET,SUNSHINE NORTH,3020,VIC,AUSTRALIA,"{'longitude': 144.84413796, 'latitude': -37.77146283}"
"UNIT 3, 113 EAST ROAD",SEAFORD,3198,VIC,AUSTRALIA,"{'longitude': 145.15138716, 'latitude': -38.10516915}"
48 STANFORD CLOSE,FAWKNER,3060,VIC,AUSTRALIA,"{'longitude': 144.96289095, 'latitude': -37.69578384}"
25 PERRY STREET,MARRICKVILLE,2204,NSW,AUSTRALIA,"{'longitude': 151.16625491, 'latitude': -33.90162385}"
84B COMEL AVENUE,CAMERON PARK,2285,NSW,AUSTRALIA,"{'longitude': 151.605961, 'latitude': -32.91318665}"
24 OSGOOD AVENUE,MARRICKVILLE,2204,NSW,AUSTRALIA,"{'longitude': 151.14299284, 'latitude': -33.91383823}"
"UNIT 4, 43 ALLIANCE STREET",EAST MAITLAND,2323,NSW,AUSTRALIA,"{'longitude': 151.59523763, 'latitude': -32.75507226}"
6 DOUGLAS STREET,GUNNEDAH,2380,NSW,AUSTRALIA,"{'longitude': 150.24026941, 'latitude': -30.98868653}"
28 ROSEMONT AVENUE,EMU PLAINS,2750,NSW,AUSTRALIA,"{'longitude': 150.66693161, 'latitude': -33.7513284}"
"UNIT 7, 41 ALBERT PARADE",ASHFIELD,2131,NSW,AUSTRALIA,"{'longitude': 151.12274939, 'latitude': -33.8821622}"
456 MOWBRAY ROAD WEST,LANE COVE NORTH,2066,NSW,AUSTRALIA,"{'longitude': 151.16996846, 'latitude': -33.80769223}"
28 MAGDALA AVENUE,STRATHMORE,3041,VIC,AUSTRALIA,"{'longitude': 144.91296595, 'latitude': -37.73907683}"
31 ANNE ROAD,KNOXFIELD,3180,VIC,AUSTRALIA,"{'longitude': 145.25215826, 'latitude': -37.88889024}"
16 GLENDALE ROAD,SPRINGVALE,3171,VIC,AUSTRALIA,"{'longitude': 145.15041934, 'latitude': -37.93808192}"
895 AERODROME LANE,HAREFIELD,2650,NSW,AUSTRALIA,"{'longitude': 147.51712527, 'latitude': -34.94139766}"
18 HANNAH STREET,SEAFORD,3198,VIC,AUSTRALIA,"{'longitude': 145.13570987, 'latitude': -38.12483385}"
"UNIT 3, 11 PERIWINKLE PLACE",BALLINA,2478,NSW,AUSTRALIA,"{'longitude': 153.55879652, 'latitude': -28.84829727}"
1026 EADEVALE ROAD,EUCHAREENA,2866,NSW,AUSTRALIA,"{'longitude': 148.98349022, 'latitude': -32.86425022}"
1 COCHRANE AVENUE,CANTON BEACH,2263,NSW,AUSTRALIA,"{'longitude': 151.54736382, 'latitude': -33.27115303}"
81 ALFRED STREET,KEW,3101,VIC,AUSTRALIA,"{'longitude': 145.05496865, 'latitude': -37.81082518}"
25 DEVINE STREET,ERSKINEVILLE,2043,NSW,AUSTRALIA,"{'longitude': 151.18195825, 'latitude': -33.90515536}"
29 WHARF ROAD,KOGARAH BAY,2217,NSW,AUSTRALIA,"{'longitude': 151.12282441, 'latitude': -33.98681273}"
2C IRONBARK ROAD,MUSWELLBROOK,2333,NSW,AUSTRALIA,"{'longitude': 150.8906045, 'latitude': -32.28226861}"
4 PACIFIC STREET,KINGSCLIFF,2487,NSW,AUSTRALIA,"{'longitude': 153.568716, 'latitude': -28.24802175}"
493 MACKEYS CREEK ROAD,EUGOWRA,2806,NSW,AUSTRALIA,"{'longitude': 148.39602276, 'latitude': -33.34802146}"
39 MURRAY STREET,TRAFALGAR,3824,VIC,AUSTRALIA,"{'longitude': 146.16066868, 'latitude': -38.21171236}"
10 MERINDA AVENUE,CHARMHAVEN,2263,NSW,AUSTRALIA,"{'longitude': 151.50509268, 'latitude': -33.23860299}"
"UNIT 2, 49 PARK AVENUE",CREMORNE,2090,NSW,AUSTRALIA,"{'longitude': 151.21778951, 'latitude': -33.82727723}"
"UNIT 1, 10A TUCKWELL PLACE",MACQUARIE PARK,2113,NSW,AUSTRALIA,"{'longitude': 151.13379154, 'latitude': -33.77720129}"
"UNIT 167, 1-3 BERESFORD ROAD",HOMEBUSH,2140,NSW,AUSTRALIA,"{'longitude': 151.08972811, 'latitude': -33.86910186}"
4 KYWONG ROAD,BEROWRA,2081,NSW,AUSTRALIA,"{'longitude': 151.13861334, 'latitude': -33.63039037}"
3 ALLENBY PLACE,GLADSTONE PARK,3043,VIC,AUSTRALIA,"{'longitude': 144.89770196, 'latitude': -37.69257483}"
85 NUTTALLS ROAD,YINNAR,3869,VIC,AUSTRALIA,"{'longitude': 146.31037095, 'latitude': -38.34554835}"
46 CARINDA DRIVE,GLENHAVEN,2156,NSW,AUSTRALIA,"{'longitude': 150.99066235, 'latitude': -33.70148105}"
12 HAWTHORN GROVE,MCKINNON,3204,VIC,AUSTRALIA,"{'longitude': 145.03741491, 'latitude': -37.90861184}"
9 CLEMENT STREET,GUILDFORD,2161,NSW,AUSTRALIA,"{'longitude': 150.97802735, 'latitude': -33.85770196}"
18 THIRD AVENUE,TOUKLEY,2263,NSW,AUSTRALIA,"{'longitude': 151.54647156, 'latitude': -33.25854315}"
8 CAXTON STREET WEST,BOGGABRI,2382,NSW,AUSTRALIA,"{'longitude': 150.03740744, 'latitude': -30.70681538}"
40 HOGAN STREET,DEER PARK,3023,VIC,AUSTRALIA,"{'longitude': 144.76593898, 'latitude': -37.76943482}"
41 OLIVER STREET,GRAFTON,2460,NSW,AUSTRALIA,"{'longitude': 152.94400951, 'latitude': -29.69101293}"
1087 KIDMAN WAY,COBAR,2835,NSW,AUSTRALIA,"{'longitude': 145.94275447, 'latitude': -31.47627645}"
"UNIT 154, 192 PIGGABEEN ROAD",TWEED HEADS WEST,2485,NSW,AUSTRALIA,"{'longitude': 153.49231163, 'latitude': -28.18795903}"
"UNIT 3, 1 WAINE STREET",FRESHWATER,2096,NSW,AUSTRALIA,"{'longitude': 151.2782512, 'latitude': -33.77966608}"
"UNIT 1, 915 HEATHERTON ROAD",SPRINGVALE,3171,VIC,AUSTRALIA,"{'longitude': 145.15381496, 'latitude': -37.96243122}"
4 JACKSON PLACE,HOPPERS CROSSING,3029,VIC,AUSTRALIA,"{'longitude': 144.68069098, 'latitude': -37.86317182}"
35 KIPPAX AVENUE,LEUMEAH,2560,NSW,AUSTRALIA,"{'longitude': 150.84103928, 'latitude': -34.04826626}"
10 SCRIVEN STREET,LEUMEAH,2560,NSW,AUSTRALIA,"{'longitude': 150.83073372, 'latitude': -34.05661568}"
3A GEMBROOK ROAD,GEMBROOK,3783,VIC,AUSTRALIA,"{'longitude': 145.55298687, 'latitude': -37.95394053}"
34 HEATH AVENUE,FERNTREE GULLY,3156,VIC,AUSTRALIA,"{'longitude': 145.30639687, 'latitude': -37.87036186}"
42 LIGAR STREET,SUNBURY,3429,VIC,AUSTRALIA,"{'longitude': 144.72292936, 'latitude': -37.57850004}"
"APARTMENT 204, 5 HANKE ROAD",DONCASTER,3108,VIC,AUSTRALIA,"{'longitude': 145.12333072, 'latitude': -37.79102317}"
24 GOODWOOD DRIVE,SPRINGVALE,3171,VIC,AUSTRALIA,"{'longitude': 145.15543901, 'latitude': -37.96148861}"
9 GOBUR COURT,MEADOW HEIGHTS,3048,VIC,AUSTRALIA,"{'longitude': 144.91121996, 'latitude': -37.65940783}"
34 DALTON AVENUE,CONDELL PARK,2200,NSW,AUSTRALIA,"{'longitude': 151.00712106, 'latitude': -33.91938833}"
10 DAVEY AVENUE,GRAFTON,2460,NSW,AUSTRALIA,"{'longitude': 152.93774796, 'latitude': -29.67187218}"
"UNIT 1, 19 QUEEN STREET",HASTINGS,3915,VIC,AUSTRALIA,"{'longitude': 145.18835629, 'latitude': -38.30669824}"
"UNIT 1, 27 NOCKOLDS CRESCENT",NOBLE PARK,3174,VIC,AUSTRALIA,"{'longitude': 145.17358218, 'latitude': -37.95343042}"
52 HEATHCOTE-NAGAMBIE ROAD,HEATHCOTE,3523,VIC,AUSTRALIA,"{'longitude': 144.73572022, 'latitude': -36.94305693}"
"UNIT 2802, 117 BATHURST STREET",SYDNEY,2000,NSW,AUSTRALIA,"{'longitude': 151.20761099, 'latitude': -33.87469314}"
17 GREENE AVENUE,RYDE,2112,NSW,AUSTRALIA,"{'longitude': 151.11324693, 'latitude': -33.80959208}"
9 CECIL STREET,GORDON,2072,NSW,AUSTRALIA,"{'longitude': 151.15350403, 'latitude': -33.7608461}"
3 BELEURA AVENUE,VERMONT,3133,VIC,AUSTRALIA,"{'longitude': 145.20356789, 'latitude': -37.84275685}"
21A PEARSON STREET,LAMBTON,2299,NSW,AUSTRALIA,"{'longitude': 151.70721822, 'latitude': -32.91303743}"
11 THE BASIN ROAD,ST GEORGES BASIN,2540,NSW,AUSTRALIA,"{'longitude': 150.59017668, 'latitude': -35.08855223}"
11 EARL STREET,OBERON,2787,NSW,AUSTRALIA,"{'longitude': 149.86585131, 'latitude': -33.70457628}"
10 BOYLAND ROAD,EDMONDSON PARK,2174,NSW,AUSTRALIA,"{'longitude': 150.85412037, 'latitude': -33.95483675}"
"UNIT 5, 5 BONDS ROAD",RIVERWOOD,2210,NSW,AUSTRALIA,"{'longitude': 151.0593524, 'latitude': -33.95089757}"
14 MICA COURT,KINGS PARK,3021,VIC,AUSTRALIA,"{'longitude': 144.77197498, 'latitude': -37.73020382}"
350 DAGWORTH ROAD,LOUTH PARK,2320,NSW,AUSTRALIA,"{'longitude': 151.54898922, 'latitude': -32.77456853}"
1 ALLENDALE STREET,BROKEN HILL,2880,NSW,AUSTRALIA,"{'longitude': 141.43321096, 'latitude': -31.95689922}"
27 THOMAS STREET,MITCHAM,3132,VIC,AUSTRALIA,"{'longitude': 145.2007009, 'latitude': -37.81435185}"
15 RENWICK STREET,GLEN IRIS,3146,VIC,AUSTRALIA,"{'longitude': 145.0732535, 'latitude': -37.85200482}"
"UNIT 8, 119 ST GEORGES CRESCENT",DRUMMOYNE,2047,NSW,AUSTRALIA,"{'longitude': 151.15487868, 'latitude': -33.84784213}"
128 LIVERPOOL ROAD,KILSYTH,3137,VIC,AUSTRALIA,"{'longitude': 145.31589788, 'latitude': -37.81401886}"
4 NORMA STREET,MELTON,3337,VIC,AUSTRALIA,"{'longitude': 144.57157302, 'latitude': -37.68494481}"
48 ALMA ROAD,MAROUBRA,2035,NSW,AUSTRALIA,"{'longitude': 151.24310704, 'latitude': -33.9396113}"
"UNIT 5, 16 MCTAVISH BOULEVARD",HORSHAM,3400,VIC,AUSTRALIA,"{'longitude': 142.19994262, 'latitude': -36.72653009}"
17 BINGARA ROAD,MACQUARIE FIELDS,2564,NSW,AUSTRALIA,"{'longitude': 150.8792342, 'latitude': -33.99121921}"
"UNIT 4, 62 MYALL ROAD",CASULA,2170,NSW,AUSTRALIA,"{'longitude': 150.891971, 'latitude': -33.95316692}"
5 EVAN PLACE,INVERLOCH,3996,VIC,AUSTRALIA,"{'longitude': 145.7423148, 'latitude': -38.63253214}"
5 NORLAND COURT,MILL PARK,3082,VIC,AUSTRALIA,"{'longitude': 145.07723193, 'latitude': -37.65989184}"
"UNIT 17, 69 ALLEN STREET",LEICHHARDT,2040,NSW,AUSTRALIA,"{'longitude': 151.15425314, 'latitude': -33.87997853}"
25 CAMPBELL STREET,BALMAIN,2041,NSW,AUSTRALIA,"{'longitude': 151.18554247, 'latitude': -33.85664924}"
5 DANAE STREET,GLENROY,3046,VIC,AUSTRALIA,"{'longitude': 144.92871495, 'latitude': -37.70002683}"
"UNIT 2, 1-3 LONDON STREET",ENMORE,2042,NSW,AUSTRALIA,"{'longitude': 151.17217598, 'latitude': -33.89841595}"
20A ARNOLD DRIVE,SCORESBY,3179,VIC,AUSTRALIA,"{'longitude': 145.23412127, 'latitude': -37.8903769}"
62 CHANCELLOR DRIVE,WHEELERS HILL,3150,VIC,AUSTRALIA,"{'longitude': 145.18045713, 'latitude': -37.91882311}"
2 LILIAN STREET,GLENDALE,2285,NSW,AUSTRALIA,"{'longitude': 151.64914071, 'latitude': -32.92793221}"
190 MACQUARIE ROAD,SPRINGWOOD,2777,NSW,AUSTRALIA,"{'longitude': 150.56505715, 'latitude': -33.69904125}"
6 PRATO COURT,GLENWOOD,2768,NSW,AUSTRALIA,"{'longitude': 150.94423886, 'latitude': -33.74506871}"
9 FARRELL PLACE,FAIRFIELD WEST,2165,NSW,AUSTRALIA,"{'longitude': 150.91259975, 'latitude': -33.86476842}"
38 LITTLECROFT AVENUE,NARRE WARREN SOUTH,3805,VIC,AUSTRALIA,"{'longitude': 145.30449485, 'latitude': -38.06471086}"
2 RIVER TERRACE,MULLUMBIMBY,2482,NSW,AUSTRALIA,"{'longitude': 153.4987104, 'latitude': -28.55335275}"
5 ALLENBY COURT,MOUNT CLEAR,3350,VIC,AUSTRALIA,"{'longitude': 143.86412732, 'latitude': -37.59822417}"
"FLAT 2, 11 TOWARD STREET",MURRUMBEENA,3163,VIC,AUSTRALIA,"{'longitude': 145.06952391, 'latitude': -37.89250685}"
79 MARTIN STREET,TENTERFIELD,2372,NSW,AUSTRALIA,"{'longitude': 152.0240851, 'latitude': -29.05040711}"
10A POLO STREET,REVESBY,2212,NSW,AUSTRALIA,"{'longitude': 151.01218416, 'latitude': -33.95028437}"
"UNIT 24, 19A YOUNG STREET",NEUTRAL BAY,2089,NSW,AUSTRALIA,"{'longitude': 151.22189173, 'latitude': -33.83020919}"
"UNIT 8, 526 MOWBRAY ROAD WEST",LANE COVE NORTH,2066,NSW,AUSTRALIA,"{'longitude': 151.16414534, 'latitude': -33.8062338}"
3 FAIRFAX STREET,OBERON,2787,NSW,AUSTRALIA,"{'longitude': 149.87084431, 'latitude': -33.70679649}"
7 CHENIN MEWS,WAURN PONDS,3216,VIC,AUSTRALIA,"{'longitude': 144.31125786, 'latitude': -38.2050806}"
27 BAYVIEW STREET,TENNYSON POINT,2111,NSW,AUSTRALIA,"{'longitude': 151.11517237, 'latitude': -33.82893787}"
"UNIT 2, 14 BECKHAM STREET",SHEPPARTON,3630,VIC,AUSTRALIA,"{'longitude': 145.39040953, 'latitude': -36.39587946}"
54 HOLDEN STREET,ASHFIELD,2131,NSW,AUSTRALIA,"{'longitude': 151.12563631, 'latitude': -33.8923497}"
89 HARCOURT STREET,HAWTHORN EAST,3123,VIC,AUSTRALIA,"{'longitude': 145.05863292, 'latitude': -37.81917884}"
12 CATHERINE STREET,LEICHHARDT,2040,NSW,AUSTRALIA,"{'longitude': 151.16125554, 'latitude': -33.88707267}"
8 EDGERTON COURT,HAMPTON PARK,3976,VIC,AUSTRALIA,"{'longitude': 145.26312686, 'latitude': -38.02215086}"
5 PENGUIN PLACE,TREGEAR,2770,NSW,AUSTRALIA,"{'longitude': 150.78698858, 'latitude': -33.74164677}"
13 MERIDIAN COURT,LANGWARRIN,3910,VIC,AUSTRALIA,"{'longitude': 145.19493186, 'latitude': -38.14319586}"
77 GUM NUT DRIVE,LANGWARRIN,3910,VIC,AUSTRALIA,"{'longitude': 145.20055186, 'latitude': -38.13783086}"
54 HALLETT CRESCENT,WANGARATTA,3677,VIC,AUSTRALIA,"{'longitude': 146.31886113, 'latitude': -36.37675164}"
12 FINDON COURT,POINT COOK,3030,VIC,AUSTRALIA,"{'longitude': 144.74090903, 'latitude': -37.88127822}"
"UNIT 1, 330 ROBERTS ROAD",GREENACRE,2190,NSW,AUSTRALIA,"{'longitude': 151.06232554, 'latitude': -33.91546554}"
33 WYNYARD STREET,GUILDFORD,2161,NSW,AUSTRALIA,"{'longitude': 150.99719163, 'latitude': -33.85345956}"
1 EIRENE STREET,YARRAVILLE,3013,VIC,AUSTRALIA,"{'longitude': 144.88051695, 'latitude': -37.81831483}"
5 BUFFALO DRIVE,LALOR,3075,VIC,AUSTRALIA,"{'longitude': 145.00201695, 'latitude': -37.66925484}"
540 CHAPPLE STREET,BROKEN HILL,2880,NSW,AUSTRALIA,"{'longitude': 141.46772093, 'latitude': -31.94545026}"
9 FRANCISCO CRESCENT,ROSEMEADOW,2560,NSW,AUSTRALIA,"{'longitude': 150.79602765, 'latitude': -34.11295635}"
27 ANDERTON STREET,ISLINGTON,2296,NSW,AUSTRALIA,"{'longitude': 151.74798825, 'latitude': -32.91595718}"
3 JAMES COOK DRIVE,DIAMOND CREEK,3089,VIC,AUSTRALIA,"{'longitude': 145.15691192, 'latitude': -37.67972685}"
5 ALBION COURT,HOPPERS CROSSING,3029,VIC,AUSTRALIA,"{'longitude': 144.70840598, 'latitude': -37.85110282}"
55 FLAVELLE STREET,CONCORD,2137,NSW,AUSTRALIA,"{'longitude': 151.09818644, 'latitude': -33.85384576}"
"UNIT 6, 9-13 PERCY STREET",MITCHAM,3132,VIC,AUSTRALIA,"{'longitude': 145.1955928, 'latitude': -37.818607}"
"UNIT 2, 6 ACHILLES STREET",NELSON BAY,2315,NSW,AUSTRALIA,"{'longitude': 152.16420834, 'latitude': -32.71726931}"
82A STATION STREET,FAIRFIELD HEIGHTS,2165,NSW,AUSTRALIA,"{'longitude': 150.94520055, 'latitude': -33.86579664}"
14 OLEARIA CRESCENT,LANGWARRIN,3910,VIC,AUSTRALIA,"{'longitude': 145.20521486, 'latitude': -38.14635486}"
8 HOPETOUN STREET,DUBBO,2830,NSW,AUSTRALIA,"{'longitude': 148.61446192, 'latitude': -32.25392358}"
1 HUME PLACE,FRENCHS FOREST,2086,NSW,AUSTRALIA,"{'longitude': 151.22182123, 'latitude': -33.74175253}"
113 SEVENTEENTH AVENUE,AUSTRAL,2179,NSW,AUSTRALIA,"{'longitude': 150.81846669, 'latitude': -33.91321192}"
42 ORANA ROAD,OCEAN SHORES,2483,NSW,AUSTRALIA,"{'longitude': 153.53426065, 'latitude': -28.51784785}"
"UNIT 49, 52 ROBERTSON ROAD",BASS HILL,2197,NSW,AUSTRALIA,"{'longitude': 151.00178251, 'latitude': -33.89643946}"
"UNIT 10, 15 JACOBS STREET",BANKSTOWN,2200,NSW,AUSTRALIA,"{'longitude': 151.03755817, 'latitude': -33.91317547}"
4 PICNIC STREET,THE PONDS,2769,NSW,AUSTRALIA,"{'longitude': 150.91024899, 'latitude': -33.70989575}"
10 TAVISTOCK ROAD,SOUTH HURSTVILLE,2221,NSW,AUSTRALIA,"{'longitude': 151.10947802, 'latitude': -33.97862109}"
96 GILBERT ROAD,GLENHAVEN,2156,NSW,AUSTRALIA,"{'longitude': 151.00520353, 'latitude': -33.71420824}"
200 BARGO RIVER ROAD,TAHMOOR,2573,NSW,AUSTRALIA,"{'longitude': 150.56298478, 'latitude': -34.23384756}"
30 SOMERSET STREET,EPPING,2121,NSW,AUSTRALIA,"{'longitude': 151.08965536, 'latitude': -33.76504199}"
"UNIT 60, 22-24 WASSELL STREET",MATRAVILLE,2036,NSW,AUSTRALIA,"{'longitude': 151.23616807, 'latitude': -33.96600687}"
23 SEASPRAY STREET,NARRAWALLEE,2539,NSW,AUSTRALIA,"{'longitude': 150.46334581, 'latitude': -35.31548066}"
"UNIT 3, 29-31 SHERBROOK ROAD",HORNSBY,2077,NSW,AUSTRALIA,"{'longitude': 151.10612144, 'latitude': -33.70242711}"
26 MACASSAR STREET,COWRA,2794,NSW,AUSTRALIA,"{'longitude': 148.68895415, 'latitude': -33.82620489}"
44 PERCIVAL STREET,BEXLEY,2207,NSW,AUSTRALIA,"{'longitude': 151.12358823, 'latitude': -33.96260317}"
26 KEELER STREET,CARLINGFORD,2118,NSW,AUSTRALIA,"{'longitude': 151.05763482, 'latitude': -33.77728477}"
11 ROMANO CLOSE,EDENSOR PARK,2176,NSW,AUSTRALIA,"{'longitude': 150.8815118, 'latitude': -33.8763722}"
141 NORTH WEST ARM ROAD,GRAYS POINT,2232,NSW,AUSTRALIA,"{'longitude': 151.07528701, 'latitude': -34.04892673}"
23 STURGEON STREET,CONDER,2906,ACT,AUSTRALIA,"{'longitude': 149.09546673, 'latitude': -35.46270855}"
26 FIVEASH STREET,CHISHOLM,2905,ACT,AUSTRALIA,"{'longitude': 149.12175296, 'latitude': -35.42352212}"
7 EMMOTT PLACE,CHARNWOOD,2615,ACT,AUSTRALIA,"{'longitude': 149.03283528, 'latitude': -35.20091123}"
1 JERSEY STREET,DEAKIN,2600,ACT,AUSTRALIA,"{'longitude': 149.09908645, 'latitude': -35.31512727}"
3 BALLARAT STREET,FISHER,2611,ACT,AUSTRALIA,"{'longitude': 149.05729422, 'latitude': -35.36294902}"
"UNIT 202, 1 KEVIN TAYLOR LANE",BOWDEN,5007,SA,AUSTRALIA,"{'longitude': 138.57940056, 'latitude': -34.90489926}"
7 BAMFORD STREET,HUGHES,2605,ACT,AUSTRALIA,"{'longitude': 149.09799816, 'latitude': -35.33685399}"
5 LOMOND AVENUE,SEACOMBE HEIGHTS,5047,SA,AUSTRALIA,"{'longitude': 138.5451924, 'latitude': -35.03236339}"
12 CENTENARY AVENUE,BALAKLAVA,5461,SA,AUSTRALIA,"{'longitude': 138.42379819, 'latitude': -34.15010339}"
9 HOOTON STREET,FORDE,2914,ACT,AUSTRALIA,"{'longitude': 149.14907419, 'latitude': -35.16213975}"
39 MAIN STREET,WELSHPOOL,3966,VIC,AUSTRALIA,"{'longitude': 146.43901708, 'latitude': -38.6649842}"
"UNIT 3, 49 WILLIAMS AVENUE",ST MORRIS,5068,SA,AUSTRALIA,"{'longitude': 138.65607424, 'latitude': -34.90870861}"
30 GEORGE STREET,PAYNEHAM,5070,SA,AUSTRALIA,"{'longitude': 138.64138612, 'latitude': -34.89909947}"
19 JEFFERIS STREET,TORRENS,2607,ACT,AUSTRALIA,"{'longitude': 149.08635974, 'latitude': -35.36812084}"
14 EUGENIA STREET,RIVETT,2611,ACT,AUSTRALIA,"{'longitude': 149.03029401, 'latitude': -35.34518653}"
12 LINGER PLACE,MELBA,2615,ACT,AUSTRALIA,"{'longitude': 149.05721949, 'latitude': -35.20706229}"
169 BEASLEY STREET,TORRENS,2607,ACT,AUSTRALIA,"{'longitude': 149.09209948, 'latitude': -35.3717537}"
26 POKANA CIRCUIT,KALEEN,2617,ACT,AUSTRALIA,"{'longitude': 149.09591391, 'latitude': -35.23004481}"
98 LANGMEIL ROAD,TANUNDA,5352,SA,AUSTRALIA,"{'longitude': 138.96244528, 'latitude': -34.50840128}"
21 WINGATE STREET,GUNN,0832,NT,AUSTRALIA,"{'longitude': 130.99597349, 'latitude': -12.49103683}"
"UNIT 3, 5 ARTHUR CIRCLE",FORREST,2603,ACT,AUSTRALIA,"{'longitude': 149.12761987, 'latitude': -35.31760347}"
83B MARIBYRNONG AVENUE,KALEEN,2617,ACT,AUSTRALIA,"{'longitude': 149.1090963, 'latitude': -35.21749212}"
3 LANDER CRESCENT,AMAROO,2914,ACT,AUSTRALIA,"{'longitude': 149.12299341, 'latitude': -35.17422054}"
415 MONCK ROAD,ACACIA HILLS,0822,NT,AUSTRALIA,"{'longitude': 131.11178463, 'latitude': -12.72075666}"
37 MONKMAN STREET,CHAPMAN,2611,ACT,AUSTRALIA,"{'longitude': 149.03088115, 'latitude': -35.35369584}"
40 PINDARI CRESCENT,O'MALLEY,2606,ACT,AUSTRALIA,"{'longitude': 149.10827602, 'latitude': -35.35895982}"
42 MCHUGH STREET,EVATT,2617,ACT,AUSTRALIA,"{'longitude': 149.08087135, 'latitude': -35.20590067}"
31 ARALIA STREET,NIGHTCLIFF,0810,NT,AUSTRALIA,"{'longitude': 130.84566915, 'latitude': -12.38058652}"
4 DEMPSEY COURT,PORT AUGUSTA WEST,5700,SA,AUSTRALIA,"{'longitude': 137.74639119, 'latitude': -32.47214004}"
234 YOUNG STREET,UNLEY,5061,SA,AUSTRALIA,"{'longitude': 138.60223713, 'latitude': -34.94453}"
"UNIT 1, 51 BARNET ROAD",EVANSTON,5116,SA,AUSTRALIA,"{'longitude': 138.73818401, 'latitude': -34.61775185}"
13 ST JOHN CRESCENT,FLOREY,2615,ACT,AUSTRALIA,"{'longitude': 149.06079263, 'latitude': -35.22196661}"
31 YARRAMAN ROAD,MANOR LAKES,3024,VIC,AUSTRALIA,"{'longitude': 144.59989779, 'latitude': -37.86827209}"
34 LIDDY CRESCENT,FARRAR,0830,NT,AUSTRALIA,"{'longitude': 131.00093124, 'latitude': -12.48222518}"
38 POLWARTH CIRCUIT,DUNLOP,2615,ACT,AUSTRALIA,"{'longitude': 149.02192939, 'latitude': -35.1942874}"
23 BUCKLEY CIRCUIT,KAMBAH,2902,ACT,AUSTRALIA,"{'longitude': 149.05017585, 'latitude': -35.37955833}"
42 OFFICEDALE ROAD,OFFICER,3809,VIC,AUSTRALIA,"{'longitude': 145.43583642, 'latitude': -38.06621719}"
2 HARGRAVE STREET,NORTHFIELD,5085,SA,AUSTRALIA,"{'longitude': 138.61845711, 'latitude': -34.85427213}"
1 BUCKLAND STREET,PARAFIELD GARDENS,5107,SA,AUSTRALIA,"{'longitude': 138.60761527, 'latitude': -34.7710831}"
18 HILL STREET,KAPUNDA,5373,SA,AUSTRALIA,"{'longitude': 138.91358149, 'latitude': -34.34019748}"
10 ALBERGA STREET,KALEEN,2617,ACT,AUSTRALIA,"{'longitude': 149.09758512, 'latitude': -35.23222454}"
12 YAPUNYAH STREET,O'CONNOR,2602,ACT,AUSTRALIA,"{'longitude': 149.11291575, 'latitude': -35.25775865}"
4 GEHRS CLOSE,NICHOLLS,2913,ACT,AUSTRALIA,"{'longitude': 149.10657715, 'latitude': -35.18563189}"
60 EVAN ROAD,HERBERT,0836,NT,AUSTRALIA,"{'longitude': 131.14740528, 'latitude': -12.5456451}"
61 MIDDLETON CIRCUIT,GOWRIE,2904,ACT,AUSTRALIA,"{'longitude': 149.10557861, 'latitude': -35.40718205}"
66 COOPER ROAD,HALBURY,5461,SA,AUSTRALIA,"{'longitude': 138.52550304, 'latitude': -34.08589511}"
2A ALLENDALE GROVE,STONYFELL,5066,SA,AUSTRALIA,"{'longitude': 138.66899369, 'latitude': -34.93294102}"
"UNIT 308, 262 SOUTH TERRACE",ADELAIDE,5000,SA,AUSTRALIA,"{'longitude': 138.60830748, 'latitude': -34.93464172}"
"UNIT 12, 2 TOM NICHOLAS CRESCENT",FORDE,2914,ACT,AUSTRALIA,"{'longitude': 149.14393392, 'latitude': -35.1712369}"
15 PENZANCE AVENUE,CHRISTIES BEACH,5165,SA,AUSTRALIA,"{'longitude': 138.47512738, 'latitude': -35.13588416}"
63 APPLEFORD AVENUE,JACKA,2914,ACT,AUSTRALIA,"{'longitude': 149.12817291, 'latitude': -35.15920936}"
52A ROSS STREET,SALE,3850,VIC,AUSTRALIA,"{'longitude': 147.05260725, 'latitude': -38.10527275}"
138 NORTH EAST ROAD,WALKERVILLE,5081,SA,AUSTRALIA,"{'longitude': 138.61964718, 'latitude': -34.88486173}"
9 MURRJINELLE CIRCUIT,BONNER,2914,ACT,AUSTRALIA,"{'longitude': 149.13456251, 'latitude': -35.15881744}"
4 MONTPELLIER CRESCENT,TEMPLESTOWE LOWER,3107,VIC,AUSTRALIA,"{'longitude': 145.13043891, 'latitude': -37.76754785}"
"UNIT 2, 10 DORNOCH COURT",MARRARA,0812,NT,AUSTRALIA,"{'longitude': 130.89939744, 'latitude': -12.39734522}"
49 MARLIN ROAD,DUNDEE FOREST,0840,NT,AUSTRALIA,"{'longitude': 130.42979348, 'latitude': -12.80459192}"
1124 JAMES TRACK,MYPONGA,5202,SA,AUSTRALIA,"{'longitude': 138.471523, 'latitude': -35.43130031}"
"UNIT 6, 3 HANDS COURT",MALAK,0812,NT,AUSTRALIA,"{'longitude': 130.90243763, 'latitude': -12.39113373}"
31 BORONGA AVENUE,WEST PYMBLE,2073,NSW,AUSTRALIA,"{'longitude': 151.12562863, 'latitude': -33.76940617}"
"UNIT 7, 204 MACFARLANE BURNET AVENUE",MACGREGOR,2615,ACT,AUSTRALIA,"{'longitude': 149.00700072, 'latitude': -35.20538547}"
7 MCKINLAY AVENUE,GILLES PLAINS,5086,SA,AUSTRALIA,"{'longitude': 138.65800204, 'latitude': -34.85221337}"
12A GRAYLIND AVENUE,WEST PENNANT HILLS,2125,NSW,AUSTRALIA,"{'longitude': 151.04270442, 'latitude': -33.73828246}"
"UNIT 7, 17 ASHLEY DRIVE",WANNIASSA,2903,ACT,AUSTRALIA,"{'longitude': 149.10199288, 'latitude': -35.4037744}"
4 AUDLEY AVENUE,PROSPECT,5082,SA,AUSTRALIA,"{'longitude': 138.59359463, 'latitude': -34.89394097}"
66 JOYCE AVENUE,WYOMING,2250,NSW,AUSTRALIA,"{'longitude': 151.35797656, 'latitude': -33.3994661}"
8 BARRAMUNDI STREET,THROSBY,2914,ACT,AUSTRALIA,"{'longitude': 149.16655267, 'latitude': -35.19488627}"
58 MONTGOMERIE TERRACE,STREAKY BAY,5680,SA,AUSTRALIA,"{'longitude': 134.21025827, 'latitude': -32.79809311}"
144 ROWLEY ROAD,ALDINGA BEACH,5173,SA,AUSTRALIA,"{'longitude': 138.45804464, 'latitude': -35.2798446}"
30 SELLBACH STREET,WESTON,2611,ACT,AUSTRALIA,"{'longitude': 149.06172882, 'latitude': -35.33203352}"
"UNIT 9, 868 PLENTY ROAD",SOUTH MORANG,3752,VIC,AUSTRALIA,"{'longitude': 145.09266223, 'latitude': -37.64810155}"
"UNIT 503, 183 BRIDGE ROAD",RICHMOND,3121,VIC,AUSTRALIA,"{'longitude': 144.99598639, 'latitude': -37.8180374}"
"UNIT 3, 9 ROGERS STREET",PAKENHAM,3810,VIC,AUSTRALIA,"{'longitude': 145.47795182, 'latitude': -38.07567087}"
15 MCRITCHIE CRESCENT,WHYALLA STUART,5608,SA,AUSTRALIA,"{'longitude': 137.52588965, 'latitude': -33.01935174}"
"UNIT 2, 70 EAST AVENUE",BLACK FOREST,5035,SA,AUSTRALIA,"{'longitude': 138.58093469, 'latitude': -34.96022549}"
4 MAINWARING WAY,OONOONBA,4811,QLD,AUSTRALIA,"{'longitude': 146.80893076, 'latitude': -19.29127308}"
"UNIT 3, 47 JARVIS ROAD",ELIZABETH VALE,5112,SA,AUSTRALIA,"{'longitude': 138.65465086, 'latitude': -34.7565041}"
40 WHYSALL ROAD,GREENACRES,5086,SA,AUSTRALIA,"{'longitude': 138.63181475, 'latitude': -34.86620688}"
3 WALLIS DRIVE,HASTINGS,3915,VIC,AUSTRALIA,"{'longitude': 145.18514534, 'latitude': -38.30187671}"
57 LUCAS STREET,RICHMOND,5033,SA,AUSTRALIA,"{'longitude': 138.55475495, 'latitude': -34.94134283}"
3 WATTLE STREET,SPRING FARM,2570,NSW,AUSTRALIA,"{'longitude': 150.71567679, 'latitude': -34.07428274}"
2 LANG STREET,PELICAN WATERS,4551,QLD,AUSTRALIA,"{'longitude': 153.10331553, 'latitude': -26.82946583}"
6 CORONET AVENUE,WOODCROFT,5162,SA,AUSTRALIA,"{'longitude': 138.56155439, 'latitude': -35.10925797}"
29 YOUNG STREET,ORANGE,2800,NSW,AUSTRALIA,"{'longitude': 149.10049391, 'latitude': -33.24337187}"
50 JAMES WYMAN PLACE,HAMPTON PARK,3976,VIC,AUSTRALIA,"{'longitude': 145.27611886, 'latitude': -38.04086986}"
"UNIT 1, 14 THOMAS STREET",CHERMSIDE,4032,QLD,AUSTRALIA,"{'longitude': 153.03252242, 'latitude': -27.38681117}"
"UNIT 6, 1 NORMAN STREET",FINDON,5023,SA,AUSTRALIA,"{'longitude': 138.53495884, 'latitude': -34.89793751}"
9 HUNTLEY STREET,CRANBOURNE NORTH,3977,VIC,AUSTRALIA,"{'longitude': 145.32523023, 'latitude': -38.07543573}"
16 DUNLOP STREET,KERANG,3579,VIC,AUSTRALIA,"{'longitude': 143.92093537, 'latitude': -35.73960234}"
117 LEPPINGTON HOUSE DRIVE,DENHAM COURT,2565,NSW,AUSTRALIA,"{'longitude': 150.82021974, 'latitude': -33.98433064}"
49 WEST STREET,TORRENSVILLE,5031,SA,AUSTRALIA,"{'longitude': 138.55829788, 'latitude': -34.91957847}"
"UNIT 2, 532 SOUTH ROAD",MOORABBIN,3189,VIC,AUSTRALIA,"{'longitude': 145.05581614, 'latitude': -37.93597879}"
22 SKYLARK COURT,LARA,3212,VIC,AUSTRALIA,"{'longitude': 144.39938089, 'latitude': -38.03569255}"
2 LEYBURN PARADE,WOLLERT,3750,VIC,AUSTRALIA,"{'longitude': 144.99545963, 'latitude': -37.61053719}"
"UNIT 19, 10 MARGULES CRESCENT",TAYLOR,2913,ACT,AUSTRALIA,"{'longitude': 149.11615455, 'latitude': -35.15165795}"
6 MANNUM STREET,VISTA,5091,SA,AUSTRALIA,"{'longitude': 138.72158474, 'latitude': -34.83867807}"
"UNIT 8, 142 TEMPLESTOWE ROAD",TEMPLESTOWE LOWER,3107,VIC,AUSTRALIA,"{'longitude': 145.09653761, 'latitude': -37.75602659}"
2 KINGFISHER CRESCENT,ENCOUNTER BAY,5211,SA,AUSTRALIA,"{'longitude': 138.59688691, 'latitude': -35.56565}"
"UNIT 104, 15 BOWES STREET",PHILLIP,2606,ACT,AUSTRALIA,"{'longitude': 149.08662241, 'latitude': -35.34438043}"
"UNIT 5, 60 KENILWORTH ROAD",PARKSIDE,5063,SA,AUSTRALIA,"{'longitude': 138.62076924, 'latitude': -34.94704827}"
20 MOORE STREET,ELLIOTT HEADS,4670,QLD,AUSTRALIA,"{'longitude': 152.48976611, 'latitude': -24.91619792}"
"UNIT 424, 1 KALMA WAY",CAMPBELL,2612,ACT,AUSTRALIA,"{'longitude': 149.14367229, 'latitude': -35.29029323}"
12 EDWIN STREET,WEST LAKES SHORE,5020,SA,AUSTRALIA,"{'longitude': 138.48139225, 'latitude': -34.86445225}"
10 TOCAL ROAD,BOLWARRA HEIGHTS,2320,NSW,AUSTRALIA,"{'longitude': 151.58445131, 'latitude': -32.69969992}"
32 VAUCLUSE BOULEVARD,POINT COOK,3030,VIC,AUSTRALIA,"{'longitude': 144.77100396, 'latitude': -37.89383672}"
98 MORGAN STREET,MEREWETHER,2291,NSW,AUSTRALIA,"{'longitude': 151.74837922, 'latitude': -32.94078588}"
13 WEWAK PARADE,HEIDELBERG WEST,3081,VIC,AUSTRALIA,"{'longitude': 145.04497893, 'latitude': -37.74545084}"
33 DWYERS ROAD,PEAK CROSSING,4306,QLD,AUSTRALIA,"{'longitude': 152.73996884, 'latitude': -27.79488358}"
"UNIT 2, 6 KENNEDY STREET",BROOKLYN PARK,5032,SA,AUSTRALIA,"{'longitude': 138.54276434, 'latitude': -34.93108643}"
212 SOUTH ROAD,MILE END,5031,SA,AUSTRALIA,"{'longitude': 138.56960888, 'latitude': -34.92722697}"
50 HEIDELBERG STREET,EAST BRISBANE,4169,QLD,AUSTRALIA,"{'longitude': 153.04612777, 'latitude': -27.48128285}"
5 SHERWOOD STREET,WENDOUREE,3355,VIC,AUSTRALIA,"{'longitude': 143.83264774, 'latitude': -37.5263996}"
137 GREENMOUNT ROAD,GREENMOUNT,4751,QLD,AUSTRALIA,"{'longitude': 149.0339517, 'latitude': -21.17267944}"
8 VINCENT BOULEVARD,FLAGSTAFF HILL,5159,SA,AUSTRALIA,"{'longitude': 138.5861355, 'latitude': -35.04284047}"
55 TREVELYAN STREET,ELSTERNWICK,3185,VIC,AUSTRALIA,"{'longitude': 145.01292092, 'latitude': -37.89064484}"
"UNIT 2, 2 ELLIS STREET",MOUNT GAMBIER,5290,SA,AUSTRALIA,"{'longitude': 140.77121467, 'latitude': -37.82401908}"
"UNIT 20A, 171 GLOUCESTER STREET",THE ROCKS,2000,NSW,AUSTRALIA,"{'longitude': 151.20587374, 'latitude': -33.86227378}"
27 DORSET STREET,BRAHMA LODGE,5109,SA,AUSTRALIA,"{'longitude': 138.65112435, 'latitude': -34.77395276}"
45 LINDBECK CORNER,GOOGONG,2620,NSW,AUSTRALIA,"{'longitude': 149.24161813, 'latitude': -35.42973989}"
128 PENTECOST AVENUE,TURRAMURRA,2074,NSW,AUSTRALIA,"{'longitude': 151.14169656, 'latitude': -33.72983157}"
"UNIT 6, 11-15 SMITH STREET",WENTWORTHVILLE,2145,NSW,AUSTRALIA,"{'longitude': 150.96725367, 'latitude': -33.8116168}"
"UNIT 2, 400 ALDERLEY STREET",KEARNEYS SPRING,4350,QLD,AUSTRALIA,"{'longitude': 151.94116663, 'latitude': -27.58392929}"
13 WIRRAWAY CRESCENT,NORLANE,3214,VIC,AUSTRALIA,"{'longitude': 144.34022937, 'latitude': -38.09122095}"
7 GUNTHER PARADE,PASADENA,5042,SA,AUSTRALIA,"{'longitude': 138.58560787, 'latitude': -35.00431667}"
14 TRANSVAAL AVENUE,DOUBLE BAY,2028,NSW,AUSTRALIA,"{'longitude': 151.24382051, 'latitude': -33.87590512}"
24 WADE STREET,GOLDEN SQUARE,3555,VIC,AUSTRALIA,"{'longitude': 144.25928515, 'latitude': -36.76793927}"
19 GECKO STREET,MARSDEN PARK,2765,NSW,AUSTRALIA,"{'longitude': 150.80764908, 'latitude': -33.69159449}"
510 GOONENGERRY ROAD,MONTECOLLUM,2482,NSW,AUSTRALIA,"{'longitude': 153.46095227, 'latitude': -28.59780326}"
25 GEORGE STREET,PENNINGTON,5013,SA,AUSTRALIA,"{'longitude': 138.53202462, 'latitude': -34.85991281}"
29B ALLPORT AVENUE,THRUMSTER,2444,NSW,AUSTRALIA,"{'longitude': 152.82430441, 'latitude': -31.46980955}"
16 DUNKEITH AVENUE,BENOWA,4217,QLD,AUSTRALIA,"{'longitude': 153.39525068, 'latitude': -28.01174664}"
1254 FOUR CORNERS ROAD,ARGOON,2707,NSW,AUSTRALIA,"{'longitude': 145.70678355, 'latitude': -34.85451538}"
25 WILLIAMSON STREET,DOOKIE,3646,VIC,AUSTRALIA,"{'longitude': 145.68583062, 'latitude': -36.32902721}"
22 HENLEY STREET,PASCOE VALE SOUTH,3044,VIC,AUSTRALIA,"{'longitude': 144.93159495, 'latitude': -37.74981383}"
"UNIT 1, 745 BARKLY STREET",WEST FOOTSCRAY,3012,VIC,AUSTRALIA,"{'longitude': 144.86341828, 'latitude': -37.79595448}"
14 THEODORE STREET,SURREY HILLS,3127,VIC,AUSTRALIA,"{'longitude': 145.11027591, 'latitude': -37.82591285}"
25 CHESTNUT ROAD,DOVETON,3177,VIC,AUSTRALIA,"{'longitude': 145.23314687, 'latitude': -37.99304586}"
6 GREVILLEA STREET,BILOELA,4715,QLD,AUSTRALIA,"{'longitude': 150.51690491, 'latitude': -24.4036268}"
13 CANADIAN MAPLE PLACE,LYNDHURST,3975,VIC,AUSTRALIA,"{'longitude': 145.24572344, 'latitude': -38.06373919}"
2 HOBSONS ROAD,HMAS CERBERUS,3920,VIC,AUSTRALIA,"{'longitude': 145.19756469, 'latitude': -38.36424629}"
1302 OLD BULL CREEK ROAD,PARIS CREEK,5201,SA,AUSTRALIA,"{'longitude': 138.78317539, 'latitude': -35.2088434}"
14 ERNEST STREET,NORTH MACKAY,4740,QLD,AUSTRALIA,"{'longitude': 149.19106345, 'latitude': -21.12018894}"
199 DUKE ROAD,DOONAN,4562,QLD,AUSTRALIA,"{'longitude': 152.99254052, 'latitude': -26.44960743}"
6 JUMBUCK STREET,JINDALEE,4074,QLD,AUSTRALIA,"{'longitude': 152.9360411, 'latitude': -27.53646388}"
62 RUSSELL STREET,BATHURST,2795,NSW,AUSTRALIA,"{'longitude': 149.58355337, 'latitude': -33.42316724}"
"UNIT 10, 9 OCEAN STREET",COOLANGATTA,4225,QLD,AUSTRALIA,"{'longitude': 153.52543348, 'latitude': -28.17106873}"
"UNIT 49, 23 TRISTAN COURT",BENOWA,4217,QLD,AUSTRALIA,"{'longitude': 153.39599385, 'latitude': -28.00163609}"
"UNIT 219, 232-242 ROUSE STREET",PORT MELBOURNE,3207,VIC,AUSTRALIA,"{'longitude': 144.93747158, 'latitude': -37.84068967}"
45 JANET STREET,MEREWETHER,2291,NSW,AUSTRALIA,"{'longitude': 151.75175671, 'latitude': -32.9472689}"
