line_1,suburb,postal_code,state,country,location
31 SAINT PAULS AVENUE,GOLDEN BEACH,4551,QLD,AUSTRALIA,"{'longitude': 153.11600883, 'latitude': -26.81831874}"
59 WILLIAM STREET,BUDERIM,4556,QLD,AUSTRALIA,"{'longitude': 153.03841054, 'latitude': -26.69493652}"
85 HANSFORD ROAD,COOMBABAH,4216,QLD,AUSTRALIA,"{'longitude': 153.37936281, 'latitude': -27.8988002}"
"UNIT 86, 5033 EMERALD ISLAND DRIVE",CARRARA,4211,QLD,AUSTRALIA,"{'longitude': 153.37648579, 'latitude': -28.01765832}"
11 HARWOOD PLACE,MAUDSLAND,4210,QLD,AUSTRALIA,"{'longitude': 153.2967759, 'latitude': -27.92965919}"
7 PITTA STREET,MAUDSLAND,4210,QLD,AUSTRALIA,"{'longitude': 153.29408554, 'latitude': -27.92471742}"
"UNIT 1088, 1 THE COVE CRESCENT",CARRARA,4211,QLD,AUSTRALIA,"{'longitude': 153.37989417, 'latitude': -28.02341817}"
"UNIT 2, 7 GABLE STREET",OXENFORD,4210,QLD,AUSTRALIA,"{'longitude': 153.32118647, 'latitude': -27.92089697}"
2 BUDERIM VISTA COURT,BUDERIM,4556,QLD,AUSTRALIA,"{'longitude': 153.07524243, 'latitude': -26.69687823}"
9 OSCAR CLOSE,ORMEAU,4208,QLD,AUSTRALIA,"{'longitude': 153.26171372, 'latitude': -27.79188885}"
51 BEALE STREET,SOUTHPORT,4215,QLD,AUSTRALIA,"{'longitude': 153.40088551, 'latitude': -27.9632618}"
33 FREDA STREET,ASHMORE,4214,QLD,AUSTRALIA,"{'longitude': 153.3714643, 'latitude': -27.98737532}"
84 COLEMANS FARM ROAD,YANDINA,4561,QLD,AUSTRALIA,"{'longitude': 152.93984693, 'latitude': -26.5657312}"
28 BEAUMONT COURT,CURRUMBIN WATERS,4223,QLD,AUSTRALIA,"{'longitude': 153.45654149, 'latitude': -28.14952236}"
"UNIT 54, 38-56 CASEYS ROAD",HOPE ISLAND,4212,QLD,AUSTRALIA,"{'longitude': 153.35333851, 'latitude': -27.86080196}"
26 GREAT KEPPEL CRESCENT,MOUNTAIN CREEK,4557,QLD,AUSTRALIA,"{'longitude': 153.10526222, 'latitude': -26.70562274}"
2 MELLUM COURT,DICKY BEACH,4551,QLD,AUSTRALIA,"{'longitude': 153.13173807, 'latitude': -26.7849878}"
26 CRYSTAL STREET,MAPLETON,4560,QLD,AUSTRALIA,"{'longitude': 152.86818033, 'latitude': -26.62557819}"
"UNIT 7, 9 COLERIDGE COURT",NERANG,4211,QLD,AUSTRALIA,"{'longitude': 153.31804798, 'latitude': -27.99877209}"
14 RAYMOND AVENUE,BUNDALL,4217,QLD,AUSTRALIA,"{'longitude': 153.40778737, 'latitude': -27.99966049}"
38 MARTINIQUE WAY,CLEAR ISLAND WATERS,4226,QLD,AUSTRALIA,"{'longitude': 153.39626476, 'latitude': -28.04219789}"
"UNIT 301D, 1 THE CONCOURSE",BENOWA,4217,QLD,AUSTRALIA,"{'longitude': 153.37050017, 'latitude': -28.00563691}"
"UNIT 16, 20 BEACH ROAD",MAROOCHYDORE,4558,QLD,AUSTRALIA,"{'longitude': 153.08976824, 'latitude': -26.65096368}"
6 PAROZ ROAD,MONS,4556,QLD,AUSTRALIA,"{'longitude': 153.03099493, 'latitude': -26.6864085}"
8 SAFFRON STREET,ELANORA,4221,QLD,AUSTRALIA,"{'longitude': 153.4468116, 'latitude': -28.13015952}"
7 EUCALYPTUS WAY,PERWILLOWEN,4560,QLD,AUSTRALIA,"{'longitude': 152.93636152, 'latitude': -26.63861336}"
38-42 SCHULZ ROAD,WOOMBYE,4559,QLD,AUSTRALIA,"{'longitude': 152.98682623, 'latitude': -26.6652937}"
17 QUIGAN TERRACE,HIGHLAND PARK,4211,QLD,AUSTRALIA,"{'longitude': 153.3406471, 'latitude': -28.01673879}"
"UNIT 2, 22 ELM COURT",LABRADOR,4215,QLD,AUSTRALIA,"{'longitude': 153.38589849, 'latitude': -27.95031526}"
3 VALLEY VISTA,MALENY,4552,QLD,AUSTRALIA,"{'longitude': 152.88914568, 'latitude': -26.77786238}"
43 GREENACRE DRIVE,PARKWOOD,4214,QLD,AUSTRALIA,"{'longitude': 153.35343622, 'latitude': -27.95694418}"
6 YULONG STREET,MAROOCHYDORE,4558,QLD,AUSTRALIA,"{'longitude': 153.07353532, 'latitude': -26.6588964}"
20 WANDILLA DRIVE,HELENSVALE,4212,QLD,AUSTRALIA,"{'longitude': 153.33240272, 'latitude': -27.90765786}"
4 GIRUA STREET,BLI BLI,4560,QLD,AUSTRALIA,"{'longitude': 153.03996088, 'latitude': -26.61838305}"
58 PODINGA CIRCUIT,ORMEAU,4208,QLD,AUSTRALIA,"{'longitude': 153.23645021, 'latitude': -27.76998453}"
"UNIT 42, 11 WATERFORD COURT",BUNDALL,4217,QLD,AUSTRALIA,"{'longitude': 153.40443253, 'latitude': -27.99877055}"
43C BOOGARD PLACE,CLAGIRABA,4211,QLD,AUSTRALIA,"{'longitude': 153.23770011, 'latitude': -27.96699891}"
23 PLANTATION PARADE,BUDERIM,4556,QLD,AUSTRALIA,"{'longitude': 153.07932239, 'latitude': -26.6816565}"
"UNIT 4, 17 LEONARD AVENUE",SURFERS PARADISE,4217,QLD,AUSTRALIA,"{'longitude': 153.42284229, 'latitude': -28.00473795}"
2 CAMELIA COURT,PALMWOODS,4555,QLD,AUSTRALIA,"{'longitude': 152.95641413, 'latitude': -26.69231707}"
92 ALISON ROAD,CARRARA,4211,QLD,AUSTRALIA,"{'longitude': 153.36019113, 'latitude': -28.02090297}"
13 MONTEVIDEO DRIVE,CLEAR ISLAND WATERS,4226,QLD,AUSTRALIA,"{'longitude': 153.39666909, 'latitude': -28.04359575}"
166 MONACO STREET,BROADBEACH WATERS,4218,QLD,AUSTRALIA,"{'longitude': 153.41449826, 'latitude': -28.01709571}"
258 HIGHLANDS ROAD,EUDLO,4554,QLD,AUSTRALIA,"{'longitude': 152.93912871, 'latitude': -26.72723147}"
2 MATTERS STREET,BILINGA,4225,QLD,AUSTRALIA,"{'longitude': 153.50710859, 'latitude': -28.15576671}"
22 BONAVISTA CRESCENT,DOONAN,4562,QLD,AUSTRALIA,"{'longitude': 153.00042271, 'latitude': -26.45937502}"
"UNIT 5, 6 SCANLAN COURT",BUDERIM,4556,QLD,AUSTRALIA,"{'longitude': 153.07032826, 'latitude': -26.68193451}"
45 RIVERMILL TERRACE,MAUDSLAND,4210,QLD,AUSTRALIA,"{'longitude': 153.27636858, 'latitude': -27.91106978}"
47 GINGER ROGERS ROAD,MAUDSLAND,4210,QLD,AUSTRALIA,"{'longitude': 153.27803115, 'latitude': -27.93864243}"
"UNIT 6, 6 GORDON STREET",LABRADOR,4215,QLD,AUSTRALIA,"{'longitude': 153.40597147, 'latitude': -27.94296107}"
13 KING ORCHID CIRCUIT,COOMERA,4209,QLD,AUSTRALIA,"{'longitude': 153.33585235, 'latitude': -27.83656474}"
"UNIT 41, 18 CHELSEA AVENUE",BROADBEACH,4218,QLD,AUSTRALIA,"{'longitude': 153.43190425, 'latitude': -28.02304459}"
"UNIT 13505, 36 OLD BURLEIGH ROAD",SURFERS PARADISE,4217,QLD,AUSTRALIA,"{'longitude': 153.4321384, 'latitude': -28.01530806}"
11 BONDI LANE,CALOUNDRA WEST,4551,QLD,AUSTRALIA,"{'longitude': 153.0936516, 'latitude': -26.80318524}"
37 LINDSAY PARADE,PARADISE POINT,4216,QLD,AUSTRALIA,"{'longitude': 153.391914, 'latitude': -27.88008931}"
45 HASEMANN CRESCENT,UPPER COOMERA,4209,QLD,AUSTRALIA,"{'longitude': 153.29818042, 'latitude': -27.84862147}"
4 CALLICOMA COURT,ORMEAU,4208,QLD,AUSTRALIA,"{'longitude': 153.24231038, 'latitude': -27.77500826}"
21 DANIELLE PLACE,BUDERIM,4556,QLD,AUSTRALIA,"{'longitude': 153.03994314, 'latitude': -26.68504652}"
"UNIT 5, 16 ARWEN STREET",MAROOCHYDORE,4558,QLD,AUSTRALIA,"{'longitude': 153.06892869, 'latitude': -26.653847}"
26 LENNOX STREET,PACIFIC PINES,4211,QLD,AUSTRALIA,"{'longitude': 153.3113055, 'latitude': -27.93872345}"
"UNIT 1, 1923 GOLD COAST HIGHWAY",BURLEIGH HEADS,4220,QLD,AUSTRALIA,"{'longitude': 153.44797373, 'latitude': -28.08172891}"
10 ARDLETHAN COURT,HELENSVALE,4212,QLD,AUSTRALIA,"{'longitude': 153.32977254, 'latitude': -27.90968669}"
59 CHAROLAIS CRESCENT,BENOWA,4217,QLD,AUSTRALIA,"{'longitude': 153.39696168, 'latitude': -28.0196953}"
13 AUGUSTUS STREET,PACIFIC PINES,4211,QLD,AUSTRALIA,"{'longitude': 153.31919135, 'latitude': -27.93174373}"
17 LAKESHORE DRIVE,HELENSVALE,4212,QLD,AUSTRALIA,"{'longitude': 153.33986125, 'latitude': -27.89084748}"
136 CAMPBELL STREET,BUNDALL,4217,QLD,AUSTRALIA,"{'longitude': 153.403824, 'latitude': -28.0111036}"
3 WAKEFIELD STREET,WOOMBYE,4559,QLD,AUSTRALIA,"{'longitude': 152.96626146, 'latitude': -26.6609598}"
"UNIT 1, 2 PEACHWOOD COURT",ROBINA,4226,QLD,AUSTRALIA,"{'longitude': 153.3977816, 'latitude': -28.09096618}"
"UNIT 1, 137 OLD BURLEIGH ROAD",BROADBEACH,4218,QLD,AUSTRALIA,"{'longitude': 153.43317258, 'latitude': -28.02652751}"
26 FORSAYTH LANE,MAROOCHYDORE,4558,QLD,AUSTRALIA,"{'longitude': 153.07573215, 'latitude': -26.66126216}"
"UNIT 9, 55 CAPRICORN CRESCENT",MERIDAN PLAINS,4551,QLD,AUSTRALIA,"{'longitude': 153.09839697, 'latitude': -26.76912018}"
3 LAMANDRA LANE,SIPPY DOWNS,4556,QLD,AUSTRALIA,"{'longitude': 153.0578698, 'latitude': -26.72644504}"
"UNIT 1066, 1 THE COVE CRESCENT",CARRARA,4211,QLD,AUSTRALIA,"{'longitude': 153.3799426, 'latitude': -28.02460305}"
77 KARALL STREET,ORMEAU,4208,QLD,AUSTRALIA,"{'longitude': 153.23923517, 'latitude': -27.77196085}"
1103 DAVID LOW WAY,MARCOOLA,4564,QLD,AUSTRALIA,"{'longitude': 153.09335501, 'latitude': -26.58550561}"
"UNIT 16, 15 PACIFIC STREET",MAIN BEACH,4217,QLD,AUSTRALIA,"{'longitude': 153.42811847, 'latitude': -27.98218338}"
17 OSCAR CLOSE,ORMEAU,4208,QLD,AUSTRALIA,"{'longitude': 153.26111884, 'latitude': -27.79168672}"
28 TAILSLIDE CRESCENT,BOKARINA,4575,QLD,AUSTRALIA,"{'longitude': 153.1292391, 'latitude': -26.74328165}"
17 THE ESPLANADE,COOMBABAH,4216,QLD,AUSTRALIA,"{'longitude': 153.37259386, 'latitude': -27.89618229}"
"UNIT 149, 2 GRAND PARADE",PARREARRA,4575,QLD,AUSTRALIA,"{'longitude': 153.12300376, 'latitude': -26.71488394}"
"UNIT 6, 34 VICTORIA TERRACE",KINGS BEACH,4551,QLD,AUSTRALIA,"{'longitude': 153.14953044, 'latitude': -26.80166565}"
1 PALARA STREET,BUDDINA,4575,QLD,AUSTRALIA,"{'longitude': 153.13019198, 'latitude': -26.69936441}"
"UNIT 1, 3 TELOPEA STREET",LABRADOR,4215,QLD,AUSTRALIA,"{'longitude': 153.39020591, 'latitude': -27.95084894}"
80 CROYDON AVENUE,CURRIMUNDI,4551,QLD,AUSTRALIA,"{'longitude': 153.12731186, 'latitude': -26.77259851}"
9 BLUE GUM COURT,GILSTON,4211,QLD,AUSTRALIA,"{'longitude': 153.31460231, 'latitude': -28.03575997}"
1 WHITEWOOD PLACE,MOLENDINAR,4214,QLD,AUSTRALIA,"{'longitude': 153.37005008, 'latitude': -27.97378795}"
"UNIT 18, 111 RIO VISTA BOULEVARD",BROADBEACH WATERS,4218,QLD,AUSTRALIA,"{'longitude': 153.41660497, 'latitude': -28.02873325}"
11 CHEYENNE WAY,MAROOCHYDORE,4558,QLD,AUSTRALIA,"{'longitude': 153.07695468, 'latitude': -26.66134115}"
70 AUBURN STREET,CALOUNDRA WEST,4551,QLD,AUSTRALIA,"{'longitude': 153.09936135, 'latitude': -26.80328422}"
3301 CENTRAL PLACE,CARRARA,4211,QLD,AUSTRALIA,"{'longitude': 153.37251686, 'latitude': -28.01519281}"
35 FERNLEIGH CRESCENT,MOUNTAIN CREEK,4557,QLD,AUSTRALIA,"{'longitude': 153.09724977, 'latitude': -26.69812337}"
43 BINYA AVENUE,COOLANGATTA,4225,QLD,AUSTRALIA,"{'longitude': 153.52530761, 'latitude': -28.17243874}"
4 EMU WALK,MAPLETON,4560,QLD,AUSTRALIA,"{'longitude': 152.86390245, 'latitude': -26.62520373}"
6 BARWOOD COURT,BURNSIDE,4560,QLD,AUSTRALIA,"{'longitude': 152.93264402, 'latitude': -26.62152096}"
47 DEBORAH AVENUE,BENOWA,4217,QLD,AUSTRALIA,"{'longitude': 153.38977194, 'latitude': -28.0203732}"
"UNIT 18, 7 CAMPBELL STREET",BUNDALL,4217,QLD,AUSTRALIA,"{'longitude': 153.40145035, 'latitude': -28.02678397}"
"UNIT 1, 7 CUPANIA PLACE",ELANORA,4221,QLD,AUSTRALIA,"{'longitude': 153.44659634, 'latitude': -28.13183981}"
"UNIT 83, 5 LOCHINVAR COURT",ASHMORE,4214,QLD,AUSTRALIA,"{'longitude': 153.36441604, 'latitude': -27.99039136}"
39 MCKEES ROAD,PALMWOODS,4555,QLD,AUSTRALIA,"{'longitude': 152.94865809, 'latitude': -26.67652026}"
10 WAITOMO STREET,BROADBEACH WATERS,4218,QLD,AUSTRALIA,"{'longitude': 153.41229776, 'latitude': -28.03530917}"
"UNIT 87, 10-16 ALEXANDRA AVENUE",MERMAID BEACH,4218,QLD,AUSTRALIA,"{'longitude': 153.4346459, 'latitude': -28.03738917}"
"UNIT 804, 110 FRANK STREET",LABRADOR,4215,QLD,AUSTRALIA,"{'longitude': 153.40818484, 'latitude': -27.94653977}"
21 SHIRLEY STREET,SOUTHPORT,4215,QLD,AUSTRALIA,"{'longitude': 153.40316069, 'latitude': -27.98067243}"
"UNIT 51110, 5 HARBOUR SIDE COURT",BIGGERA WATERS,4216,QLD,AUSTRALIA,"{'longitude': 153.39260635, 'latitude': -27.93140053}"
"UNIT 40, 16 TORAL DRIVE",BUDERIM,4556,QLD,AUSTRALIA,"{'longitude': 153.0539704, 'latitude': -26.71236115}"
46 SIPPY DOWNS DRIVE,SIPPY DOWNS,4556,QLD,AUSTRALIA,"{'longitude': 153.05515173, 'latitude': -26.71748653}"
5 KELLOR COURT,UPPER COOMERA,4209,QLD,AUSTRALIA,"{'longitude': 153.27972027, 'latitude': -27.89139102}"
"UNIT 5, 31-33 COOLANGATTA ROAD",COOLANGATTA,4225,QLD,AUSTRALIA,"{'longitude': 153.52677739, 'latitude': -28.16958127}"
"UNIT 3B, 973 GOLD COAST HIGHWAY",PALM BEACH,4221,QLD,AUSTRALIA,"{'longitude': 153.47612763, 'latitude': -28.12517309}"
3 FLORENCE COURT,SURFERS PARADISE,4217,QLD,AUSTRALIA,"{'longitude': 153.41548466, 'latitude': -28.01520101}"
"UNIT 5, 6 MEMORIAL AVENUE",MAROOCHYDORE,4558,QLD,AUSTRALIA,"{'longitude': 153.10208298, 'latitude': -26.6541746}"
"UNIT 2, 9 NAPPER ROAD",ARUNDEL,4214,QLD,AUSTRALIA,"{'longitude': 153.38256825, 'latitude': -27.95313064}"
4 TEMOE RISE,PACIFIC PINES,4211,QLD,AUSTRALIA,"{'longitude': 153.31786986, 'latitude': -27.92688539}"
891 CURRUMBIN CREEK ROAD,CURRUMBIN VALLEY,4223,QLD,AUSTRALIA,"{'longitude': 153.41424305, 'latitude': -28.18903142}"
18 ALSTONVILLE WAY,CURRIMUNDI,4551,QLD,AUSTRALIA,"{'longitude': 153.11931988, 'latitude': -26.77069632}"
"UNIT 1, 21 BLAXLAND STREET",GOLDEN BEACH,4551,QLD,AUSTRALIA,"{'longitude': 153.11844219, 'latitude': -26.81143007}"
"UNIT 5, 31 SIMPSONS ROAD",ELANORA,4221,QLD,AUSTRALIA,"{'longitude': 153.45237533, 'latitude': -28.14035268}"
"UNIT 2, 42 EAST QUAY DRIVE",BIGGERA WATERS,4216,QLD,AUSTRALIA,"{'longitude': 153.38644523, 'latitude': -27.92520559}"
41 EXPLORERS WAY,WORONGARY,4213,QLD,AUSTRALIA,"{'longitude': 153.34497973, 'latitude': -28.02109487}"
"UNIT 6, 20 SECOND AVENUE",MAROOCHYDORE,4558,QLD,AUSTRALIA,"{'longitude': 153.09523095, 'latitude': -26.65639768}"
1 MOUNTAIN ASH CRESCENT,STAPYLTON,4207,QLD,AUSTRALIA,"{'longitude': 153.23324046, 'latitude': -27.73560994}"
"UNIT 21509, 5 LAWSON STREET",SOUTHPORT,4215,QLD,AUSTRALIA,"{'longitude': 153.4136784, 'latitude': -27.97032884}"
20 FARRELL STREET,YANDINA,4561,QLD,AUSTRALIA,"{'longitude': 152.95677163, 'latitude': -26.56069674}"
"UNIT 1, 163 BRADMAN AVENUE",MAROOCHYDORE,4558,QLD,AUSTRALIA,"{'longitude': 153.07242485, 'latitude': -26.64235041}"
58 THE ESPLANADE,PARADISE POINT,4216,QLD,AUSTRALIA,"{'longitude': 153.3956107, 'latitude': -27.88388564}"
"UNIT 2602, 50 MARINE PARADE",SOUTHPORT,4215,QLD,AUSTRALIA,"{'longitude': 153.41599552, 'latitude': -27.9668648}"
"UNIT 3, 99 MUDJIMBA BEACH ROAD",MUDJIMBA,4564,QLD,AUSTRALIA,"{'longitude': 153.09017825, 'latitude': -26.61610964}"
"UNIT 21, 17 GREENSBORO PLACE",LITTLE MOUNTAIN,4551,QLD,AUSTRALIA,"{'longitude': 153.1064018, 'latitude': -26.77539678}"
"UNIT 2, 7 PHILLIP STREET",LABRADOR,4215,QLD,AUSTRALIA,"{'longitude': 153.40732859, 'latitude': -27.95131945}"
"UNIT 5803, 9 HAMILTON AVENUE",SURFERS PARADISE,4217,QLD,AUSTRALIA,"{'longitude': 153.42959415, 'latitude': -28.00628035}"
"UNIT 11, 2 MANTRA ESPLANADE",BIRTINYA,4575,QLD,AUSTRALIA,"{'longitude': 153.11867465, 'latitude': -26.74483936}"
67 JUBILANT WAY,PALMVIEW,4553,QLD,AUSTRALIA,"{'longitude': 153.06034856, 'latitude': -26.73394378}"
"UNIT 1005, 3 MAIN STREET",VARSITY LAKES,4227,QLD,AUSTRALIA,"{'longitude': 153.40802324, 'latitude': -28.07909521}"
"UNIT 16, 31 ARCHIPELAGO STREET",PACIFIC PINES,4211,QLD,AUSTRALIA,"{'longitude': 153.31982249, 'latitude': -27.94476682}"
7 CAULFIELD STREET,ROBINA,4226,QLD,AUSTRALIA,"{'longitude': 153.39735323, 'latitude': -28.05784456}"
36 COOK STREET,GOLDEN BEACH,4551,QLD,AUSTRALIA,"{'longitude': 153.11990698, 'latitude': -26.81317244}"
"UNIT 1, 3 DOOLOOMA STREET",MOUNTAIN CREEK,4557,QLD,AUSTRALIA,"{'longitude': 153.10404367, 'latitude': -26.70097681}"
"UNIT 2301, 27 BOARDWALK BOULEVARD",MOUNT COOLUM,4573,QLD,AUSTRALIA,"{'longitude': 153.09651636, 'latitude': -26.57059525}"
"UNIT 79, 13 MOOLOOLABA ESPLANADE",MOOLOOLABA,4557,QLD,AUSTRALIA,"{'longitude': 153.12019472, 'latitude': -26.68060974}"
8 SWEETGUM COURT,CURRIMUNDI,4551,QLD,AUSTRALIA,"{'longitude': 153.11662646, 'latitude': -26.76540978}"
"UNIT 1, 2 BOOBOOK COURT",BUDERIM,4556,QLD,AUSTRALIA,"{'longitude': 153.05794374, 'latitude': -26.70738845}"
77 POWER ROAD,BUDERIM,4556,QLD,AUSTRALIA,"{'longitude': 153.06288261, 'latitude': -26.71030368}"
3 PERCEPTION ROAD,NAMBOUR,4560,QLD,AUSTRALIA,"{'longitude': 152.94135147, 'latitude': -26.6116018}"
18 FLORES AVENUE,PALM BEACH,4221,QLD,AUSTRALIA,"{'longitude': 153.47028549, 'latitude': -28.13033916}"
"UNIT 2, 3 HAKEA AVENUE",MALENY,4552,QLD,AUSTRALIA,"{'longitude': 152.84434225, 'latitude': -26.75814024}"
22 JACOB COURT,UPPER COOMERA,4209,QLD,AUSTRALIA,"{'longitude': 153.29604006, 'latitude': -27.86520133}"
"UNIT 27, 21 LEVIATHAN DRIVE",MUDGEERABA,4213,QLD,AUSTRALIA,"{'longitude': 153.38042856, 'latitude': -28.08694968}"
2 OSCAR CLOSE,ORMEAU,4208,QLD,AUSTRALIA,"{'longitude': 153.26233396, 'latitude': -27.79233723}"
"UNIT 76, 17 CARREE STREET",CALOUNDRA WEST,4551,QLD,AUSTRALIA,"{'longitude': 153.08770909, 'latitude': -26.79608212}"
53 MONTEVIDEO DRIVE,CLEAR ISLAND WATERS,4226,QLD,AUSTRALIA,"{'longitude': 153.39237855, 'latitude': -28.04222093}"
"UNIT 11, 148 HIGH STREET",SOUTHPORT,4215,QLD,AUSTRALIA,"{'longitude': 153.40708061, 'latitude': -27.96128819}"
14 TANDANUS COURT,OXENFORD,4210,QLD,AUSTRALIA,"{'longitude': 153.29576057, 'latitude': -27.89303897}"
"UNIT 401, 1 HART STREET",ASHMORE,4214,QLD,AUSTRALIA,"{'longitude': 153.3703394, 'latitude': -27.99197337}"
25 GEMINI CIRCUIT,MOLENDINAR,4214,QLD,AUSTRALIA,"{'longitude': 153.36584293, 'latitude': -27.97224636}"
1 CARLYLE COURT,BUDERIM,4556,QLD,AUSTRALIA,"{'longitude': 153.08714665, 'latitude': -26.69180565}"
34 ANDRIANA DRIVE,BUDERIM,4556,QLD,AUSTRALIA,"{'longitude': 153.05629275, 'latitude': -26.69112416}"
14 DYER STREET,LANDSBOROUGH,4550,QLD,AUSTRALIA,"{'longitude': 152.96914812, 'latitude': -26.80869578}"
21 SKIFF STREET,SOUTHPORT,4215,QLD,AUSTRALIA,"{'longitude': 153.4132897, 'latitude': -27.99073745}"
2 CROWN STREET,CURRIMUNDI,4551,QLD,AUSTRALIA,"{'longitude': 153.12726278, 'latitude': -26.76718058}"
264 RON PENHALIGON WAY,ROBINA,4226,QLD,AUSTRALIA,"{'longitude': 153.40393203, 'latitude': -28.07008129}"
38 SOVEREIGN LANE,COOMERA,4209,QLD,AUSTRALIA,"{'longitude': 153.36928706, 'latitude': -27.84605783}"
5 JACARANDA DRIVE,PARKLANDS,4560,QLD,AUSTRALIA,"{'longitude': 152.96893476, 'latitude': -26.60067508}"
144 NOBBY PARADE,MIAMI,4220,QLD,AUSTRALIA,"{'longitude': 153.43782606, 'latitude': -28.06762198}"
18 LORIKEET PLACE,BURNSIDE,4560,QLD,AUSTRALIA,"{'longitude': 152.93567277, 'latitude': -26.62845755}"
"UNIT 10, 14 BOLTON STREET",COOLANGATTA,4225,QLD,AUSTRALIA,"{'longitude': 153.52252638, 'latitude': -28.16937554}"
54 RUMRUNNER STREET,MERMAID WATERS,4218,QLD,AUSTRALIA,"{'longitude': 153.42316304, 'latitude': -28.05078153}"
"UNIT 40, 55 CARTER ROAD",NAMBOUR,4560,QLD,AUSTRALIA,"{'longitude': 152.95003999, 'latitude': -26.62750004}"
89 FOLEY ROAD,WOOMBYE,4559,QLD,AUSTRALIA,"{'longitude': 152.96666579, 'latitude': -26.65176731}"
"UNIT 4, 114 THE ESPLANADE",BURLEIGH HEADS,4220,QLD,AUSTRALIA,"{'longitude': 153.44878743, 'latitude': -28.08273759}"
147 VARSITY PARADE,VARSITY LAKES,4227,QLD,AUSTRALIA,"{'longitude': 153.40987308, 'latitude': -28.08123647}"
24 ROBUR CRESCENT,MOUNTAIN CREEK,4557,QLD,AUSTRALIA,"{'longitude': 153.10324274, 'latitude': -26.71457603}"
"UNIT 2, 29 BROADMEADOWS ROAD",MAROOCHYDORE,4558,QLD,AUSTRALIA,"{'longitude': 153.08238144, 'latitude': -26.65112279}"
26 MARTINIQUE WAY,CLEAR ISLAND WATERS,4226,QLD,AUSTRALIA,"{'longitude': 153.39682309, 'latitude': -28.0407967}"
2 WARLOO STREET,WURTULLA,4575,QLD,AUSTRALIA,"{'longitude': 153.11855809, 'latitude': -26.76179509}"
15 ROCK FIG COURT,PALMWOODS,4555,QLD,AUSTRALIA,"{'longitude': 152.95146962, 'latitude': -26.69788046}"
59 BALYANDO DRIVE,NERANG,4211,QLD,AUSTRALIA,"{'longitude': 153.32561629, 'latitude': -27.98284601}"
46 SEAGULL AVENUE,MERMAID BEACH,4218,QLD,AUSTRALIA,"{'longitude': 153.43978731, 'latitude': -28.05766423}"
117 RUDDLE DRIVE,REESVILLE,4552,QLD,AUSTRALIA,"{'longitude': 152.81816997, 'latitude': -26.76958611}"
"UNIT 2, 131 MCAULEY PARADE",PACIFIC PINES,4211,QLD,AUSTRALIA,"{'longitude': 153.30632939, 'latitude': -27.93099108}"
4 CACTUS COURT,UPPER COOMERA,4209,QLD,AUSTRALIA,"{'longitude': 153.27783359, 'latitude': -27.89779264}"
"UNIT 81, 20 FAIRWAY DRIVE",CLEAR ISLAND WATERS,4226,QLD,AUSTRALIA,"{'longitude': 153.4058659, 'latitude': -28.03641741}"
57 KALIMNA DRIVE,BROADBEACH WATERS,4218,QLD,AUSTRALIA,"{'longitude': 153.41402051, 'latitude': -28.02423121}"
10 CRUSADER WAY,NERANG,4211,QLD,AUSTRALIA,"{'longitude': 153.32649315, 'latitude': -28.00065424}"
29 MANNING CIRCUIT,PACIFIC PINES,4211,QLD,AUSTRALIA,"{'longitude': 153.30072722, 'latitude': -27.93852996}"
5 NYRANG DRIVE,PIMPAMA,4209,QLD,AUSTRALIA,"{'longitude': 153.28545859, 'latitude': -27.80589739}"
240 FOXWELL ROAD,COOMERA,4209,QLD,AUSTRALIA,"{'longitude': 153.32665704, 'latitude': -27.85416136}"
"UNIT 15, 4 RHIANA STREET",PIMPAMA,4209,QLD,AUSTRALIA,"{'longitude': 153.2885265, 'latitude': -27.81795242}"
"UNIT 1, 70 CARTER ROAD",NAMBOUR,4560,QLD,AUSTRALIA,"{'longitude': 152.94885069, 'latitude': -26.62478412}"
"UNIT 2, 4 KAROME STREET",PACIFIC PARADISE,4564,QLD,AUSTRALIA,"{'longitude': 153.0756133, 'latitude': -26.62066434}"
"UNIT 1, 26 BLACKALL TERRACE",NAMBOUR,4560,QLD,AUSTRALIA,"{'longitude': 152.95963604, 'latitude': -26.62041603}"
14 STINSON CIRCUIT,COOMERA,4209,QLD,AUSTRALIA,"{'longitude': 153.34401519, 'latitude': -27.84131006}"
13 LEE STREET,PIMPAMA,4209,QLD,AUSTRALIA,"{'longitude': 153.31512286, 'latitude': -27.82507214}"
"TOWNHOUSE 6, 1 BARRATT STREET",COOMERA,4209,QLD,AUSTRALIA,"{'longitude': 153.33396586, 'latitude': -27.84968363}"
19 CLARENCE DRIVE,HELENSVALE,4212,QLD,AUSTRALIA,"{'longitude': 153.32631109, 'latitude': -27.89030035}"
22 VALLEY CRESCENT,PALMVIEW,4553,QLD,AUSTRALIA,"{'longitude': 153.07047578, 'latitude': -26.74292316}"
30 FIGBIRD CRESCENT,BUDERIM,4556,QLD,AUSTRALIA,"{'longitude': 153.05923898, 'latitude': -26.70800711}"
13 DEWRANG DRIVE,PIMPAMA,4209,QLD,AUSTRALIA,"{'longitude': 153.27621341, 'latitude': -27.80627585}"
4 SAINT GEORGES COURT,CARRARA,4211,QLD,AUSTRALIA,"{'longitude': 153.36187575, 'latitude': -28.02057324}"
19 GYMEA CRESCENT,VARSITY LAKES,4227,QLD,AUSTRALIA,"{'longitude': 153.41199698, 'latitude': -28.09476903}"
2 BELLARA STREET,ASHMORE,4214,QLD,AUSTRALIA,"{'longitude': 153.35334996, 'latitude': -27.98588626}"
"UNIT 1407, 33 T E PETERS DRIVE",BROADBEACH WATERS,4218,QLD,AUSTRALIA,"{'longitude': 153.42618123, 'latitude': -28.02671739}"
51 OPEN DRIVE,ARUNDEL,4214,QLD,AUSTRALIA,"{'longitude': 153.37766477, 'latitude': -27.94281225}"
849 RED ROAD,BEERBURRUM,4517,QLD,AUSTRALIA,"{'longitude': 153.04822773, 'latitude': -26.9613554}"
"UNIT 5, 15 RAINFOREST SANCTUARY DRIVE",BUDERIM,4556,QLD,AUSTRALIA,"{'longitude': 153.05277688, 'latitude': -26.70406516}"
24 SANTA CLARA RISE,UPPER COOMERA,4209,QLD,AUSTRALIA,"{'longitude': 153.28009797, 'latitude': -27.88062067}"
"UNIT 171, 183 KARAWATHA DRIVE",BUDERIM,4556,QLD,AUSTRALIA,"{'longitude': 153.08754687, 'latitude': -26.6975851}"
"UNIT 27, 2 GRAND PARADE",PARREARRA,4575,QLD,AUSTRALIA,"{'longitude': 153.12260899, 'latitude': -26.71717859}"
"UNIT 9, 30 COUGAL STREET",SOUTHPORT,4215,QLD,AUSTRALIA,"{'longitude': 153.40803859, 'latitude': -27.96998899}"
2-12 OTTO NOTHLING PLACE,BEERWAH,4519,QLD,AUSTRALIA,"{'longitude': 152.92532221, 'latitude': -26.86212935}"
5 BAIRNSDALE STREET WEST,BUDERIM,4556,QLD,AUSTRALIA,"{'longitude': 153.06766696, 'latitude': -26.68301382}"
39 GRASSLANDS CRESCENT,REEDY CREEK,4227,QLD,AUSTRALIA,"{'longitude': 153.39063303, 'latitude': -28.121512}"
17 ROMAR ROAD,GLASS HOUSE MOUNTAINS,4518,QLD,AUSTRALIA,"{'longitude': 152.96704059, 'latitude': -26.90824193}"
22 VISTA STREET,ELANORA,4221,QLD,AUSTRALIA,"{'longitude': 153.46365975, 'latitude': -28.1250881}"
"UNIT 1, 1877 GOLD COAST HIGHWAY",BURLEIGH HEADS,4220,QLD,AUSTRALIA,"{'longitude': 153.44926118, 'latitude': -28.08505171}"
417 PARADISE CIRCUIT,MAROOCHYDORE,4558,QLD,AUSTRALIA,"{'longitude': 153.0641901, 'latitude': -26.64716377}"
27 CAPTAIN COOK CLOSE,ARUNDEL,4214,QLD,AUSTRALIA,"{'longitude': 153.3741008, 'latitude': -27.94489158}"
120 TURPIN ROAD,LABRADOR,4215,QLD,AUSTRALIA,"{'longitude': 153.40220441, 'latitude': -27.94718677}"
7 YULIA STREET,COOMBABAH,4216,QLD,AUSTRALIA,"{'longitude': 153.3813719, 'latitude': -27.92123757}"
"UNIT 131, 183 KARAWATHA DRIVE",BUDERIM,4556,QLD,AUSTRALIA,"{'longitude': 153.08754687, 'latitude': -26.6975851}"
2 RUTH TERRACE,OXENFORD,4210,QLD,AUSTRALIA,"{'longitude': 153.30419312, 'latitude': -27.89124093}"
927 MALENY - MONTVILLE ROAD,BALMORAL RIDGE,4552,QLD,AUSTRALIA,"{'longitude': 152.88740287, 'latitude': -26.76146788}"
26 HENZELL STREET,DICKY BEACH,4551,QLD,AUSTRALIA,"{'longitude': 153.13665337, 'latitude': -26.78503725}"
9 ALLONGA STREET,CURRIMUNDI,4551,QLD,AUSTRALIA,"{'longitude': 153.12977764, 'latitude': -26.77265735}"
42 HOFFSCHILDT DRIVE,CURRUMBIN WATERS,4223,QLD,AUSTRALIA,"{'longitude': 153.46809456, 'latitude': -28.15966558}"
36 LARENTIA STREET,CURRUMBIN WATERS,4223,QLD,AUSTRALIA,"{'longitude': 153.45806727, 'latitude': -28.13909617}"
11 BRONHILL STREET,CURRUMBIN WATERS,4223,QLD,AUSTRALIA,"{'longitude': 153.45672785, 'latitude': -28.14005154}"
15 BAUHINIA COURT,CURRIMUNDI,4551,QLD,AUSTRALIA,"{'longitude': 153.11246024, 'latitude': -26.76362897}"
48 BOWEN ROAD,GLASS HOUSE MOUNTAINS,4518,QLD,AUSTRALIA,"{'longitude': 152.96294582, 'latitude': -26.90899091}"
21 NARRABRI COURT,GAVEN,4211,QLD,AUSTRALIA,"{'longitude': 153.33709059, 'latitude': -27.96170591}"
2 BILGOLA PLACE,ROBINA,4226,QLD,AUSTRALIA,"{'longitude': 153.41140771, 'latitude': -28.06665916}"
24 YOOMBA CRESCENT,ALEXANDRA HEADLAND,4572,QLD,AUSTRALIA,"{'longitude': 153.10037797, 'latitude': -26.66998139}"
14 FITZWILLIAM DRIVE,SIPPY DOWNS,4556,QLD,AUSTRALIA,"{'longitude': 153.06513243, 'latitude': -26.72684077}"
16 MURRAY CIRCUIT,UPPER COOMERA,4209,QLD,AUSTRALIA,"{'longitude': 153.28302923, 'latitude': -27.87112563}"
7 BUSHLAND PLACE,MAUDSLAND,4210,QLD,AUSTRALIA,"{'longitude': 153.29515361, 'latitude': -27.92758257}"
68 SALENG CRESCENT,WARANA,4575,QLD,AUSTRALIA,"{'longitude': 153.13329948, 'latitude': -26.7135946}"
4 LOLITA COURT,VARSITY LAKES,4227,QLD,AUSTRALIA,"{'longitude': 153.41461195, 'latitude': -28.08545383}"
"UNIT 56, 96 BEERBURRUM STREET",BATTERY HILL,4551,QLD,AUSTRALIA,"{'longitude': 153.12621297, 'latitude': -26.78343247}"
78 UNDARA AVENUE,BUDDINA,4575,QLD,AUSTRALIA,"{'longitude': 153.13227882, 'latitude': -26.69828915}"
"UNIT 2, 92 TANAH STREET WEST",MOUNT COOLUM,4573,QLD,AUSTRALIA,"{'longitude': 153.09376082, 'latitude': -26.56228046}"
12 SANDPIPER PLACE,AROONA,4551,QLD,AUSTRALIA,"{'longitude': 153.11767931, 'latitude': -26.78429334}"
"UNIT 2104, 299 NAPPER ROAD",ARUNDEL,4214,QLD,AUSTRALIA,"{'longitude': 153.34917119, 'latitude': -27.94552555}"
"UNIT 2, 194 MARINE PARADE",LABRADOR,4215,QLD,AUSTRALIA,"{'longitude': 153.40903226, 'latitude': -27.95322569}"
197 PERRINS ROAD,EUDLO,4554,QLD,AUSTRALIA,"{'longitude': 152.94111845, 'latitude': -26.74146037}"
"UNIT 9, 18 MAHIA TERRACE",KINGS BEACH,4551,QLD,AUSTRALIA,"{'longitude': 153.13913174, 'latitude': -26.80244335}"
69 CROMBIE AVENUE,BUNDALL,4217,QLD,AUSTRALIA,"{'longitude': 153.40902708, 'latitude': -28.00231871}"
"UNIT 24, 29 BURLEIGH STREET",BURLEIGH HEADS,4220,QLD,AUSTRALIA,"{'longitude': 153.44672866, 'latitude': -28.08795284}"
"UNIT 124, 17 BAYVIEW STREET",RUNAWAY BAY,4216,QLD,AUSTRALIA,"{'longitude': 153.40542326, 'latitude': -27.92425765}"
"UNIT 48, 21 BAYVIEW STREET",RUNAWAY BAY,4216,QLD,AUSTRALIA,"{'longitude': 153.40431012, 'latitude': -27.92380182}"
"UNIT 2, 27 PACIFIC BOULEVARD",BROADBEACH WATERS,4218,QLD,AUSTRALIA,"{'longitude': 153.41392954, 'latitude': -28.02143506}"
49 LATROBE AVENUE,HELENSVALE,4212,QLD,AUSTRALIA,"{'longitude': 153.33243939, 'latitude': -27.92010104}"
20 ESSEN PLACE,OXENFORD,4210,QLD,AUSTRALIA,"{'longitude': 153.30719189, 'latitude': -27.88854067}"
4 MCKENZIE DRIVE,CURRUMBIN WATERS,4223,QLD,AUSTRALIA,"{'longitude': 153.46927358, 'latitude': -28.15852615}"
"UNIT 9, 21 LEVIATHAN DRIVE",MUDGEERABA,4213,QLD,AUSTRALIA,"{'longitude': 153.38114429, 'latitude': -28.08635384}"
1822 STAPYLTON - JACOBS WELL ROAD,JACOBS WELL,4208,QLD,AUSTRALIA,"{'longitude': 153.35657975, 'latitude': -27.77800291}"
5 MEROO PLACE,UPPER COOMERA,4209,QLD,AUSTRALIA,"{'longitude': 153.27865734, 'latitude': -27.88986295}"
29 MAYFIELD STREET,ALEXANDRA HEADLAND,4572,QLD,AUSTRALIA,"{'longitude': 153.11037937, 'latitude': -26.6746011}"
"UNIT 7, 65 NEERIM DRIVE",MOOLOOLABA,4557,QLD,AUSTRALIA,"{'longitude': 153.11574788, 'latitude': -26.69384493}"
21 ATTUNGA COURT,WITTA,4552,QLD,AUSTRALIA,"{'longitude': 152.80662218, 'latitude': -26.7041777}"
7 TRITONIA DRIVE,COOLUM BEACH,4573,QLD,AUSTRALIA,"{'longitude': 153.0878238, 'latitude': -26.51070061}"
"UNIT 71, 136 PALM MEADOWS DRIVE",CARRARA,4211,QLD,AUSTRALIA,"{'longitude': 153.37151567, 'latitude': -28.02623278}"
77 MURTHA DRIVE,ELANORA,4221,QLD,AUSTRALIA,"{'longitude': 153.45982747, 'latitude': -28.13247197}"
8 MERRY STREET,PALMVIEW,4553,QLD,AUSTRALIA,"{'longitude': 153.057265, 'latitude': -26.73310501}"
8 CATHEDRAL AVENUE,MOLENDINAR,4214,QLD,AUSTRALIA,"{'longitude': 153.35977752, 'latitude': -27.97354568}"
59 BROOKFIELD STREET,PIMPAMA,4209,QLD,AUSTRALIA,"{'longitude': 153.31072386, 'latitude': -27.83345714}"
"UNIT 1, 16 ENERGY CRESCENT",MOLENDINAR,4214,QLD,AUSTRALIA,"{'longitude': 153.36332621, 'latitude': -27.96386117}"
9 KOALA STREET,STEIGLITZ,4207,QLD,AUSTRALIA,"{'longitude': 153.35565757, 'latitude': -27.73510769}"
56 OLIVIA CRESCENT,NIRIMBA,4551,QLD,AUSTRALIA,"{'longitude': 153.06209551, 'latitude': -26.81975281}"
1 MILL STREET,LANDSBOROUGH,4550,QLD,AUSTRALIA,"{'longitude': 152.9652857, 'latitude': -26.80741495}"
61 TWENTY SEVENTH AVENUE,PALM BEACH,4221,QLD,AUSTRALIA,"{'longitude': 153.45811919, 'latitude': -28.10457255}"
41 HORIZON WAY,WOOMBYE,4559,QLD,AUSTRALIA,"{'longitude': 152.96302243, 'latitude': -26.66857084}"
"UNIT 2, 27 TARONGA STREET",PALMWOODS,4555,QLD,AUSTRALIA,"{'longitude': 152.96495463, 'latitude': -26.68202006}"
56 CABARITA AVENUE,TUGUN,4224,QLD,AUSTRALIA,"{'longitude': 153.49083014, 'latitude': -28.14963531}"
37 REGATTA AVENUE,OXENFORD,4210,QLD,AUSTRALIA,"{'longitude': 153.30782468, 'latitude': -27.88689214}"
25 CHESTERTON CRESCENT,SIPPY DOWNS,4556,QLD,AUSTRALIA,"{'longitude': 153.06601733, 'latitude': -26.7273179}"
"UNIT 31H, 1 ALBERT AVENUE",BROADBEACH,4218,QLD,AUSTRALIA,"{'longitude': 153.43301336, 'latitude': -28.02773036}"
"UNIT 4, 42 ALEXANDRA PARADE",MAROOCHYDORE,4558,QLD,AUSTRALIA,"{'longitude': 153.10315791, 'latitude': -26.65667654}"
"UNIT 24, 70 NETHERTON STREET",NAMBOUR,4560,QLD,AUSTRALIA,"{'longitude': 152.9554181, 'latitude': -26.61951722}"
97 BILLINGHURST CRESCENT,UPPER COOMERA,4209,QLD,AUSTRALIA,"{'longitude': 153.30422906, 'latitude': -27.86176184}"
37 VOLANTE CRESCENT,MERMAID WATERS,4218,QLD,AUSTRALIA,"{'longitude': 153.41888844, 'latitude': -28.0415435}"
"UNIT 2, 3 OSCAR COURT",OXENFORD,4210,QLD,AUSTRALIA,"{'longitude': 153.31537944, 'latitude': -27.92021537}"
"UNIT 76, 13 MOOLOOLABA ESPLANADE",MOOLOOLABA,4557,QLD,AUSTRALIA,"{'longitude': 153.12019472, 'latitude': -26.68060974}"
"UNIT 48, 14 BOURTON ROAD",MERRIMAC,4226,QLD,AUSTRALIA,"{'longitude': 153.35767997, 'latitude': -28.05208252}"
10 FORESTRY ROAD,SPRINGBROOK,4213,QLD,AUSTRALIA,"{'longitude': 153.26685481, 'latitude': -28.19168389}"
"UNIT 12, 140 DUPORTH AVENUE",MAROOCHYDORE,4558,QLD,AUSTRALIA,"{'longitude': 153.08875757, 'latitude': -26.64797848}"
"UNIT 16, 100 OLD BURLEIGH ROAD",BROADBEACH,4218,QLD,AUSTRALIA,"{'longitude': 153.43289572, 'latitude': -28.02010912}"
6273 FERNY LANE,HOPE ISLAND,4212,QLD,AUSTRALIA,"{'longitude': 153.37165634, 'latitude': -27.85900654}"
"UNIT 3, 74 DUPORTH AVENUE",MAROOCHYDORE,4558,QLD,AUSTRALIA,"{'longitude': 153.0911022, 'latitude': -26.65027811}"
"UNIT 26, 19 ELLIS WAY",MERIDAN PLAINS,4551,QLD,AUSTRALIA,"{'longitude': 153.09957543, 'latitude': -26.77311778}"
66 BALGOWNIE DRIVE,PEREGIAN SPRINGS,4573,QLD,AUSTRALIA,"{'longitude': 153.07060607, 'latitude': -26.48420731}"
16 PIONEER CRESCENT,BUDERIM,4556,QLD,AUSTRALIA,"{'longitude': 153.0511404, 'latitude': -26.68751767}"
3 HARMES PLACE,TALLEBUDGERA,4228,QLD,AUSTRALIA,"{'longitude': 153.43930287, 'latitude': -28.119356}"
"UNIT 3, 97 GOLDEN FOUR DRIVE",BILINGA,4225,QLD,AUSTRALIA,"{'longitude': 153.51696876, 'latitude': -28.16388115}"
11 TOURANGEAU CRESCENT,VARSITY LAKES,4227,QLD,AUSTRALIA,"{'longitude': 153.40821392, 'latitude': -28.08115216}"
27 LEXINGTON DRIVE,WORONGARY,4213,QLD,AUSTRALIA,"{'longitude': 153.34776312, 'latitude': -28.03255605}"
"UNIT 10, 9 GILBERT STREET",MAROOCHYDORE,4558,QLD,AUSTRALIA,"{'longitude': 153.08629259, 'latitude': -26.65029773}"
11 STRINGYBARK DRIVE,MOLENDINAR,4214,QLD,AUSTRALIA,"{'longitude': 153.36830054, 'latitude': -27.97792937}"
"UNIT 2, 2 MARGARET STREET",PIMPAMA,4209,QLD,AUSTRALIA,"{'longitude': 153.29054846, 'latitude': -27.81810155}"
"UNIT 23, 35A GREVILLEA DRIVE",VARSITY LAKES,4227,QLD,AUSTRALIA,"{'longitude': 153.41827067, 'latitude': -28.09541852}"
68 QUAMBONE STREET,WORONGARY,4213,QLD,AUSTRALIA,"{'longitude': 153.35354232, 'latitude': -28.04636705}"
"UNIT 2, 11 TALLEBUDGERA DRIVE",PALM BEACH,4221,QLD,AUSTRALIA,"{'longitude': 153.46036694, 'latitude': -28.10122867}"
"UNIT 6, 1 VERNEY STREET",KINGS BEACH,4551,QLD,AUSTRALIA,"{'longitude': 153.14171246, 'latitude': -26.7994541}"
"UNIT 3024, 3029 THE BOULEVARD",CARRARA,4211,QLD,AUSTRALIA,"{'longitude': 153.37329739, 'latitude': -28.01611662}"
"UNIT 2, 5 TABILBAN STREET",BURLEIGH HEADS,4220,QLD,AUSTRALIA,"{'longitude': 153.45279192, 'latitude': -28.09793667}"
"UNIT 1101, 159 OLD BURLEIGH ROAD",BROADBEACH,4218,QLD,AUSTRALIA,"{'longitude': 153.43380397, 'latitude': -28.0294472}"
"UNIT 225, 21 INNOVATION PARKWAY",BIRTINYA,4575,QLD,AUSTRALIA,"{'longitude': 153.12197502, 'latitude': -26.73783841}"
9A DUKE COURT,TALLAI,4213,QLD,AUSTRALIA,"{'longitude': 153.32914159, 'latitude': -28.07145779}"
19 HUME PARADE,PARADISE POINT,4216,QLD,AUSTRALIA,"{'longitude': 153.38634038, 'latitude': -27.87748102}"
111 VALLEY DRIVE,TALLEBUDGERA,4228,QLD,AUSTRALIA,"{'longitude': 153.4386907, 'latitude': -28.14679957}"
20 LYREBIRD COURT,PEREGIAN BEACH,4573,QLD,AUSTRALIA,"{'longitude': 153.09650622, 'latitude': -26.46685395}"
12 RIDGEWAY AVENUE,SOUTHPORT,4215,QLD,AUSTRALIA,"{'longitude': 153.40597419, 'latitude': -27.98162628}"
76 WANTS ROAD,MAROOCHY RIVER,4561,QLD,AUSTRALIA,"{'longitude': 152.99414574, 'latitude': -26.55984471}"
32 BAKER FINCH AVENUE,PEACHESTER,4519,QLD,AUSTRALIA,"{'longitude': 152.8851745, 'latitude': -26.8421677}"
13 CALIFORNIA DRIVE,OXENFORD,4210,QLD,AUSTRALIA,"{'longitude': 153.31069137, 'latitude': -27.90273362}"
82 CRESCENT AVENUE,HOPE ISLAND,4212,QLD,AUSTRALIA,"{'longitude': 153.37597772, 'latitude': -27.87985045}"
15 LEAVER COURT,ORMEAU,4208,QLD,AUSTRALIA,"{'longitude': 153.23225995, 'latitude': -27.77148298}"
9 GEORGE STREET,CALOUNDRA,4551,QLD,AUSTRALIA,"{'longitude': 153.13177326, 'latitude': -26.7978442}"
"UNIT 1801, 28-30 SECOND AVENUE",BROADBEACH,4218,QLD,AUSTRALIA,"{'longitude': 153.43017894, 'latitude': -28.0196602}"
"UNIT 20, 430 PINE RIDGE ROAD",COOMBABAH,4216,QLD,AUSTRALIA,"{'longitude': 153.38439629, 'latitude': -27.91935609}"
226 PALMWOODS MONTVILLE ROAD,PALMWOODS,4555,QLD,AUSTRALIA,"{'longitude': 152.93751152, 'latitude': -26.69888016}"
"UNIT 14, 260 THE ESPLANADE",MIAMI,4220,QLD,AUSTRALIA,"{'longitude': 153.44588114, 'latitude': -28.07550493}"
"UNIT 3018, 6 CRESTRIDGE CRESCENT",OXENFORD,4210,QLD,AUSTRALIA,"{'longitude': 153.30985334, 'latitude': -27.91726584}"
69A BONOGIN ROAD,MUDGEERABA,4213,QLD,AUSTRALIA,"{'longitude': 153.36937542, 'latitude': -28.10609418}"
"UNIT 1091, 56 SCARBOROUGH STREET",SOUTHPORT,4215,QLD,AUSTRALIA,"{'longitude': 153.41427459, 'latitude': -27.9699337}"
5 GOROKA COURT,CLEAR ISLAND WATERS,4226,QLD,AUSTRALIA,"{'longitude': 153.40628339, 'latitude': -28.03422611}"
"UNIT 7, 4-6 KALYAN STREET",SURFERS PARADISE,4217,QLD,AUSTRALIA,"{'longitude': 153.42133013, 'latitude': -27.99548765}"
9 BARRON COURT,PIMPAMA,4209,QLD,AUSTRALIA,"{'longitude': 153.29406159, 'latitude': -27.83451823}"
"UNIT 2, 8-12 MARINE PARADE",MIAMI,4220,QLD,AUSTRALIA,"{'longitude': 153.44392982, 'latitude': -28.06830305}"
18 ARILLA STREET,WURTULLA,4575,QLD,AUSTRALIA,"{'longitude': 153.1247517, 'latitude': -26.76216409}"
5 HULME STREET,PALMVIEW,4553,QLD,AUSTRALIA,"{'longitude': 153.05737049, 'latitude': -26.74226537}"
100 GIBRALTAR DRIVE,SURFERS PARADISE,4217,QLD,AUSTRALIA,"{'longitude': 153.41578124, 'latitude': -28.00551304}"
"UNIT 21, 7 JUAN STREET",ALEXANDRA HEADLAND,4572,QLD,AUSTRALIA,"{'longitude': 153.10947441, 'latitude': -26.67284303}"
14 LOMANDRA CLOSE,WOOMBYE,4559,QLD,AUSTRALIA,"{'longitude': 152.9531319, 'latitude': -26.65304564}"
"UNIT 163, 2 PEREGRINE DRIVE",WURTULLA,4575,QLD,AUSTRALIA,"{'longitude': 153.12958942, 'latitude': -26.75545914}"
74 PEACHEY ROAD,ORMEAU,4208,QLD,AUSTRALIA,"{'longitude': 153.23956166, 'latitude': -27.78154591}"
51 GLEN OSMOND ROAD,YATALA,4207,QLD,AUSTRALIA,"{'longitude': 153.20659456, 'latitude': -27.76189279}"
103 GRANDVIEW DRIVE,COOLUM BEACH,4573,QLD,AUSTRALIA,"{'longitude': 153.09311004, 'latitude': -26.54262344}"
"UNIT 79, 65 KILCOY LANE",CONONDALE,4552,QLD,AUSTRALIA,"{'longitude': 152.72782883, 'latitude': -26.79782871}"
35 PILLIGA STREET,SOUTHPORT,4215,QLD,AUSTRALIA,"{'longitude': 153.39939607, 'latitude': -27.98105212}"
8 OPAL PLACE,YAROOMBA,4573,QLD,AUSTRALIA,"{'longitude': 153.08921227, 'latitude': -26.54344423}"
52 AUDREY AVENUE,HELENSVALE,4212,QLD,AUSTRALIA,"{'longitude': 153.35074096, 'latitude': -27.8864205}"
7 COOCHIN STREET,DICKY BEACH,4551,QLD,AUSTRALIA,"{'longitude': 153.13547521, 'latitude': -26.78091268}"
2218 TAROMEO COURT,HOPE ISLAND,4212,QLD,AUSTRALIA,"{'longitude': 153.34645555, 'latitude': -27.87039569}"
"UNIT 1, 12 ERBACHER ROAD",NAMBOUR,4560,QLD,AUSTRALIA,"{'longitude': 152.96098969, 'latitude': -26.63893612}"
66 PHILIPPINE PARADE,PALM BEACH,4221,QLD,AUSTRALIA,"{'longitude': 153.46836369, 'latitude': -28.12123878}"
4 STONEHAVEN PLACE,HIGHLAND PARK,4211,QLD,AUSTRALIA,"{'longitude': 153.32746153, 'latitude': -28.00736885}"
51 CURRUMBURRA ROAD,ASHMORE,4214,QLD,AUSTRALIA,"{'longitude': 153.38328847, 'latitude': -27.99453542}"
42 PARKWAY TERRACE,PALMVIEW,4553,QLD,AUSTRALIA,"{'longitude': 153.05858358, 'latitude': -26.74147229}"
17 WADDIWONG ROAD,COOMERA,4209,QLD,AUSTRALIA,"{'longitude': 153.36104082, 'latitude': -27.84709704}"
180 TAHITI AVENUE,PALM BEACH,4221,QLD,AUSTRALIA,"{'longitude': 153.46316405, 'latitude': -28.1167302}"
1 BLUEJAY STREET,BURLEIGH WATERS,4220,QLD,AUSTRALIA,"{'longitude': 153.43844056, 'latitude': -28.08387168}"
"UNIT 8, 9 LORD STREET",COOLANGATTA,4225,QLD,AUSTRALIA,"{'longitude': 153.52850017, 'latitude': -28.16857909}"
155 ESPLANADE,GOLDEN BEACH,4551,QLD,AUSTRALIA,"{'longitude': 153.11673829, 'latitude': -26.83731766}"
"UNIT 411, 45 BOTANICA DRIVE",SIPPY DOWNS,4556,QLD,AUSTRALIA,"{'longitude': 153.05550414, 'latitude': -26.71330516}"
35 WAPPA FALLS ROAD,YANDINA,4561,QLD,AUSTRALIA,"{'longitude': 152.95185796, 'latitude': -26.5698744}"
11 MATINA STREET,BIGGERA WATERS,4216,QLD,AUSTRALIA,"{'longitude': 153.40203553, 'latitude': -27.93262669}"
7 STRINGYBARK PLACE,PEREGIAN SPRINGS,4573,QLD,AUSTRALIA,"{'longitude': 153.07849037, 'latitude': -26.50373693}"
7 KURANDA CLOSE,BUDERIM,4556,QLD,AUSTRALIA,"{'longitude': 153.04791717, 'latitude': -26.70518606}"
"UNIT 216, 38 MAHOGANY DRIVE",PELICAN WATERS,4551,QLD,AUSTRALIA,"{'longitude': 153.09150363, 'latitude': -26.83699929}"
64 EDISON CRESCENT,BARINGA,4551,QLD,AUSTRALIA,"{'longitude': 153.06794097, 'latitude': -26.80179469}"
"UNIT 603, 28 NORTHCLIFFE TERRACE",SURFERS PARADISE,4217,QLD,AUSTRALIA,"{'longitude': 153.43105179, 'latitude': -28.00755961}"
37 HAKEA AVENUE,MALENY,4552,QLD,AUSTRALIA,"{'longitude': 152.84353326, 'latitude': -26.76018492}"
"UNIT 2, 22 OGILVIE CRESCENT",NERANG,4211,QLD,AUSTRALIA,"{'longitude': 153.31518487, 'latitude': -27.99921383}"
"UNIT 6, 22 LAWSON STREET",SOUTHPORT,4215,QLD,AUSTRALIA,"{'longitude': 153.41153391, 'latitude': -27.9714662}"
155 ALFS PINCH ROAD,BEERWAH,4519,QLD,AUSTRALIA,"{'longitude': 152.92376279, 'latitude': -26.84315262}"
2 LAVINIA STREET,SOUTHPORT,4215,QLD,AUSTRALIA,"{'longitude': 153.3991438, 'latitude': -27.99007296}"
8 TREECREEPER CRESCENT,UPPER COOMERA,4209,QLD,AUSTRALIA,"{'longitude': 153.29284129, 'latitude': -27.84544821}"
"UNIT 1018, 154 MUSGRAVE AVENUE",SOUTHPORT,4215,QLD,AUSTRALIA,"{'longitude': 153.38824258, 'latitude': -27.95603986}"
52 WESTHOLME CIRCUIT,PELICAN WATERS,4551,QLD,AUSTRALIA,"{'longitude': 153.10680684, 'latitude': -26.81866257}"
27 ALLAMBI AVENUE,BROADBEACH WATERS,4218,QLD,AUSTRALIA,"{'longitude': 153.42212186, 'latitude': -28.02086427}"
"UNIT 39, 27 RAIN TREE GLEN",COOMBABAH,4216,QLD,AUSTRALIA,"{'longitude': 153.38126841, 'latitude': -27.92071077}"
29 NINGALOO DRIVE,PIMPAMA,4209,QLD,AUSTRALIA,"{'longitude': 153.30470489, 'latitude': -27.81817046}"
26 FOREST GROVE CRESCENT,SIPPY DOWNS,4556,QLD,AUSTRALIA,"{'longitude': 153.05312711, 'latitude': -26.72888488}"
207 BLACKALL RANGE ROAD,WEST WOOMBYE,4559,QLD,AUSTRALIA,"{'longitude': 152.94534131, 'latitude': -26.66199931}"
"UNIT 3, 16 SUNBIRD STREET",BURLEIGH WATERS,4220,QLD,AUSTRALIA,"{'longitude': 153.43690966, 'latitude': -28.08046403}"
"UNIT 1063, 1 OCEAN STREET",BURLEIGH HEADS,4220,QLD,AUSTRALIA,"{'longitude': 153.45309205, 'latitude': -28.09139951}"
3 MCKENZIE ROAD,WOOMBYE,4559,QLD,AUSTRALIA,"{'longitude': 152.96170728, 'latitude': -26.64450778}"
"UNIT 85, 215 COTTESLOE DRIVE",MERMAID WATERS,4218,QLD,AUSTRALIA,"{'longitude': 153.42156759, 'latitude': -28.05996259}"
3 CAMELOT CRESCENT,HOLLYWELL,4216,QLD,AUSTRALIA,"{'longitude': 153.3897717, 'latitude': -27.89248104}"
"UNIT 41, 19 YAUN STREET",COOMERA,4209,QLD,AUSTRALIA,"{'longitude': 153.31968669, 'latitude': -27.87154357}"
"UNIT 15, 4 MARINE PARADE",SOUTHPORT,4215,QLD,AUSTRALIA,"{'longitude': 153.41739788, 'latitude': -27.97138862}"
9 WOOLLAHRA COURT,VARSITY LAKES,4227,QLD,AUSTRALIA,"{'longitude': 153.41627848, 'latitude': -28.0943525}"
12 COSTELLOE STREET,TUGUN,4224,QLD,AUSTRALIA,"{'longitude': 153.4854466, 'latitude': -28.14878556}"
"UNIT 10, 10 KYAMBA COURT",MOOLOOLABA,4557,QLD,AUSTRALIA,"{'longitude': 153.11559864, 'latitude': -26.68570983}"
258 BLACKALL RANGE ROAD,WEST WOOMBYE,4559,QLD,AUSTRALIA,"{'longitude': 152.94096928, 'latitude': -26.66156466}"
"UNIT 11, 40 SUNBIRD STREET",BURLEIGH WATERS,4220,QLD,AUSTRALIA,"{'longitude': 153.43503396, 'latitude': -28.08209825}"
"UNIT 409, 7 SPRING STREET",SIPPY DOWNS,4556,QLD,AUSTRALIA,"{'longitude': 153.05432804, 'latitude': -26.71555203}"
"UNIT 6, 3 TATE STREET",SOUTHPORT,4215,QLD,AUSTRALIA,"{'longitude': 153.40914828, 'latitude': -27.96155178}"
14 PAPERBARK CRESCENT,COOMERA,4209,QLD,AUSTRALIA,"{'longitude': 153.33535382, 'latitude': -27.83662171}"
14 BARKSTON COURT,BUDERIM,4556,QLD,AUSTRALIA,"{'longitude': 153.07674777, 'latitude': -26.69711832}"
8 CROYDON AVENUE,CURRIMUNDI,4551,QLD,AUSTRALIA,"{'longitude': 153.12821248, 'latitude': -26.76742791}"
1 ASCOT WAY,LITTLE MOUNTAIN,4551,QLD,AUSTRALIA,"{'longitude': 153.08584542, 'latitude': -26.7868842}"
2 BRINDABELLA CLOSE,COOMERA,4209,QLD,AUSTRALIA,"{'longitude': 153.36734941, 'latitude': -27.8463247}"
3 THYME COURT,RUNAWAY BAY,4216,QLD,AUSTRALIA,"{'longitude': 153.38851128, 'latitude': -27.91588124}"
11 ATLAS CRESCENT,BENOWA,4217,QLD,AUSTRALIA,"{'longitude': 153.39423717, 'latitude': -27.99978816}"
47 SUGARBAG ROAD,LITTLE MOUNTAIN,4551,QLD,AUSTRALIA,"{'longitude': 153.10047983, 'latitude': -26.78428426}"
18 COSSINGTON CIRCUIT,MAUDSLAND,4210,QLD,AUSTRALIA,"{'longitude': 153.29991237, 'latitude': -27.93235052}"
"UNIT 9, 87 BUNDILLA BOULEVARD",MOUNTAIN CREEK,4557,QLD,AUSTRALIA,"{'longitude': 153.10688568, 'latitude': -26.69772411}"
26 RIVIERA ROAD,MIAMI,4220,QLD,AUSTRALIA,"{'longitude': 153.44126337, 'latitude': -28.06733973}"
3 KUSKOPF PLACE,WOOMBYE,4559,QLD,AUSTRALIA,"{'longitude': 152.96752538, 'latitude': -26.66478085}"
14 BULLANDO STREET,WARANA,4575,QLD,AUSTRALIA,"{'longitude': 153.1306281, 'latitude': -26.72931618}"
4 YANDALA PLACE,TALLEBUDGERA,4228,QLD,AUSTRALIA,"{'longitude': 153.40594714, 'latitude': -28.14992816}"
29 ELLIOT DRIVE,BUDERIM,4556,QLD,AUSTRALIA,"{'longitude': 153.06635291, 'latitude': -26.69886478}"
29 MAUD STREET,MAROOCHYDORE,4558,QLD,AUSTRALIA,"{'longitude': 153.09376809, 'latitude': -26.65831484}"
1 PARKGLEN PLACE,MALENY,4552,QLD,AUSTRALIA,"{'longitude': 152.84813573, 'latitude': -26.75578348}"
"SHOP 3, 31 RAILWAY STREET",MUDGEERABA,4213,QLD,AUSTRALIA,"{'longitude': 153.3643392, 'latitude': -28.07590425}"
"UNIT 35, 601 PINE RIDGE ROAD",BIGGERA WATERS,4216,QLD,AUSTRALIA,"{'longitude': 153.38082007, 'latitude': -27.92443742}"
85 BLOOM AVENUE,COOMERA,4209,QLD,AUSTRALIA,"{'longitude': 153.32345465, 'latitude': -27.8450498}"
"UNIT 402, 9 TRICKETT STREET",SURFERS PARADISE,4217,QLD,AUSTRALIA,"{'longitude': 153.43041409, 'latitude': -28.00345501}"
14 LINDWALL PLACE,CURRUMBIN VALLEY,4223,QLD,AUSTRALIA,"{'longitude': 153.44422994, 'latitude': -28.16310953}"
4 BLOODWOOD CRESCENT,MOLENDINAR,4214,QLD,AUSTRALIA,"{'longitude': 153.37166323, 'latitude': -27.97794971}"
35 ESCOLAR DRIVE,MOUNTAIN CREEK,4557,QLD,AUSTRALIA,"{'longitude': 153.09428592, 'latitude': -26.70576844}"
"UNIT 2, 9 HOLLYWOOD PLACE",OXENFORD,4210,QLD,AUSTRALIA,"{'longitude': 153.31916908, 'latitude': -27.92076601}"
"UNIT 1, 3 RAILWAY STREET",SOUTHPORT,4215,QLD,AUSTRALIA,"{'longitude': 153.41242398, 'latitude': -27.96214067}"
2231 SPRINGBROOK ROAD,SPRINGBROOK,4213,QLD,AUSTRALIA,"{'longitude': 153.25894548, 'latitude': -28.18376585}"
"UNIT 39, 1 BRONBERG COURT",SOUTHPORT,4215,QLD,AUSTRALIA,"{'longitude': 153.40044922, 'latitude': -27.99592545}"
"UNIT 34, 5 BORDER DRIVE NORTH",CURRUMBIN WATERS,4223,QLD,AUSTRALIA,"{'longitude': 153.4787861, 'latitude': -28.15401274}"
32 GURRAH AVENUE,SOUTHPORT,4215,QLD,AUSTRALIA,"{'longitude': 153.39366852, 'latitude': -27.97841283}"
32 GEORGE STREET EAST,BURLEIGH HEADS,4220,QLD,AUSTRALIA,"{'longitude': 153.45404829, 'latitude': -28.094385}"
"UNIT 213, 1 TOOMBUL AVENUE",MIAMI,4220,QLD,AUSTRALIA,"{'longitude': 153.44424951, 'latitude': -28.07451164}"
"UNIT 7, 19 HEATH STREET",SOUTHPORT,4215,QLD,AUSTRALIA,"{'longitude': 153.41738392, 'latitude': -27.97588021}"
5 COUNTY CLOSE,PARKWOOD,4214,QLD,AUSTRALIA,"{'longitude': 153.35213442, 'latitude': -27.95008389}"
100 CUNNING ROAD,TANAWHA,4556,QLD,AUSTRALIA,"{'longitude': 153.03495383, 'latitude': -26.72713562}"
177 BURLEIGH STREET,BURLEIGH WATERS,4220,QLD,AUSTRALIA,"{'longitude': 153.4405316, 'latitude': -28.07845023}"
3 ELEVATE PLACE,BURNSIDE,4560,QLD,AUSTRALIA,"{'longitude': 152.94323093, 'latitude': -26.63706808}"
26 DOBELL AVENUE,PARADISE POINT,4216,QLD,AUSTRALIA,"{'longitude': 153.38899879, 'latitude': -27.87927724}"
10 WAIMEA DRIVE,VARSITY LAKES,4227,QLD,AUSTRALIA,"{'longitude': 153.4052826, 'latitude': -28.08881213}"
51 PANACHE STREET,MOLENDINAR,4214,QLD,AUSTRALIA,"{'longitude': 153.37119295, 'latitude': -27.97438214}"
27 SAMUEL WALKER STREET,BARINGA,4551,QLD,AUSTRALIA,"{'longitude': 153.07460095, 'latitude': -26.81108912}"
"UNIT 18B, 973 GOLD COAST HIGHWAY",PALM BEACH,4221,QLD,AUSTRALIA,"{'longitude': 153.47612763, 'latitude': -28.12517309}"
44 GREENVIEW CIRCUIT,ARUNDEL,4214,QLD,AUSTRALIA,"{'longitude': 153.34408631, 'latitude': -27.9399029}"
14 MERTON DRIVE,UPPER COOMERA,4209,QLD,AUSTRALIA,"{'longitude': 153.3066175, 'latitude': -27.86459671}"
23 WAGTAIL CLOSE,BUDERIM,4556,QLD,AUSTRALIA,"{'longitude': 153.08996551, 'latitude': -26.68112086}"
25 AGNEW ROAD,MOUNT MELLUM,4550,QLD,AUSTRALIA,"{'longitude': 152.92754293, 'latitude': -26.81850192}"
"UNIT 2303, 5 HARBOUR SIDE COURT",BIGGERA WATERS,4216,QLD,AUSTRALIA,"{'longitude': 153.39473704, 'latitude': -27.93195067}"
2 KINGSLEY STREET,LABRADOR,4215,QLD,AUSTRALIA,"{'longitude': 153.40228917, 'latitude': -27.94669162}"
78 SUNSET BOULEVARD,SURFERS PARADISE,4217,QLD,AUSTRALIA,"{'longitude': 153.4210466, 'latitude': -28.00240391}"
295 DAVID LOW WAY,BLI BLI,4560,QLD,AUSTRALIA,"{'longitude': 153.04262672, 'latitude': -26.62532348}"
36 COOLIBAH STREET,MUDJIMBA,4564,QLD,AUSTRALIA,"{'longitude': 153.09530797, 'latitude': -26.61239085}"
"UNIT 11, 1 PINES LANE",ELANORA,4221,QLD,AUSTRALIA,"{'longitude': 153.46406151, 'latitude': -28.12635627}"
"UNIT 3, 53 JOHNSTON STREET",SOUTHPORT,4215,QLD,AUSTRALIA,"{'longitude': 153.40497084, 'latitude': -27.96516315}"
"UNIT 12, 111 OLD BURLEIGH ROAD",BROADBEACH,4218,QLD,AUSTRALIA,"{'longitude': 153.4326986, 'latitude': -28.0239106}"
"UNIT 74, 96 BEERBURRUM STREET",BATTERY HILL,4551,QLD,AUSTRALIA,"{'longitude': 153.12534057, 'latitude': -26.78331991}"
26 ARTHUR STREET,MERMAID BEACH,4218,QLD,AUSTRALIA,"{'longitude': 153.43808896, 'latitude': -28.05149864}"
12 RIDGECROP STREET,UPPER COOMERA,4209,QLD,AUSTRALIA,"{'longitude': 153.29620365, 'latitude': -27.86112787}"
"UNIT 46, 15-21 BREAKER STREET",MAIN BEACH,4217,QLD,AUSTRALIA,"{'longitude': 153.42668162, 'latitude': -27.98118667}"
"UNIT 22, 387 GOLDEN FOUR DRIVE",TUGUN,4224,QLD,AUSTRALIA,"{'longitude': 153.49871799, 'latitude': -28.1468293}"
1 KAWANA STREET,ALEXANDRA HEADLAND,4572,QLD,AUSTRALIA,"{'longitude': 153.10307521, 'latitude': -26.67379264}"
39 NINETEENTH AVENUE,PALM BEACH,4221,QLD,AUSTRALIA,"{'longitude': 153.46271822, 'latitude': -28.11075141}"
34 CAMBERWELL CIRCUIT,ROBINA,4226,QLD,AUSTRALIA,"{'longitude': 153.39750871, 'latitude': -28.0584482}"
18 REDSTART STREET,UPPER COOMERA,4209,QLD,AUSTRALIA,"{'longitude': 153.29281658, 'latitude': -27.87305051}"
16 CENTENNIAL PLACE,LITTLE MOUNTAIN,4551,QLD,AUSTRALIA,"{'longitude': 153.0901387, 'latitude': -26.77735088}"
"UNIT 2, 9 WAGTAIL COURT",BURLEIGH WATERS,4220,QLD,AUSTRALIA,"{'longitude': 153.43477733, 'latitude': -28.08557592}"
"UNIT 20, 10-12 LENNEBERG STREET",SOUTHPORT,4215,QLD,AUSTRALIA,"{'longitude': 153.41381676, 'latitude': -27.9756336}"
50 QUEEN STREET,SOUTHPORT,4215,QLD,AUSTRALIA,"{'longitude': 153.41510393, 'latitude': -27.97355609}"
"UNIT 1404, 2 AQUA STREET",SOUTHPORT,4215,QLD,AUSTRALIA,"{'longitude': 153.41782293, 'latitude': -27.97669736}"
"UNIT 3, 462 COOLANGATTA ROAD",TUGUN,4224,QLD,AUSTRALIA,"{'longitude': 153.49661089, 'latitude': -28.14720471}"
"UNIT 4G, 50 OLD BURLEIGH ROAD",SURFERS PARADISE,4217,QLD,AUSTRALIA,"{'longitude': 153.432527, 'latitude': -28.01665908}"
103 GIBRALTAR DRIVE,SURFERS PARADISE,4217,QLD,AUSTRALIA,"{'longitude': 153.41658702, 'latitude': -28.00488239}"
8 PARK LANE,SOUTHPORT,4215,QLD,AUSTRALIA,"{'longitude': 153.41615375, 'latitude': -27.97252928}"
"UNIT 706, 1 HIGH STREET",SIPPY DOWNS,4556,QLD,AUSTRALIA,"{'longitude': 153.05624941, 'latitude': -26.71552021}"
21 PHAETON STREET,UPPER COOMERA,4209,QLD,AUSTRALIA,"{'longitude': 153.29696841, 'latitude': -27.85371446}"
7 LALOR ROAD,YANDINA,4561,QLD,AUSTRALIA,"{'longitude': 152.95915984, 'latitude': -26.55130581}"
"UNIT 1, 15 BURRA STREET",SURFERS PARADISE,4217,QLD,AUSTRALIA,"{'longitude': 153.42049456, 'latitude': -27.99746399}"
"UNIT 96, 128 BENOWA ROAD",SOUTHPORT,4215,QLD,AUSTRALIA,"{'longitude': 153.39930727, 'latitude': -27.99292938}"
25 GOOLABAH DRIVE,TALLEBUDGERA,4228,QLD,AUSTRALIA,"{'longitude': 153.41119877, 'latitude': -28.14723021}"
44 BALONNE COURT,UPPER COOMERA,4209,QLD,AUSTRALIA,"{'longitude': 153.27826054, 'latitude': -27.87398417}"
"UNIT 2106, 9 FERNY AVENUE",SURFERS PARADISE,4217,QLD,AUSTRALIA,"{'longitude': 153.42736559, 'latitude': -28.00074746}"
"UNIT 38, 2 PANDANUS PLACE",UPPER COOMERA,4209,QLD,AUSTRALIA,"{'longitude': 153.29881505, 'latitude': -27.86796873}"
"UNIT 108, 133 SCARBOROUGH STREET",SOUTHPORT,4215,QLD,AUSTRALIA,"{'longitude': 153.4124675, 'latitude': -27.96445585}"
3 KEEL COURT,WURTULLA,4575,QLD,AUSTRALIA,"{'longitude': 153.12535873, 'latitude': -26.75124592}"
9 DOWLING DRIVE,SOUTHPORT,4215,QLD,AUSTRALIA,"{'longitude': 153.39965152, 'latitude': -27.96329883}"
433 BLACKALL RANGE ROAD,WEST WOOMBYE,4559,QLD,AUSTRALIA,"{'longitude': 152.92349956, 'latitude': -26.66961297}"
"UNIT 14, 1 LAKEHEAD DRIVE",SIPPY DOWNS,4556,QLD,AUSTRALIA,"{'longitude': 153.05050543, 'latitude': -26.72033761}"
64 BRIDIE DRIVE,UPPER COOMERA,4209,QLD,AUSTRALIA,"{'longitude': 153.28731424, 'latitude': -27.84660942}"
520 NICKLIN WAY,WURTULLA,4575,QLD,AUSTRALIA,"{'longitude': 153.12799966, 'latitude': -26.75198264}"
"UNIT 2, 11 SWINBURNE STREET",VARSITY LAKES,4227,QLD,AUSTRALIA,"{'longitude': 153.4222509, 'latitude': -28.08170066}"
"UNIT 2, 15 BINSTEAD DRIVE",SOUTHPORT,4215,QLD,AUSTRALIA,"{'longitude': 153.39509053, 'latitude': -27.97379093}"
"UNIT 3, 88 POHLMAN STREET",SOUTHPORT,4215,QLD,AUSTRALIA,"{'longitude': 153.40201966, 'latitude': -27.97258153}"
"UNIT 27, 7 GRAND PARADE",PARREARRA,4575,QLD,AUSTRALIA,"{'longitude': 153.12262187, 'latitude': -26.71005421}"
"UNIT 602, 75 ESPLANADE",GOLDEN BEACH,4551,QLD,AUSTRALIA,"{'longitude': 153.12098424, 'latitude': -26.82152188}"
"UNIT 2, 44 BEAUMONT DRIVE",PIMPAMA,4209,QLD,AUSTRALIA,"{'longitude': 153.32169492, 'latitude': -27.8263839}"
20 POINT CARTWRIGHT DRIVE,BUDDINA,4575,QLD,AUSTRALIA,"{'longitude': 153.13324836, 'latitude': -26.68919786}"
19 ROBINSON PLACE,CURRUMBIN WATERS,4223,QLD,AUSTRALIA,"{'longitude': 153.46967275, 'latitude': -28.16119053}"
4 KERSHAN STREET,MUDGEERABA,4213,QLD,AUSTRALIA,"{'longitude': 153.3536211, 'latitude': -28.08467383}"
1 ROWELL STREET,BATTERY HILL,4551,QLD,AUSTRALIA,"{'longitude': 153.13241481, 'latitude': -26.77873557}"
26 LEARNING STREET,COOMERA,4209,QLD,AUSTRALIA,"{'longitude': 153.33719259, 'latitude': -27.84766839}"
12 LITTLE LORIKEET COURT,GILSTON,4211,QLD,AUSTRALIA,"{'longitude': 153.31983164, 'latitude': -28.02337973}"
6 BURRUMA COURT,COES CREEK,4560,QLD,AUSTRALIA,"{'longitude': 152.9505757, 'latitude': -26.6483584}"
15 TRUNDLE STREET,DICKY BEACH,4551,QLD,AUSTRALIA,"{'longitude': 153.13080787, 'latitude': -26.78366665}"
"UNIT 19, 7 BOX STREET",BUDERIM,4556,QLD,AUSTRALIA,"{'longitude': 153.06069726, 'latitude': -26.68428219}"
14 MIDDLE STREET,LABRADOR,4215,QLD,AUSTRALIA,"{'longitude': 153.40425759, 'latitude': -27.9400686}"
"UNIT 9, 54 GEMVALE ROAD",REEDY CREEK,4227,QLD,AUSTRALIA,"{'longitude': 153.39623838, 'latitude': -28.09905377}"
"UNIT 5, 34 MALOJA AVENUE",CALOUNDRA,4551,QLD,AUSTRALIA,"{'longitude': 153.12666258, 'latitude': -26.80550651}"
28 GUARA GROVE,PIMPAMA,4209,QLD,AUSTRALIA,"{'longitude': 153.27823732, 'latitude': -27.80544237}"
15 JOTOWN DRIVE,COOMERA,4209,QLD,AUSTRALIA,"{'longitude': 153.33211303, 'latitude': -27.85248826}"
21 SAFFRON DRIVE,CURRIMUNDI,4551,QLD,AUSTRALIA,"{'longitude': 153.11653536, 'latitude': -26.77012665}"
"UNIT 20, 15 BRIDGMAN DRIVE",REEDY CREEK,4227,QLD,AUSTRALIA,"{'longitude': 153.39862434, 'latitude': -28.10401422}"
41 CUMBERLAND WAY,BUDERIM,4556,QLD,AUSTRALIA,"{'longitude': 153.08749434, 'latitude': -26.67282114}"
73 AVANTI STREET,MERMAID WATERS,4218,QLD,AUSTRALIA,"{'longitude': 153.43179088, 'latitude': -28.04223141}"
1 LAPWING STREET,FOREST GLEN,4556,QLD,AUSTRALIA,"{'longitude': 153.01769308, 'latitude': -26.67485766}"
51 CRESCENT AVENUE,HOPE ISLAND,4212,QLD,AUSTRALIA,"{'longitude': 153.37468408, 'latitude': -27.87551973}"
40 CHRISTINE AVENUE,MIAMI,4220,QLD,AUSTRALIA,"{'longitude': 153.44165745, 'latitude': -28.07783255}"
96 TEPEQUAR DRIVE,MAROOCHYDORE,4558,QLD,AUSTRALIA,"{'longitude': 153.07231619, 'latitude': -26.6488389}"
25 ARCADIA DRIVE,BEERWAH,4519,QLD,AUSTRALIA,"{'longitude': 152.95027003, 'latitude': -26.85177111}"
"UNIT 5, 110 PACIFIC PARADE",BILINGA,4225,QLD,AUSTRALIA,"{'longitude': 153.51634271, 'latitude': -28.16303548}"
"UNIT 5, 5 GOONAWARRA DRIVE",MOOLOOLABA,4557,QLD,AUSTRALIA,"{'longitude': 153.11617341, 'latitude': -26.68227414}"
31-35 MAIN STREET,MONTVILLE,4560,QLD,AUSTRALIA,"{'longitude': 152.88530313, 'latitude': -26.68170639}"
"UNIT 11, 43 MURTHA DRIVE",ELANORA,4221,QLD,AUSTRALIA,"{'longitude': 153.46074162, 'latitude': -28.1331654}"
14 JOHNATHON CLOSE,JACOBS WELL,4208,QLD,AUSTRALIA,"{'longitude': 153.36269183, 'latitude': -27.78206632}"
15 PIPI PLACE,MOUNTAIN CREEK,4557,QLD,AUSTRALIA,"{'longitude': 153.10280678, 'latitude': -26.69397454}"
1 GREENHAVEN DRIVE,PALMVIEW,4553,QLD,AUSTRALIA,"{'longitude': 153.04821031, 'latitude': -26.75859474}"
10 DOLPHIN DRIVE,NAMBOUR,4560,QLD,AUSTRALIA,"{'longitude': 152.94425457, 'latitude': -26.62602981}"
5 LAVENDER CLOSE,GLENVIEW,4553,QLD,AUSTRALIA,"{'longitude': 153.01237626, 'latitude': -26.76393324}"
15A LOTUS AVENUE,HOLLYWELL,4216,QLD,AUSTRALIA,"{'longitude': 153.39932037, 'latitude': -27.89657386}"
"UNIT 2, 7 SYKES AVENUE",KINGS BEACH,4551,QLD,AUSTRALIA,"{'longitude': 153.14213806, 'latitude': -26.79976729}"
"UNIT 2012, 2-14 THE ESPLANADE",BURLEIGH HEADS,4220,QLD,AUSTRALIA,"{'longitude': 153.45067728, 'latitude': -28.08790574}"
3 ARMIDALE CRESCENT,HELENSVALE,4212,QLD,AUSTRALIA,"{'longitude': 153.33606231, 'latitude': -27.91390703}"
5 VIOLET STREET,CALOUNDRA WEST,4551,QLD,AUSTRALIA,"{'longitude': 153.09525436, 'latitude': -26.8062955}"
"UNIT 4, 18 ARWEN STREET",MAROOCHYDORE,4558,QLD,AUSTRALIA,"{'longitude': 153.0687738, 'latitude': -26.65370667}"
20 NAMATJIRA COURT,BROADBEACH WATERS,4218,QLD,AUSTRALIA,"{'longitude': 153.39250765, 'latitude': -28.029372}"
"UNIT 11, 9 OCEAN STREET",COOLANGATTA,4225,QLD,AUSTRALIA,"{'longitude': 153.52543348, 'latitude': -28.17106873}"
"UNIT 6, 53 STAPYLTON STREET",COOLANGATTA,4225,QLD,AUSTRALIA,"{'longitude': 153.53610524, 'latitude': -28.17308948}"
"UNIT 1, 26 TOWNSHIP DRIVE",BURLEIGH HEADS,4220,QLD,AUSTRALIA,"{'longitude': 153.43729976, 'latitude': -28.11263896}"
13 SHARON CRESCENT,MOUNTAIN CREEK,4557,QLD,AUSTRALIA,"{'longitude': 153.10041831, 'latitude': -26.69214169}"
180 NORTH HILL DRIVE,ROBINA,4226,QLD,AUSTRALIA,"{'longitude': 153.36636658, 'latitude': -28.07034944}"
46 WALLABY DRIVE,MUDGEERABA,4213,QLD,AUSTRALIA,"{'longitude': 153.34664059, 'latitude': -28.1021965}"
"UNIT 1, 33 MOOLOOLAH DRIVE",MINYAMA,4575,QLD,AUSTRALIA,"{'longitude': 153.12317824, 'latitude': -26.69340125}"
135 UNIVERSAL STREET,OXENFORD,4210,QLD,AUSTRALIA,"{'longitude': 153.31204292, 'latitude': -27.92340706}"
3 SANCTUARY GROVE DRIVE,BUDERIM,4556,QLD,AUSTRALIA,"{'longitude': 153.05758565, 'latitude': -26.70560669}"
"UNIT 3, 69 MCLEAN STREET",COOLANGATTA,4225,QLD,AUSTRALIA,"{'longitude': 153.5344984, 'latitude': -28.17073931}"
7 FIREFLY STREET,PELICAN WATERS,4551,QLD,AUSTRALIA,"{'longitude': 153.10385491, 'latitude': -26.83054465}"
8 CHESTERFIELD PLACE,RUNAWAY BAY,4216,QLD,AUSTRALIA,"{'longitude': 153.40011163, 'latitude': -27.91985931}"
14 SWORDFISH COURT,PALM BEACH,4221,QLD,AUSTRALIA,"{'longitude': 153.46279966, 'latitude': -28.11384341}"
"UNIT 24, 1 ORMONDE TERRACE",KINGS BEACH,4551,QLD,AUSTRALIA,"{'longitude': 153.14144881, 'latitude': -26.80256439}"
6 SILVEREYE CIRCUIT,GILSTON,4211,QLD,AUSTRALIA,"{'longitude': 153.31659088, 'latitude': -28.01981265}"
"UNIT 313, 17 BATH STREET",LABRADOR,4215,QLD,AUSTRALIA,"{'longitude': 153.40627643, 'latitude': -27.93979226}"
9 MARLEE COURT,BURLEIGH HEADS,4220,QLD,AUSTRALIA,"{'longitude': 153.4209723, 'latitude': -28.12146789}"
3 CYPRESS COURT,MINYAMA,4575,QLD,AUSTRALIA,"{'longitude': 153.12373413, 'latitude': -26.68970628}"
34 TIMBERTOP STREET,BUDERIM,4556,QLD,AUSTRALIA,"{'longitude': 153.06260445, 'latitude': -26.66665922}"
30 KATUNGA CIRCUIT,ORMEAU,4208,QLD,AUSTRALIA,"{'longitude': 153.24582866, 'latitude': -27.76687081}"
23 BELLS ESPLANADE,PELICAN WATERS,4551,QLD,AUSTRALIA,"{'longitude': 153.1007376, 'latitude': -26.84455308}"
47 GREAT KEPPEL WAY,BANYA,4551,QLD,AUSTRALIA,"{'longitude': 153.05140247, 'latitude': -26.82700087}"
63 WOODGEE STREET,CURRUMBIN,4223,QLD,AUSTRALIA,"{'longitude': 153.48756706, 'latitude': -28.13208508}"
7 TRADEWINDS AVENUE,PARADISE POINT,4216,QLD,AUSTRALIA,"{'longitude': 153.3874082, 'latitude': -27.88721723}"
"UNIT 2, 93 YANDINA - COOLUM ROAD",COOLUM BEACH,4573,QLD,AUSTRALIA,"{'longitude': 153.08319096, 'latitude': -26.53469152}"
16 MERRIMAN COURT,PALMWOODS,4555,QLD,AUSTRALIA,"{'longitude': 152.95856226, 'latitude': -26.69197406}"
12 THRUSH AVENUE,PARADISE POINT,4216,QLD,AUSTRALIA,"{'longitude': 153.38914482, 'latitude': -27.88600909}"
"UNIT 6, 4 HAIG STREET",COOLANGATTA,4225,QLD,AUSTRALIA,"{'longitude': 153.52684556, 'latitude': -28.16806696}"
44 WILLIS ROAD,BLI BLI,4560,QLD,AUSTRALIA,"{'longitude': 153.03113895, 'latitude': -26.61046143}"
22 MCGREGOR COURT,MOOLOOLAH VALLEY,4553,QLD,AUSTRALIA,"{'longitude': 152.95867703, 'latitude': -26.77479476}"
141 WITT AVENUE,CARRARA,4211,QLD,AUSTRALIA,"{'longitude': 153.38501456, 'latitude': -28.01728836}"
"UNIT 1, 28 DENHAM CIRCUIT",WILLOW VALE,4209,QLD,AUSTRALIA,"{'longitude': 153.28047661, 'latitude': -27.82628188}"
25 UNDARA AVENUE,BUDDINA,4575,QLD,AUSTRALIA,"{'longitude': 153.13286571, 'latitude': -26.69514884}"
42 MACDONALD STREET,DICKY BEACH,4551,QLD,AUSTRALIA,"{'longitude': 153.13430481, 'latitude': -26.78705519}"
3 DAVIES STREET,PACIFIC PINES,4211,QLD,AUSTRALIA,"{'longitude': 153.30712939, 'latitude': -27.9290174}"
37 GALAPAGOS WAY,PACIFIC PINES,4211,QLD,AUSTRALIA,"{'longitude': 153.33201978, 'latitude': -27.94210647}"
15 MALTMAN STREET NORTH,MOFFAT BEACH,4551,QLD,AUSTRALIA,"{'longitude': 153.13751591, 'latitude': -26.79554625}"
"UNIT 2, 16 TRAILL CRESCENT",CURRIMUNDI,4551,QLD,AUSTRALIA,"{'longitude': 153.11216935, 'latitude': -26.77203332}"
"UNIT 13, 22 MARINE PARADE",COOLANGATTA,4225,QLD,AUSTRALIA,"{'longitude': 153.53277939, 'latitude': -28.167821}"
11 GARTSIDE AVENUE,MAUDSLAND,4210,QLD,AUSTRALIA,"{'longitude': 153.27541943, 'latitude': -27.91001436}"
53 EASTHILL DRIVE,ROBINA,4226,QLD,AUSTRALIA,"{'longitude': 153.3774735, 'latitude': -28.07706377}"
"UNIT 55, 21 BAYVIEW STREET",RUNAWAY BAY,4216,QLD,AUSTRALIA,"{'longitude': 153.40431012, 'latitude': -27.92380182}"
"UNIT 2, 2 MARY STREET",ALEXANDRA HEADLAND,4572,QLD,AUSTRALIA,"{'longitude': 153.10786924, 'latitude': -26.67102443}"
26 ALBERT STREET,SHELLY BEACH,4551,QLD,AUSTRALIA,"{'longitude': 153.14535308, 'latitude': -26.79668235}"
10 CANOPY DRIVE,BONOGIN,4213,QLD,AUSTRALIA,"{'longitude': 153.37118619, 'latitude': -28.10748905}"
13 TERANNA STREET,BATTERY HILL,4551,QLD,AUSTRALIA,"{'longitude': 153.12862798, 'latitude': -26.78335806}"
"UNIT 238, 2 BELLA AVENUE",ROBINA,4226,QLD,AUSTRALIA,"{'longitude': 153.38136232, 'latitude': -28.06801038}"
6 IAN STREET,PIMPAMA,4209,QLD,AUSTRALIA,"{'longitude': 153.31435215, 'latitude': -27.82673175}"
"UNIT 53, 152 PALM MEADOWS DRIVE",CARRARA,4211,QLD,AUSTRALIA,"{'longitude': 153.37170162, 'latitude': -28.02462974}"
15 ELICE STREET,NIRIMBA,4551,QLD,AUSTRALIA,"{'longitude': 153.05561444, 'latitude': -26.81961756}"
15 SARATOGA DRIVE,MOUNTAIN CREEK,4557,QLD,AUSTRALIA,"{'longitude': 153.09936985, 'latitude': -26.69506526}"
119 LAMBOR DRIVE,MUDGEERABA,4213,QLD,AUSTRALIA,"{'longitude': 153.37659446, 'latitude': -28.08797215}"
"UNIT 1, 5 WALKER AVENUE",PALM BEACH,4221,QLD,AUSTRALIA,"{'longitude': 153.46477879, 'latitude': -28.11062439}"
5 FLAME TREES CRESCENT,MAUDSLAND,4210,QLD,AUSTRALIA,"{'longitude': 153.29667423, 'latitude': -27.92923284}"
"UNIT 17, 126 MARINA QUAYS BOULEVARD",HOPE ISLAND,4212,QLD,AUSTRALIA,"{'longitude': 153.36918411, 'latitude': -27.87663257}"
27 TAILSLIDE CRESCENT,BOKARINA,4575,QLD,AUSTRALIA,"{'longitude': 153.13046224, 'latitude': -26.74333683}"
"UNIT 2, 41 MAHOGANY DRIVE",PELICAN WATERS,4551,QLD,AUSTRALIA,"{'longitude': 153.0921933, 'latitude': -26.83902228}"
9 BULITI STREET,HOPE ISLAND,4212,QLD,AUSTRALIA,"{'longitude': 153.35280838, 'latitude': -27.85526934}"
"UNIT 4012, 21 ROSS STREET",BENOWA,4217,QLD,AUSTRALIA,"{'longitude': 153.37633184, 'latitude': -28.00099177}"
14 VALLEY CRESCENT,PALMVIEW,4553,QLD,AUSTRALIA,"{'longitude': 153.07104262, 'latitude': -26.74300058}"
11 TRISTANIA STREET,AROONA,4551,QLD,AUSTRALIA,"{'longitude': 153.11721683, 'latitude': -26.78003899}"
"UNIT 3, 19 REILLY ROAD",NAMBOUR,4560,QLD,AUSTRALIA,"{'longitude': 152.96251726, 'latitude': -26.63085581}"
51 RIDGEWAY AVENUE,SOUTHPORT,4215,QLD,AUSTRALIA,"{'longitude': 153.40348152, 'latitude': -27.98459487}"
84 HOOKER BOULEVARD,MERMAID WATERS,4218,QLD,AUSTRALIA,"{'longitude': 153.41798836, 'latitude': -28.03673795}"
10 PINEAPPLE PLACE,GLASS HOUSE MOUNTAINS,4518,QLD,AUSTRALIA,"{'longitude': 152.94223569, 'latitude': -26.90510516}"
"UNIT 39, 31 LEVIATHAN DRIVE",MUDGEERABA,4213,QLD,AUSTRALIA,"{'longitude': 153.38397634, 'latitude': -28.08786185}"
"UNIT 2, 2280 GOLD COAST HIGHWAY",MERMAID BEACH,4218,QLD,AUSTRALIA,"{'longitude': 153.43708012, 'latitude': -28.05505381}"
"UNIT 6, 15 HUTH STREET",LABRADOR,4215,QLD,AUSTRALIA,"{'longitude': 153.40687062, 'latitude': -27.95536615}"
"UNIT 4, 8 SMITH STREET",MOOLOOLABA,4557,QLD,AUSTRALIA,"{'longitude': 153.11853008, 'latitude': -26.68020436}"
12 ROYAL COURT,ASHMORE,4214,QLD,AUSTRALIA,"{'longitude': 153.35809676, 'latitude': -27.98965222}"
62 PALLADIUM BOULEVARD,HOPE ISLAND,4212,QLD,AUSTRALIA,"{'longitude': 153.35867487, 'latitude': -27.86950631}"
36 TOLSON ROAD,GLENVIEW,4553,QLD,AUSTRALIA,"{'longitude': 152.99029667, 'latitude': -26.75662194}"
262 UNIVERSAL STREET,OXENFORD,4210,QLD,AUSTRALIA,"{'longitude': 153.30385307, 'latitude': -27.92154513}"
924 QUINZEH CREEK ROAD,CEDAR CREEK,4207,QLD,AUSTRALIA,"{'longitude': 153.15876588, 'latitude': -27.81036419}"
7811 PAVILIONS CLOSE,HOPE ISLAND,4212,QLD,AUSTRALIA,"{'longitude': 153.35284225, 'latitude': -27.87254899}"
"UNIT 1, 5 HARRIGANS LANE",JACOBS WELL,4208,QLD,AUSTRALIA,"{'longitude': 153.37599779, 'latitude': -27.78852869}"
"UNIT 907, 9 MARKET LANE",MAROOCHYDORE,4558,QLD,AUSTRALIA,"{'longitude': 153.09126663, 'latitude': -26.65714223}"
3 SETTLERS AVENUE,MAUDSLAND,4210,QLD,AUSTRALIA,"{'longitude': 153.27599975, 'latitude': -27.91303376}"
"UNIT 2, 31 TANTULA ROAD EAST",ALEXANDRA HEADLAND,4572,QLD,AUSTRALIA,"{'longitude': 153.10087956, 'latitude': -26.67330645}"
52 MAHOGANY DRIVE,PELICAN WATERS,4551,QLD,AUSTRALIA,"{'longitude': 153.09151146, 'latitude': -26.83963845}"
120 EDINBURGH ROAD,BENOWA,4217,QLD,AUSTRALIA,"{'longitude': 153.39624957, 'latitude': -28.02499174}"
"UNIT 2, 3 MOROTAI AVENUE",PALM BEACH,4221,QLD,AUSTRALIA,"{'longitude': 153.46975028, 'latitude': -28.12484885}"
3 KINGS BAY STREET,YAROOMBA,4573,QLD,AUSTRALIA,"{'longitude': 153.09719925, 'latitude': -26.56134318}"
8 EMERALD STREET,PALMVIEW,4553,QLD,AUSTRALIA,"{'longitude': 153.0677303, 'latitude': -26.74348107}"
1 ELSA COURT,MUDGEERABA,4213,QLD,AUSTRALIA,"{'longitude': 153.37602666, 'latitude': -28.0885542}"
10 WANDERER AVENUE,MERMAID WATERS,4218,QLD,AUSTRALIA,"{'longitude': 153.41821287, 'latitude': -28.04917835}"
"UNIT 1, 13 EXPANSION STREET",MOLENDINAR,4214,QLD,AUSTRALIA,"{'longitude': 153.35805402, 'latitude': -27.97529355}"
98 MILDURA DRIVE,HELENSVALE,4212,QLD,AUSTRALIA,"{'longitude': 153.33894435, 'latitude': -27.91075511}"
"UNIT 4, 38 HERON AVENUE",MERMAID BEACH,4218,QLD,AUSTRALIA,"{'longitude': 153.43785964, 'latitude': -28.05379788}"
64 DUGANDAN STREET,NERANG,4211,QLD,AUSTRALIA,"{'longitude': 153.30885613, 'latitude': -28.00002583}"
97 KARAWATHA DRIVE,MOUNTAIN CREEK,4557,QLD,AUSTRALIA,"{'longitude': 153.09645822, 'latitude': -26.69129055}"
37 YARRAYNE ROAD,NERANG,4211,QLD,AUSTRALIA,"{'longitude': 153.32762559, 'latitude': -27.98399236}"
25 SCOTER AVENUE,PARADISE POINT,4216,QLD,AUSTRALIA,"{'longitude': 153.39707355, 'latitude': -27.87576346}"
"UNIT 3, 14 BOURTON ROAD",MERRIMAC,4226,QLD,AUSTRALIA,"{'longitude': 153.35964495, 'latitude': -28.05068994}"
"UNIT 2, 57 STAPYLTON STREET",COOLANGATTA,4225,QLD,AUSTRALIA,"{'longitude': 153.53646225, 'latitude': -28.17312222}"
13 COLLINS CRESCENT,BENOWA,4217,QLD,AUSTRALIA,"{'longitude': 153.39286459, 'latitude': -28.00103615}"
3 GRIFFITH STREET,COOLANGATTA,4225,QLD,AUSTRALIA,"{'longitude': 153.53582631, 'latitude': -28.16783243}"
25 FLAMINGO STREET,LITTLE MOUNTAIN,4551,QLD,AUSTRALIA,"{'longitude': 153.08772522, 'latitude': -26.79108087}"
5 MCGUIRE COURT,MAUDSLAND,4210,QLD,AUSTRALIA,"{'longitude': 153.294006, 'latitude': -27.9434475}"
"UNIT 2, 3 BRIGALOW STREET",CALOUNDRA WEST,4551,QLD,AUSTRALIA,"{'longitude': 153.10882043, 'latitude': -26.78691344}"
20 RIVER ROAD,ALBERTON,4207,QLD,AUSTRALIA,"{'longitude': 153.24145435, 'latitude': -27.70042988}"
25 BLISS DRIVE,PALMVIEW,4553,QLD,AUSTRALIA,"{'longitude': 153.05912907, 'latitude': -26.73235919}"
45 VALLEY CRESCENT,PALMVIEW,4553,QLD,AUSTRALIA,"{'longitude': 153.06942795, 'latitude': -26.74428632}"
44 BLAIR ATHOL CRESCENT,BUNDALL,4217,QLD,AUSTRALIA,"{'longitude': 153.39673941, 'latitude': -28.01655378}"
28 FLOYD COURT,PARKWOOD,4214,QLD,AUSTRALIA,"{'longitude': 153.36240072, 'latitude': -27.96226781}"
"UNIT 2, 89 GREENACRE DRIVE",PARKWOOD,4214,QLD,AUSTRALIA,"{'longitude': 153.34989263, 'latitude': -27.95451861}"
202 BAILEYS MOUNTAIN ROAD,UPPER COOMERA,4209,QLD,AUSTRALIA,"{'longitude': 153.28597806, 'latitude': -27.8663345}"
9 SINATRA STREET,SIPPY DOWNS,4556,QLD,AUSTRALIA,"{'longitude': 153.07257252, 'latitude': -26.73064517}"
68 CASUARINA DRIVE,ELANORA,4221,QLD,AUSTRALIA,"{'longitude': 153.43830664, 'latitude': -28.14053188}"
2 BEAN STREET,MALENY,4552,QLD,AUSTRALIA,"{'longitude': 152.84516834, 'latitude': -26.75590129}"
33 SALTWATER WAY,MOUNT COOLUM,4573,QLD,AUSTRALIA,"{'longitude': 153.09364896, 'latitude': -26.56614505}"
2147 STEVE IRWIN WAY,LANDSBOROUGH,4550,QLD,AUSTRALIA,"{'longitude': 152.9804834, 'latitude': -26.80292563}"
167 MCCORDS ROAD,YANDINA CREEK,4561,QLD,AUSTRALIA,"{'longitude': 153.01432635, 'latitude': -26.49918173}"
25 PIRINGA STREET,WURTULLA,4575,QLD,AUSTRALIA,"{'longitude': 153.12223804, 'latitude': -26.75811933}"
"UNIT 64, 66 THE AVENUE",PEREGIAN SPRINGS,4573,QLD,AUSTRALIA,"{'longitude': 153.06123982, 'latitude': -26.49135704}"
11 BENSON STREET,ORMEAU,4208,QLD,AUSTRALIA,"{'longitude': 153.26441572, 'latitude': -27.77348092}"
"UNIT 20, 54 GEMVALE ROAD",REEDY CREEK,4227,QLD,AUSTRALIA,"{'longitude': 153.39630935, 'latitude': -28.09972508}"
55 RUBY CRESCENT,MERIDAN PLAINS,4551,QLD,AUSTRALIA,"{'longitude': 153.09259877, 'latitude': -26.77030211}"
"UNIT 33, 42 STADIUM DRIVE",ROBINA,4226,QLD,AUSTRALIA,"{'longitude': 153.37895659, 'latitude': -28.06516626}"
9 GRIMSDYKE COURT,MOLENDINAR,4214,QLD,AUSTRALIA,"{'longitude': 153.36258656, 'latitude': -27.97246909}"
43 LANCELIN DRIVE,MERMAID WATERS,4218,QLD,AUSTRALIA,"{'longitude': 153.41984926, 'latitude': -28.06754393}"
"UNIT 1, 9 GLENRAY AVENUE",CALOUNDRA,4551,QLD,AUSTRALIA,"{'longitude': 153.1322075, 'latitude': -26.79735271}"
12 LAHEY COURT,ORMEAU,4208,QLD,AUSTRALIA,"{'longitude': 153.26283503, 'latitude': -27.78594531}"
35 YARRAMBAT RISE,UPPER COOMERA,4209,QLD,AUSTRALIA,"{'longitude': 153.27886604, 'latitude': -27.88142785}"
48 VALDA AVENUE,COOMERA,4209,QLD,AUSTRALIA,"{'longitude': 153.33296153, 'latitude': -27.84156157}"
27 MEMORIAL DRIVE,EUMUNDI,4562,QLD,AUSTRALIA,"{'longitude': 152.95189654, 'latitude': -26.4834025}"
17 BARNES DRIVE,BUDERIM,4556,QLD,AUSTRALIA,"{'longitude': 153.05526312, 'latitude': -26.687853}"
15 KAFFIA COURT,ELANORA,4221,QLD,AUSTRALIA,"{'longitude': 153.45366646, 'latitude': -28.12575065}"
51 MERLOO DRIVE,NERANG,4211,QLD,AUSTRALIA,"{'longitude': 153.30668478, 'latitude': -28.00179194}"
1 SHORT STREET,TUGUN,4224,QLD,AUSTRALIA,"{'longitude': 153.50255572, 'latitude': -28.15109807}"
"UNIT 4, 13 ROSEWOOD AVENUE",BROADBEACH,4218,QLD,AUSTRALIA,"{'longitude': 153.42941101, 'latitude': -28.02169271}"
"UNIT 4, 80 PACIFIC PARADE",BILINGA,4225,QLD,AUSTRALIA,"{'longitude': 153.51826953, 'latitude': -28.16406322}"
20 COOGEEN STREET,BUNDALL,4217,QLD,AUSTRALIA,"{'longitude': 153.41005129, 'latitude': -28.0120858}"
35 TIPUANA DRIVE,ELANORA,4221,QLD,AUSTRALIA,"{'longitude': 153.43602374, 'latitude': -28.14365191}"
"UNIT 54A, 64 GILSTON ROAD",NERANG,4211,QLD,AUSTRALIA,"{'longitude': 153.33132782, 'latitude': -28.00044224}"
10 COOINDA CRESCENT,MAROOCHYDORE,4558,QLD,AUSTRALIA,"{'longitude': 153.0777014, 'latitude': -26.65321259}"
9 MOLONGLO CLOSE,REEDY CREEK,4227,QLD,AUSTRALIA,"{'longitude': 153.39233297, 'latitude': -28.11236393}"
1251 NAMBOUR CONNECTION ROAD,KULANGOOR,4560,QLD,AUSTRALIA,"{'longitude': 152.96727, 'latitude': -26.58828603}"
3 GERSHWIN COURT,NERANG,4211,QLD,AUSTRALIA,"{'longitude': 153.30027425, 'latitude': -28.00379833}"
"UNIT 1, 5 BARBET PLACE",BURLEIGH WATERS,4220,QLD,AUSTRALIA,"{'longitude': 153.43688805, 'latitude': -28.07820155}"
9 SUMMERFIELD COURT,BLI BLI,4560,QLD,AUSTRALIA,"{'longitude': 153.03449235, 'latitude': -26.61133342}"
3 DAHLIA CRESCENT,ORMEAU,4208,QLD,AUSTRALIA,"{'longitude': 153.26147984, 'latitude': -27.78061029}"
8 PARKSIDE CIRCUIT,ROBINA,4226,QLD,AUSTRALIA,"{'longitude': 153.39490684, 'latitude': -28.06398413}"
5 LAKEDRIVE CRESCENT,MARCOOLA,4564,QLD,AUSTRALIA,"{'longitude': 153.09284501, 'latitude': -26.57497911}"
25 PANACHE STREET,MOLENDINAR,4214,QLD,AUSTRALIA,"{'longitude': 153.3712877, 'latitude': -27.97603814}"
185 NINETEENTH AVENUE,ELANORA,4221,QLD,AUSTRALIA,"{'longitude': 153.44884168, 'latitude': -28.12228829}"
28 OFFSHORE STREET,BOKARINA,4575,QLD,AUSTRALIA,"{'longitude': 153.13282538, 'latitude': -26.74632404}"
8 GIACCO STREET,PIMPAMA,4209,QLD,AUSTRALIA,"{'longitude': 153.32952667, 'latitude': -27.83367716}"
15 YOWANI STREET,ROBINA,4226,QLD,AUSTRALIA,"{'longitude': 153.39517031, 'latitude': -28.07038351}"
"UNIT 1, 169 HEDGES AVENUE",MERMAID BEACH,4218,QLD,AUSTRALIA,"{'longitude': 153.43752857, 'latitude': -28.04201949}"
34 VALLEYVIEW DRIVE,MOUNT NATHAN,4211,QLD,AUSTRALIA,"{'longitude': 153.26550944, 'latitude': -27.96919655}"
"UNIT 6, 4 NYRANG AVENUE",PALM BEACH,4221,QLD,AUSTRALIA,"{'longitude': 153.46094042, 'latitude': -28.10164066}"
11 NANGAR STREET,PIMPAMA,4209,QLD,AUSTRALIA,"{'longitude': 153.29709168, 'latitude': -27.81161939}"
10007 THE BOULEVARD,BENOWA,4217,QLD,AUSTRALIA,"{'longitude': 153.3690352, 'latitude': -27.99524724}"
579 ILKLEY ROAD,ILKLEY,4554,QLD,AUSTRALIA,"{'longitude': 153.00227377, 'latitude': -26.71638826}"
8 MERLIN PLACE,ORMEAU,4208,QLD,AUSTRALIA,"{'longitude': 153.26064688, 'latitude': -27.78680386}"
"UNIT 1, 12 JESSICA COURT",ARUNDEL,4214,QLD,AUSTRALIA,"{'longitude': 153.38416841, 'latitude': -27.94944689}"
"UNIT 47, 1 ANCORA CRESCENT",HOPE ISLAND,4212,QLD,AUSTRALIA,"{'longitude': 153.37072862, 'latitude': -27.87435529}"
35 BROADWATER STREET,RUNAWAY BAY,4216,QLD,AUSTRALIA,"{'longitude': 153.40095015, 'latitude': -27.92310794}"
"UNIT 3, 16 MARY AVENUE",BROADBEACH,4218,QLD,AUSTRALIA,"{'longitude': 153.43306058, 'latitude': -28.03486432}"
"UNIT 3, 159 MUIR STREET",LABRADOR,4215,QLD,AUSTRALIA,"{'longitude': 153.40664159, 'latitude': -27.94466507}"
7 LINDESAY STREET,CALOUNDRA WEST,4551,QLD,AUSTRALIA,"{'longitude': 153.09490819, 'latitude': -26.79658618}"
"UNIT 44, 4 ITONG PLACE",CURRUMBIN WATERS,4223,QLD,AUSTRALIA,"{'longitude': 153.47198474, 'latitude': -28.15623345}"
8 HEETERRA COURT,ELANORA,4221,QLD,AUSTRALIA,"{'longitude': 153.44369984, 'latitude': -28.13915402}"
2984 OLD GYMPIE ROAD,BEERWAH,4519,QLD,AUSTRALIA,"{'longitude': 152.93963451, 'latitude': -26.83892416}"
20 HEADSAIL COURT,CURRUMBIN WATERS,4223,QLD,AUSTRALIA,"{'longitude': 153.46687056, 'latitude': -28.15464121}"
25 DIAMANTINA CIRCUIT,PACIFIC PINES,4211,QLD,AUSTRALIA,"{'longitude': 153.30124005, 'latitude': -27.94502055}"
35 ROSEAPPLE CIRCUIT,OXENFORD,4210,QLD,AUSTRALIA,"{'longitude': 153.29503711, 'latitude': -27.89212126}"
33 MUNDOO STREET,COES CREEK,4560,QLD,AUSTRALIA,"{'longitude': 152.94747466, 'latitude': -26.65243559}"
70 COOLUM TERRACE,COOLUM BEACH,4573,QLD,AUSTRALIA,"{'longitude': 153.09278569, 'latitude': -26.53579575}"
37 KUNDART STREET,COES CREEK,4560,QLD,AUSTRALIA,"{'longitude': 152.94510532, 'latitude': -26.64576823}"
36 TUCKEROO PLACE,REEDY CREEK,4227,QLD,AUSTRALIA,"{'longitude': 153.40413962, 'latitude': -28.10926357}"
"UNIT 21, 24 IMPERIAL PARADE",LABRADOR,4215,QLD,AUSTRALIA,"{'longitude': 153.40782919, 'latitude': -27.94474296}"
73 THOMPSON ROAD,BEERWAH,4519,QLD,AUSTRALIA,"{'longitude': 152.9549841, 'latitude': -26.82716319}"
22 POPPY STREET,UPPER COOMERA,4209,QLD,AUSTRALIA,"{'longitude': 153.2879641, 'latitude': -27.90162851}"
30 RIVER COVE PLACE,HELENSVALE,4212,QLD,AUSTRALIA,"{'longitude': 153.33162071, 'latitude': -27.87757461}"
97 AMARINA AVENUE,MOOLOOLABA,4557,QLD,AUSTRALIA,"{'longitude': 153.10725455, 'latitude': -26.68704775}"
32 LAUREN GROVE,UPPER COOMERA,4209,QLD,AUSTRALIA,"{'longitude': 153.29863381, 'latitude': -27.8818665}"
20 SOMERTON DRIVE,MAROOCHYDORE,4558,QLD,AUSTRALIA,"{'longitude': 153.07895262, 'latitude': -26.66173997}"
"UNIT 5, 16 VENICE STREET",MERMAID BEACH,4218,QLD,AUSTRALIA,"{'longitude': 153.43730915, 'latitude': -28.04542993}"
61 TWEED STREET,COOLANGATTA,4225,QLD,AUSTRALIA,"{'longitude': 153.53553415, 'latitude': -28.17079511}"
68 CAMBERWELL CIRCUIT,ROBINA,4226,QLD,AUSTRALIA,"{'longitude': 153.40081153, 'latitude': -28.05683539}"
51 KNIGHTSBRIDGE PARADE WEST,PARADISE POINT,4216,QLD,AUSTRALIA,"{'longitude': 153.40027096, 'latitude': -27.86909228}"
"UNIT 66, 3030 THE BOULEVARD",CARRARA,4211,QLD,AUSTRALIA,"{'longitude': 153.3741646, 'latitude': -28.01659275}"
"UNIT 4, 94 KING STREET",BUDERIM,4556,QLD,AUSTRALIA,"{'longitude': 153.06466875, 'latitude': -26.68302662}"
9 BEACH HAVEN PLACE,MOUNT COOLUM,4573,QLD,AUSTRALIA,"{'longitude': 153.09464812, 'latitude': -26.56600814}"
16 CRISTOBEL COURT,BROADBEACH WATERS,4218,QLD,AUSTRALIA,"{'longitude': 153.41682639, 'latitude': -28.02135979}"
"UNIT 2, 27 SAINT PAULS AVENUE",GOLDEN BEACH,4551,QLD,AUSTRALIA,"{'longitude': 153.11593347, 'latitude': -26.81870749}"
27 CURRANT STREET,ELANORA,4221,QLD,AUSTRALIA,"{'longitude': 153.45635033, 'latitude': -28.1237058}"
33 DEEP WATER CIRCUIT,PELICAN WATERS,4551,QLD,AUSTRALIA,"{'longitude': 153.10734852, 'latitude': -26.81695065}"
"UNIT 37, 57 GRAND PARADE",PARREARRA,4575,QLD,AUSTRALIA,"{'longitude': 153.12129881, 'latitude': -26.70569763}"
"UNIT 4, 51 GRAND PARADE",PARREARRA,4575,QLD,AUSTRALIA,"{'longitude': 153.12203629, 'latitude': -26.70694399}"
12 ABBEY RIDGE ROAD,REEDY CREEK,4227,QLD,AUSTRALIA,"{'longitude': 153.38944485, 'latitude': -28.12358156}"
8 CARRINGTON DRIVE,FLAXTON,4560,QLD,AUSTRALIA,"{'longitude': 152.87715074, 'latitude': -26.67090508}"
"VILLA 97, 1-33 GLENSIDE DRIVE",ROBINA,4226,QLD,AUSTRALIA,"{'longitude': 153.39415492, 'latitude': -28.06670749}"
10 TANUNDA DRIVE,HELENSVALE,4212,QLD,AUSTRALIA,"{'longitude': 153.32487558, 'latitude': -27.90127}"
"UNIT 1, 12 JASMINE AVENUE",HOLLYWELL,4216,QLD,AUSTRALIA,"{'longitude': 153.40156488, 'latitude': -27.89720143}"
108 WRIGLEY STREET,MAROOCHYDORE,4558,QLD,AUSTRALIA,"{'longitude': 153.09419639, 'latitude': -26.66557992}"
4 FIREFLY STREET,PELICAN WATERS,4551,QLD,AUSTRALIA,"{'longitude': 153.10458076, 'latitude': -26.83085912}"
33 FOREST RIDGE CIRCUIT,PEREGIAN SPRINGS,4573,QLD,AUSTRALIA,"{'longitude': 153.07353112, 'latitude': -26.4962876}"
10 THE MORES,NERANG,4211,QLD,AUSTRALIA,"{'longitude': 153.32872246, 'latitude': -28.00451977}"
32 MONAK ROAD,NORTH ARM,4561,QLD,AUSTRALIA,"{'longitude': 152.95158545, 'latitude': -26.5150592}"
43 PETREL CRESCENT,MOUNTAIN CREEK,4557,QLD,AUSTRALIA,"{'longitude': 153.10998705, 'latitude': -26.70261616}"
16 FITZROY COURT,PACIFIC PARADISE,4564,QLD,AUSTRALIA,"{'longitude': 153.07488901, 'latitude': -26.61418189}"
"UNIT 57, 4 PARK AVENUE",BURLEIGH HEADS,4220,QLD,AUSTRALIA,"{'longitude': 153.45092664, 'latitude': -28.09071484}"
8 SAN REMO BOULEVARD,BUNDALL,4217,QLD,AUSTRALIA,"{'longitude': 153.40274331, 'latitude': -28.02382447}"
80 PALMVIEW FOREST DRIVE,PALMVIEW,4553,QLD,AUSTRALIA,"{'longitude': 153.03824754, 'latitude': -26.75090596}"
"UNIT 7, 75 EDMUND STREET",KINGS BEACH,4551,QLD,AUSTRALIA,"{'longitude': 153.141779, 'latitude': -26.80185975}"
34 WOODLANDS CRESCENT,BUDERIM,4556,QLD,AUSTRALIA,"{'longitude': 153.0685423, 'latitude': -26.66666126}"
"UNIT 6, 66 KING STREET",BUDERIM,4556,QLD,AUSTRALIA,"{'longitude': 153.06139664, 'latitude': -26.68283215}"
"UNIT 1006, 2669 GOLD COAST HIGHWAY",BROADBEACH,4218,QLD,AUSTRALIA,"{'longitude': 153.43122814, 'latitude': -28.03184462}"
"UNIT 9, 131 MCAULEY PARADE",PACIFIC PINES,4211,QLD,AUSTRALIA,"{'longitude': 153.30695807, 'latitude': -27.93124731}"
120 DISCOVERY DRIVE,HELENSVALE,4212,QLD,AUSTRALIA,"{'longitude': 153.32684105, 'latitude': -27.9128289}"
409 ASHMORE ROAD,ASHMORE,4214,QLD,AUSTRALIA,"{'longitude': 153.37421492, 'latitude': -27.99748332}"
27 POINCIANA CRESCENT,BUNDALL,4217,QLD,AUSTRALIA,"{'longitude': 153.40211949, 'latitude': -27.99889746}"
7 TULIP LANE,BUDERIM,4556,QLD,AUSTRALIA,"{'longitude': 153.04188533, 'latitude': -26.68959084}"
45 IANDO STREET,COOMBABAH,4216,QLD,AUSTRALIA,"{'longitude': 153.37638488, 'latitude': -27.89544028}"
"UNIT 26, 4 BUDERIM AVENUE",ALEXANDRA HEADLAND,4572,QLD,AUSTRALIA,"{'longitude': 153.11373308, 'latitude': -26.67584162}"
6 CHALLENGER WAY,COOMERA,4209,QLD,AUSTRALIA,"{'longitude': 153.35768352, 'latitude': -27.84242563}"
25 HARLEY STREET,LABRADOR,4215,QLD,AUSTRALIA,"{'longitude': 153.39817318, 'latitude': -27.93779943}"
"UNIT 7, 36 BURNETT STREET",MOOLOOLABA,4557,QLD,AUSTRALIA,"{'longitude': 153.11919143, 'latitude': -26.68271139}"
2108 THE CIRCLE,HOPE ISLAND,4212,QLD,AUSTRALIA,"{'longitude': 153.37930222, 'latitude': -27.86067628}"
"UNIT 7, 435 CYPRESS TERRACE NORTH",PALM BEACH,4221,QLD,AUSTRALIA,"{'longitude': 153.46132773, 'latitude': -28.10379656}"
"UNIT 2303, 42 LAVER DRIVE",ROBINA,4226,QLD,AUSTRALIA,"{'longitude': 153.37818791, 'latitude': -28.07773854}"
33 GIDEON GARDENS,PIMPAMA,4209,QLD,AUSTRALIA,"{'longitude': 153.31575976, 'latitude': -27.83347451}"
35 LARA DRIVE,BUDERIM,4556,QLD,AUSTRALIA,"{'longitude': 153.06283191, 'latitude': -26.69401591}"
1047 ROSEBANK WAY,HOPE ISLAND,4212,QLD,AUSTRALIA,"{'longitude': 153.3498082, 'latitude': -27.86307547}"
2 OLD MALENY ROAD,LANDSBOROUGH,4550,QLD,AUSTRALIA,"{'longitude': 152.937064, 'latitude': -26.79344609}"
5 SAN MICHELE COURT,BROADBEACH WATERS,4218,QLD,AUSTRALIA,"{'longitude': 153.41507463, 'latitude': -28.0206692}"
"UNIT 2, 1227 GOLD COAST HIGHWAY",PALM BEACH,4221,QLD,AUSTRALIA,"{'longitude': 153.46844911, 'latitude': -28.11317294}"
27 TUENA STREET,MUDGEERABA,4213,QLD,AUSTRALIA,"{'longitude': 153.34512864, 'latitude': -28.08314375}"
39 TUENA STREET,MUDGEERABA,4213,QLD,AUSTRALIA,"{'longitude': 153.34487684, 'latitude': -28.08441399}"
7 SPRING COURT,NERANG,4211,QLD,AUSTRALIA,"{'longitude': 153.33618656, 'latitude': -28.00675499}"
14 REGENCY COURT,PEREGIAN SPRINGS,4573,QLD,AUSTRALIA,"{'longitude': 153.07449133, 'latitude': -26.49721499}"
12 TREE VIEW CRESCENT,LITTLE MOUNTAIN,4551,QLD,AUSTRALIA,"{'longitude': 153.09455252, 'latitude': -26.78256895}"
41 MARKERI STREET,MERMAID WATERS,4218,QLD,AUSTRALIA,"{'longitude': 153.43204889, 'latitude': -28.04868944}"
17 APPLE CRESCENT,CALOUNDRA WEST,4551,QLD,AUSTRALIA,"{'longitude': 153.08933277, 'latitude': -26.80522997}"
16 MALLEE CLOSE,CALOUNDRA WEST,4551,QLD,AUSTRALIA,"{'longitude': 153.11074567, 'latitude': -26.78642866}"
13 MARRANTIN COURT,CARRARA,4211,QLD,AUSTRALIA,"{'longitude': 153.35738534, 'latitude': -28.01950641}"
"UNIT 16, 7 CAMPBELL STREET",BUNDALL,4217,QLD,AUSTRALIA,"{'longitude': 153.40136898, 'latitude': -28.0266964}"
3 LAUNCH ROAD,MERMAID WATERS,4218,QLD,AUSTRALIA,"{'longitude': 153.42757598, 'latitude': -28.05926948}"
20 ADELAIDE CRESCENT,ORMEAU HILLS,4208,QLD,AUSTRALIA,"{'longitude': 153.25026857, 'latitude': -27.80138496}"
"UNIT 4907, 5 HARBOUR SIDE COURT",BIGGERA WATERS,4216,QLD,AUSTRALIA,"{'longitude': 153.3932443, 'latitude': -27.93154516}"
"UNIT 2, 29 TEAL AVENUE",PARADISE POINT,4216,QLD,AUSTRALIA,"{'longitude': 153.39411169, 'latitude': -27.88129861}"
19 ATTENBOROUGH CLOSE,BUDERIM,4556,QLD,AUSTRALIA,"{'longitude': 153.08007016, 'latitude': -26.6958586}"
"UNIT 6, 7 ESPLANADE WEST",PARADISE POINT,4216,QLD,AUSTRALIA,"{'longitude': 153.39577324, 'latitude': -27.8759906}"
"UNIT 16, 2 CONCORD CIRCUIT",ROBINA,4226,QLD,AUSTRALIA,"{'longitude': 153.39407929, 'latitude': -28.06116085}"
1 TAILSLIDE CRESCENT,BOKARINA,4575,QLD,AUSTRALIA,"{'longitude': 153.13028145, 'latitude': -26.74245423}"
6 CRANBOURNE COURT,ROBINA,4226,QLD,AUSTRALIA,"{'longitude': 153.39987015, 'latitude': -28.05655399}"
83 CUTTERS WAY,BLI BLI,4560,QLD,AUSTRALIA,"{'longitude': 153.03421195, 'latitude': -26.6265242}"
44 CUPANIA STREET,MUDJIMBA,4564,QLD,AUSTRALIA,"{'longitude': 153.09570786, 'latitude': -26.61640583}"
48 CITRON CRESCENT,HELENSVALE,4212,QLD,AUSTRALIA,"{'longitude': 153.34158631, 'latitude': -27.93679913}"
"UNIT 24, 92 GUINEAS CREEK ROAD",CURRUMBIN WATERS,4223,QLD,AUSTRALIA,"{'longitude': 153.46628446, 'latitude': -28.1410961}"
63 GUINEAS CREEK ROAD,ELANORA,4221,QLD,AUSTRALIA,"{'longitude': 153.46562691, 'latitude': -28.13749854}"
"UNIT 12, 21 MAHIA TERRACE",KINGS BEACH,4551,QLD,AUSTRALIA,"{'longitude': 153.13977018, 'latitude': -26.80358005}"
12 ALINJARRA DRIVE,TUGUN,4224,QLD,AUSTRALIA,"{'longitude': 153.48311805, 'latitude': -28.15129587}"
3 KOORALBYN COURT,NAMBOUR,4560,QLD,AUSTRALIA,"{'longitude': 152.95979589, 'latitude': -26.64170301}"
4 PITURI PLACE,ORMEAU,4208,QLD,AUSTRALIA,"{'longitude': 153.24046994, 'latitude': -27.76491182}"
11 SHARON CRESCENT,MOUNTAIN CREEK,4557,QLD,AUSTRALIA,"{'longitude': 153.10053505, 'latitude': -26.69228813}"
"UNIT 2, 36 COOINDA CRESCENT",MAROOCHYDORE,4558,QLD,AUSTRALIA,"{'longitude': 153.07820978, 'latitude': -26.65077203}"
25 PATONGA STREET,ASHMORE,4214,QLD,AUSTRALIA,"{'longitude': 153.37776054, 'latitude': -27.98393342}"
"UNIT 2, 30 BURLEIGH STREET",BURLEIGH HEADS,4220,QLD,AUSTRALIA,"{'longitude': 153.44674126, 'latitude': -28.08884721}"
4 ELOUERA CLOSE,LANDSBOROUGH,4550,QLD,AUSTRALIA,"{'longitude': 152.95676205, 'latitude': -26.80748837}"
26 HOCKING STREET,NAMBOUR,4560,QLD,AUSTRALIA,"{'longitude': 152.96497336, 'latitude': -26.62870961}"
124 COES CREEK ROAD,COES CREEK,4560,QLD,AUSTRALIA,"{'longitude': 152.94711721, 'latitude': -26.644618}"
"UNIT 1202, 9 MARKET LANE",MAROOCHYDORE,4558,QLD,AUSTRALIA,"{'longitude': 153.09126663, 'latitude': -26.65714223}"
"UNIT 1207, 33 T E PETERS DRIVE",BROADBEACH WATERS,4218,QLD,AUSTRALIA,"{'longitude': 153.42618123, 'latitude': -28.02671739}"
13 MACKENZIE DRIVE,MAROOCHYDORE,4558,QLD,AUSTRALIA,"{'longitude': 153.07533361, 'latitude': -26.66377555}"
14 WATTLEPARK LANE,ROBINA,4226,QLD,AUSTRALIA,"{'longitude': 153.39592174, 'latitude': -28.05901156}"
"UNIT 2307, 3 MAIN STREET",VARSITY LAKES,4227,QLD,AUSTRALIA,"{'longitude': 153.40802324, 'latitude': -28.07909521}"
"UNIT 377, 52 UNIVERSITY WAY",SIPPY DOWNS,4556,QLD,AUSTRALIA,"{'longitude': 153.0499636, 'latitude': -26.72221136}"
4 KINGSTON HEATH PLACE,ROBINA,4226,QLD,AUSTRALIA,"{'longitude': 153.39197737, 'latitude': -28.06393462}"
"UNIT 263, 25 SAINT VINCENTS COURT",MINYAMA,4575,QLD,AUSTRALIA,"{'longitude': 153.11978329, 'latitude': -26.70182033}"
51 STANFIELD DRIVE,UPPER COOMERA,4209,QLD,AUSTRALIA,"{'longitude': 153.27921354, 'latitude': -27.89639275}"
51 WHITEASH ROAD,BONOGIN,4213,QLD,AUSTRALIA,"{'longitude': 153.34354022, 'latitude': -28.14673121}"
15 SURFERS AVENUE,MERMAID WATERS,4218,QLD,AUSTRALIA,"{'longitude': 153.43175447, 'latitude': -28.03906476}"
434 BONOGIN ROAD,BONOGIN,4213,QLD,AUSTRALIA,"{'longitude': 153.34456561, 'latitude': -28.13638527}"
31 ALFRED STREET,SHELLY BEACH,4551,QLD,AUSTRALIA,"{'longitude': 153.14308459, 'latitude': -26.79673447}"
31 NICKEL STREET,PIMPAMA,4209,QLD,AUSTRALIA,"{'longitude': 153.30759893, 'latitude': -27.82723962}"
14 LANCELIN DRIVE,MERMAID WATERS,4218,QLD,AUSTRALIA,"{'longitude': 153.4213174, 'latitude': -28.06347159}"
6 PERKINS CLOSE,REEDY CREEK,4227,QLD,AUSTRALIA,"{'longitude': 153.39302728, 'latitude': -28.12187029}"
46 TOWNSEND ROAD,BUDERIM,4556,QLD,AUSTRALIA,"{'longitude': 153.04069996, 'latitude': -26.68992665}"
1 CONNORS CLOSE,BUDERIM,4556,QLD,AUSTRALIA,"{'longitude': 153.07061119, 'latitude': -26.69804168}"
5 ALBERT STREET,SHELLY BEACH,4551,QLD,AUSTRALIA,"{'longitude': 153.14619111, 'latitude': -26.79565209}"
12 COPPER CRESCENT,CALOUNDRA WEST,4551,QLD,AUSTRALIA,"{'longitude': 153.09638767, 'latitude': -26.80350146}"
40A MALINYA DRIVE,BUDDINA,4575,QLD,AUSTRALIA,"{'longitude': 153.13212807, 'latitude': -26.70843587}"
1 SUMMERLAND KEY,BROADBEACH WATERS,4218,QLD,AUSTRALIA,"{'longitude': 153.42050322, 'latitude': -28.02740157}"
97 CLIFF BARRONS ROAD,KINGSHOLME,4208,QLD,AUSTRALIA,"{'longitude': 153.21913638, 'latitude': -27.81160584}"
1 CATHMOR COURT,OXENFORD,4210,QLD,AUSTRALIA,"{'longitude': 153.29849234, 'latitude': -27.92205813}"
182 DIXON DRIVE,PIMPAMA,4209,QLD,AUSTRALIA,"{'longitude': 153.32238262, 'latitude': -27.83479167}"
71 GOONAWARRA DRIVE,MOOLOOLABA,4557,QLD,AUSTRALIA,"{'longitude': 153.11161203, 'latitude': -26.68080695}"
"UNIT 5, 26 GOONAWARRA DRIVE",MOOLOOLABA,4557,QLD,AUSTRALIA,"{'longitude': 153.11621915, 'latitude': -26.68065401}"
"UNIT 14, 15 ANCONA STREET",CARRARA,4211,QLD,AUSTRALIA,"{'longitude': 153.35067351, 'latitude': -28.01206115}"
6 OCEAN COURT,SHELLY BEACH,4551,QLD,AUSTRALIA,"{'longitude': 153.14768823, 'latitude': -26.79407827}"
251 GOLDMINE ROAD,ORMEAU,4208,QLD,AUSTRALIA,"{'longitude': 153.26278209, 'latitude': -27.76334597}"
4 MINGALETTA DRIVE,ASHMORE,4214,QLD,AUSTRALIA,"{'longitude': 153.37718967, 'latitude': -27.99514091}"
2 WHIPBIRD COURT,BURLEIGH WATERS,4220,QLD,AUSTRALIA,"{'longitude': 153.42135178, 'latitude': -28.09427907}"
3 TRILLERS AVENUE,COOMERA,4209,QLD,AUSTRALIA,"{'longitude': 153.32904603, 'latitude': -27.8434794}"
"UNIT 20, 9 BRADFORD STREET",LABRADOR,4215,QLD,AUSTRALIA,"{'longitude': 153.40711079, 'latitude': -27.95072036}"
"UNIT 2, 32 HILDA STREET",MERMAID BEACH,4218,QLD,AUSTRALIA,"{'longitude': 153.43635684, 'latitude': -28.04770005}"
"UNIT 1, 7 STEPHANIE COURT",LABRADOR,4215,QLD,AUSTRALIA,"{'longitude': 153.39603268, 'latitude': -27.94465995}"
24 MCGREGOR COURT,MOOLOOLAH VALLEY,4553,QLD,AUSTRALIA,"{'longitude': 152.9586553, 'latitude': -26.7742885}"
"UNIT 2, 127 CENTRAL STREET",LABRADOR,4215,QLD,AUSTRALIA,"{'longitude': 153.39780442, 'latitude': -27.94762356}"
14B DINJIRRA COURT,TUGUN,4224,QLD,AUSTRALIA,"{'longitude': 153.48656247, 'latitude': -28.15288203}"
12 AUGUSTA COURT,BUDERIM,4556,QLD,AUSTRALIA,"{'longitude': 153.08616289, 'latitude': -26.69285914}"
150 MAIN STREET,MONTVILLE,4560,QLD,AUSTRALIA,"{'longitude': 152.892257, 'latitude': -26.68924522}"
16 FANNON COURT,PIMPAMA,4209,QLD,AUSTRALIA,"{'longitude': 153.29819227, 'latitude': -27.83152256}"
6 MAREEBA PLACE,ROBINA,4226,QLD,AUSTRALIA,"{'longitude': 153.41342429, 'latitude': -28.05888431}"
1 BROADWAY DRIVE,OXENFORD,4210,QLD,AUSTRALIA,"{'longitude': 153.31296821, 'latitude': -27.92352165}"
49 FLAXTON DRIVE,MAPLETON,4560,QLD,AUSTRALIA,"{'longitude': 152.86765963, 'latitude': -26.62800471}"
"UNIT 21, 31 SIMPSONS ROAD",ELANORA,4221,QLD,AUSTRALIA,"{'longitude': 153.45108814, 'latitude': -28.1403895}"
"UNIT 1, 96 COOTHARABA DRIVE",HELENSVALE,4212,QLD,AUSTRALIA,"{'longitude': 153.34558986, 'latitude': -27.90128686}"
"UNIT 3, 18 MURLONG CRESCENT",PALM BEACH,4221,QLD,AUSTRALIA,"{'longitude': 153.45638484, 'latitude': -28.10293321}"
"UNIT 2, 16 MINCHINTON STREET",CALOUNDRA,4551,QLD,AUSTRALIA,"{'longitude': 153.13039362, 'latitude': -26.80158689}"
2 HUON CRESCENT,RUNAWAY BAY,4216,QLD,AUSTRALIA,"{'longitude': 153.40642638, 'latitude': -27.91243716}"
30 MONTEGO COURT,MERMAID WATERS,4218,QLD,AUSTRALIA,"{'longitude': 153.41671908, 'latitude': -28.05557807}"
11 GLENMOUNT ROAD,BUDERIM,4556,QLD,AUSTRALIA,"{'longitude': 153.03523029, 'latitude': -26.69452387}"
31 SURFRIDER PLACE,MUDJIMBA,4564,QLD,AUSTRALIA,"{'longitude': 153.0960371, 'latitude': -26.61085684}"
11 KIANGA STREET,PELICAN WATERS,4551,QLD,AUSTRALIA,"{'longitude': 153.10441061, 'latitude': -26.83728103}"
19 ROCKFORD STREET,PIMPAMA,4209,QLD,AUSTRALIA,"{'longitude': 153.28503582, 'latitude': -27.81309185}"
4 SUNLAND COURT,BEERWAH,4519,QLD,AUSTRALIA,"{'longitude': 152.95878878, 'latitude': -26.87280544}"
"UNIT 805, 120 MARINE PARADE",COOLANGATTA,4225,QLD,AUSTRALIA,"{'longitude': 153.54268369, 'latitude': -28.16794836}"
4 HEGGYS COURT,BUDERIM,4556,QLD,AUSTRALIA,"{'longitude': 153.08160783, 'latitude': -26.68929912}"
64 BEACHWAY PARADE,MARCOOLA,4564,QLD,AUSTRALIA,"{'longitude': 153.09607604, 'latitude': -26.57618416}"
"VILLA 451, 118 BELLFLOWER ROAD",SIPPY DOWNS,4556,QLD,AUSTRALIA,"{'longitude': 153.04860513, 'latitude': -26.72412744}"
"UNIT 42, 15 SIMPSONS ROAD",ELANORA,4221,QLD,AUSTRALIA,"{'longitude': 153.45242369, 'latitude': -28.13935069}"
2 COACH WAY,UPPER COOMERA,4209,QLD,AUSTRALIA,"{'longitude': 153.29726899, 'latitude': -27.8547313}"
10 TEUTOBERG AVENUE,WITTA,4552,QLD,AUSTRALIA,"{'longitude': 152.81200552, 'latitude': -26.70147315}"
27 HIGHGROVE CIRCUIT,PEREGIAN SPRINGS,4573,QLD,AUSTRALIA,"{'longitude': 153.07393914, 'latitude': -26.49325994}"
16 CAPELILY STREET,UPPER COOMERA,4209,QLD,AUSTRALIA,"{'longitude': 153.28468586, 'latitude': -27.84994511}"
22 ROSEMOUNT DRIVE,WILLOW VALE,4209,QLD,AUSTRALIA,"{'longitude': 153.27561125, 'latitude': -27.83527353}"
18 HILL STREET,WOOMBYE,4559,QLD,AUSTRALIA,"{'longitude': 152.96586271, 'latitude': -26.6588033}"
44 WARRAN ROAD,YAROOMBA,4573,QLD,AUSTRALIA,"{'longitude': 153.09458815, 'latitude': -26.55115411}"
179 SIDNEY NOLAN DRIVE,COOMBABAH,4216,QLD,AUSTRALIA,"{'longitude': 153.3871107, 'latitude': -27.91462332}"
21 SHAW STREET,MERIDAN PLAINS,4551,QLD,AUSTRALIA,"{'longitude': 153.09705178, 'latitude': -26.76936782}"
39 SUTHERLAND STREET,BUDERIM,4556,QLD,AUSTRALIA,"{'longitude': 153.06579676, 'latitude': -26.66887184}"
17 ELUSIVE ROAD,COOMERA,4209,QLD,AUSTRALIA,"{'longitude': 153.37169419, 'latitude': -27.83702363}"
88 WUNBURRA CIRCLE,PACIFIC PINES,4211,QLD,AUSTRALIA,"{'longitude': 153.30207858, 'latitude': -27.94923004}"
"UNIT 5, 66 BRIGHTON STREET",BIGGERA WATERS,4216,QLD,AUSTRALIA,"{'longitude': 153.40460243, 'latitude': -27.93293524}"
112 ALLAN AVENUE,GLASS HOUSE MOUNTAINS,4518,QLD,AUSTRALIA,"{'longitude': 152.94363339, 'latitude': -26.90116734}"
26 FERNLEAF COURT,CURRIMUNDI,4551,QLD,AUSTRALIA,"{'longitude': 153.11475656, 'latitude': -26.76640862}"
"UNIT 3, 3 WILPARK CRESCENT",CURRUMBIN WATERS,4223,QLD,AUSTRALIA,"{'longitude': 153.46683795, 'latitude': -28.1377743}"
"UNIT 25, 42 PELICAN WATERS BOULEVARD",PELICAN WATERS,4551,QLD,AUSTRALIA,"{'longitude': 153.10941344, 'latitude': -26.83248428}"
46 COAST VIEW PARADE,DOONAN,4562,QLD,AUSTRALIA,"{'longitude': 152.99007254, 'latitude': -26.46147127}"
12 COLJOHN STREET,LANDSBOROUGH,4550,QLD,AUSTRALIA,"{'longitude': 152.96506078, 'latitude': -26.79793768}"
2 MACADAMIA DRIVE,MALENY,4552,QLD,AUSTRALIA,"{'longitude': 152.84441663, 'latitude': -26.75558126}"
"UNIT 1, 5 PARNKI PARADE",PALM BEACH,4221,QLD,AUSTRALIA,"{'longitude': 153.4550555, 'latitude': -28.10361118}"
"UNIT 2, 10 CRIMSON COURT",MIAMI,4220,QLD,AUSTRALIA,"{'longitude': 153.43560812, 'latitude': -28.07331734}"
11 NEMARA STREET,BIGGERA WATERS,4216,QLD,AUSTRALIA,"{'longitude': 153.39467664, 'latitude': -27.92731631}"
"UNIT 2, 6 BACARDI COURT",MERMAID WATERS,4218,QLD,AUSTRALIA,"{'longitude': 153.42379759, 'latitude': -28.03753885}"
"UNIT 904, 9 LAYCOCK STREET",SURFERS PARADISE,4217,QLD,AUSTRALIA,"{'longitude': 153.43073132, 'latitude': -28.00485882}"
163 PANORAMA DRIVE,ROSEMOUNT,4560,QLD,AUSTRALIA,"{'longitude': 152.97549351, 'latitude': -26.62950193}"
22 PARK AVENUE,BROADBEACH WATERS,4218,QLD,AUSTRALIA,"{'longitude': 153.41328253, 'latitude': -28.02766244}"
11 PONTEE PARADE,ALEXANDRA HEADLAND,4572,QLD,AUSTRALIA,"{'longitude': 153.09827062, 'latitude': -26.66974339}"
"UNIT 1, 36 DALPURA STREET",SURFERS PARADISE,4217,QLD,AUSTRALIA,"{'longitude': 153.41917345, 'latitude': -27.99692137}"
54 EXPECTATION CIRCUIT,NAMBOUR,4560,QLD,AUSTRALIA,"{'longitude': 152.94538347, 'latitude': -26.61386552}"
"UNIT 8, 7 BORDER DRIVE NORTH",CURRUMBIN WATERS,4223,QLD,AUSTRALIA,"{'longitude': 153.47996855, 'latitude': -28.1539733}"
"UNIT 245, 19 BURLEIGH STREET",BURLEIGH HEADS,4220,QLD,AUSTRALIA,"{'longitude': 153.4479358, 'latitude': -28.08849943}"
6 MACKEREL STREET,MOUNTAIN CREEK,4557,QLD,AUSTRALIA,"{'longitude': 153.10307946, 'latitude': -26.70864165}"
20 GLASSWING AVENUE,PALMVIEW,4553,QLD,AUSTRALIA,"{'longitude': 153.04235675, 'latitude': -26.74695981}"
11 PEACOCK CRESCENT,BOKARINA,4575,QLD,AUSTRALIA,"{'longitude': 153.13021101, 'latitude': -26.73351081}"
"UNIT 2, 33 BRAKES CRESCENT",MIAMI,4220,QLD,AUSTRALIA,"{'longitude': 153.44415162, 'latitude': -28.07037841}"
"UNIT 27, 10 GRAND PARADE",PARREARRA,4575,QLD,AUSTRALIA,"{'longitude': 153.12248769, 'latitude': -26.71103719}"
154 TALLOW WOOD DRIVE,KULUIN,4558,QLD,AUSTRALIA,"{'longitude': 153.06501417, 'latitude': -26.6547112}"
"UNIT 223, 215 COTTESLOE DRIVE",MERMAID WATERS,4218,QLD,AUSTRALIA,"{'longitude': 153.42151691, 'latitude': -28.06091682}"
"UNIT 212, 215 COTTESLOE DRIVE",MERMAID WATERS,4218,QLD,AUSTRALIA,"{'longitude': 153.42057539, 'latitude': -28.06124554}"
3 PARKLAND DRIVE,PACIFIC PARADISE,4564,QLD,AUSTRALIA,"{'longitude': 153.07381333, 'latitude': -26.61754415}"
5 TALOFA STREET,ASHMORE,4214,QLD,AUSTRALIA,"{'longitude': 153.37745493, 'latitude': -27.99334863}"
20 ELLY CIRCUIT,COOLUM BEACH,4573,QLD,AUSTRALIA,"{'longitude': 153.0793892, 'latitude': -26.54278453}"
10 HANWELL COURT,LITTLE MOUNTAIN,4551,QLD,AUSTRALIA,"{'longitude': 153.09137248, 'latitude': -26.77901199}"
21 LAMEROUGH PARADE,GOLDEN BEACH,4551,QLD,AUSTRALIA,"{'longitude': 153.11784275, 'latitude': -26.83069429}"
"UNIT 25, 10 PRICE LANE",BUDERIM,4556,QLD,AUSTRALIA,"{'longitude': 153.06222034, 'latitude': -26.67976424}"
36 PARASOL STREET,ASHMORE,4214,QLD,AUSTRALIA,"{'longitude': 153.39047486, 'latitude': -27.99340579}"
2 MOLUCCA AVENUE,PALM BEACH,4221,QLD,AUSTRALIA,"{'longitude': 153.47518612, 'latitude': -28.12774704}"
12 RAINTREES COURT,BUDERIM,4556,QLD,AUSTRALIA,"{'longitude': 153.08775287, 'latitude': -26.68899829}"
"UNIT 39, 452 MARINE PARADE",BIGGERA WATERS,4216,QLD,AUSTRALIA,"{'longitude': 153.4060713, 'latitude': -27.93385222}"
24 WARANA AVENUE,SOUTHPORT,4215,QLD,AUSTRALIA,"{'longitude': 153.39310089, 'latitude': -27.98094339}"
"UNIT 4, 56 BROADWATER AVENUE",MAROOCHYDORE,4558,QLD,AUSTRALIA,"{'longitude': 153.07811255, 'latitude': -26.64463867}"
"UNIT 3, 3 MERON STREET",SOUTHPORT,4215,QLD,AUSTRALIA,"{'longitude': 153.4163567, 'latitude': -27.9750296}"
13 HILLCOT STREET,CURRUMBIN WATERS,4223,QLD,AUSTRALIA,"{'longitude': 153.45546503, 'latitude': -28.14849553}"
"UNIT 139, 2-10 COOLGARDIE STREET",ELANORA,4221,QLD,AUSTRALIA,"{'longitude': 153.4647188, 'latitude': -28.13666926}"
8 THE GARDENWAY,ROBINA,4226,QLD,AUSTRALIA,"{'longitude': 153.38120908, 'latitude': -28.08092074}"
"UNIT 10, 259 ASHMORE ROAD",BENOWA,4217,QLD,AUSTRALIA,"{'longitude': 153.38798322, 'latitude': -28.00655407}"
"UNIT 2, 10 DOGGETT DRIVE",MIAMI,4220,QLD,AUSTRALIA,"{'longitude': 153.43644056, 'latitude': -28.07291201}"
74 GLENLEA DRIVE,MAROOCHYDORE,4558,QLD,AUSTRALIA,"{'longitude': 153.07909896, 'latitude': -26.64865261}"
15 KINGARRY CIRCUIT,MERRIMAC,4226,QLD,AUSTRALIA,"{'longitude': 153.36827217, 'latitude': -28.0525295}"
5 HOCKING STREET,NAMBOUR,4560,QLD,AUSTRALIA,"{'longitude': 152.96457101, 'latitude': -26.63042989}"
"UNIT 37, 2 BOS DRIVE",COOMERA,4209,QLD,AUSTRALIA,"{'longitude': 153.32552197, 'latitude': -27.86684359}"
7 DAWNANN COURT,CARRARA,4211,QLD,AUSTRALIA,"{'longitude': 153.3504153, 'latitude': -28.00556954}"
20 LEONARDO CIRCUIT,COOMBABAH,4216,QLD,AUSTRALIA,"{'longitude': 153.37904091, 'latitude': -27.91498381}"
33 YORK CREEK CRESCENT,REEDY CREEK,4227,QLD,AUSTRALIA,"{'longitude': 153.39234592, 'latitude': -28.11541352}"
"UNIT 59, 24 JESSICA DRIVE",UPPER COOMERA,4209,QLD,AUSTRALIA,"{'longitude': 153.2971278, 'latitude': -27.86613154}"
34 HERBERT STREET,CURRUMBIN WATERS,4223,QLD,AUSTRALIA,"{'longitude': 153.47893806, 'latitude': -28.14506698}"
"UNIT 307, 11 HIGH STREET",SIPPY DOWNS,4556,QLD,AUSTRALIA,"{'longitude': 153.05597325, 'latitude': -26.71498061}"
9 VISTA PARK DRIVE,BUDERIM,4556,QLD,AUSTRALIA,"{'longitude': 153.04081086, 'latitude': -26.68061296}"
1 PAVILIONS LANE,MAROOCHYDORE,4558,QLD,AUSTRALIA,"{'longitude': 153.07694822, 'latitude': -26.66566988}"
"UNIT 2, 17 MARSUPIAL DRIVE",COOMBABAH,4216,QLD,AUSTRALIA,"{'longitude': 153.38579013, 'latitude': -27.90469698}"
3 HAMIA COURT,BLI BLI,4560,QLD,AUSTRALIA,"{'longitude': 153.03651077, 'latitude': -26.61143783}"
1 WHITTINGTON WAY,MAUDSLAND,4210,QLD,AUSTRALIA,"{'longitude': 153.28052193, 'latitude': -27.93154004}"
69 FROGMOUTH CIRCUIT,MOUNTAIN CREEK,4557,QLD,AUSTRALIA,"{'longitude': 153.09701383, 'latitude': -26.71348203}"
